description,title,country,region,postal code,locality,extend address,name
"
	125 North Myers Street is located in the area Charlotte, USA (America), and the colocation data center is  carrier neutral. The data center was last updated on 09-10-2007.",125 North Myers Street,USA,North Carolina,28202,Charlotte,125 North Myers Street,Digital Realty
"
	1125 Energy Park Drive is located in the area Minneapolis, USA (America), and the colocation data center is  carrier neutral. The data center was last updated on 09-10-2007.",1125 Energy Park Drive,USA,Minnesota,55108,St. Paul,1125 Energy Park Drive,Digital Realty
"
	1100 Space Park Drive is located in the area Santa Clara, USA (America), and the colocation data center is  carrier neutral. The data center was last updated on 22-09-2011.",1100 Space Park Drive,USA,California,95050,Santa Clara,1100 Space Park Drive,Digital Realty
"
	120 East Van Buren St is located in the area Phoenix, USA (America), and the colocation data center is  carrier neutral. The data center was last updated on 22-09-2011.",120 East Van Buren St,USA,Arizona,85004,Phoenix,120 East Van Buren St,Digital Realty
"
	12001-12245 North Freeway is located in the area Houston, USA (America), and the colocation data center is  carrier neutral. The data center was last updated on 15-09-2011.",12001-12245 North Freeway,USA,Texas,77060,Houston,12001-12245 North Freeway,Digital Realty
"
	2045 & 2055 LaFayette Street is located in the area Santa Clara, USA (America), and the colocation data center is  carrier neutral. The data center was last updated on 09-10-2007.",2045 & 2055 LaFayette Street,USA,California,90210,Santa Clara,2045 & 2055 LaFayette Street,Digital Realty
"
	365 S Randolphville is located in the area Piscataway, USA (America), and the colocation data center is  carrier neutral. The data center was last updated on 21-09-2011.",365 S Randolphville,USA,New Jersey,08854,Piscataway,365 S Randolphville,Digital Realty
"
	251 Exchange Place is located in the area Reston, USA (America), and the colocation data center is  carrier neutral. The data center was last updated on 09-10-2007.",251 Exchange Place,USA,Virginia,20170,Herndon,251 Exchange Place,Digital Realty
"
	113 N Myers is located in the area Charlotte, USA (America), and the colocation data center is  carrier neutral. The data center was last updated on 09-10-2007.",113 N Myers,USA,North Carolina,28202,Charlotte,113 N Myers,Digital Realty
"
	115 Second Avenue is located in the area Boston, USA (America), and the colocation data center is  carrier neutral. The data center was last updated on 09-10-2007.",115 Second Avenue,USA,Massachusetts,02451,Waltham,115 Second Avenue,Digital Realty
"
	2334 Lundy Place is located in the area San Jose, USA (America), and the colocation data center is  carrier neutral. The data center was last updated on 09-10-2007.",2334 Lundy Place,USA,California,95101,San Jose,2334 Lundy Place,Digital Realty
"
	2323 Bryan Street is located in the area Dallas, USA (America), and the colocation data center is  carrier neutral. The data center was last updated on 15-09-2011.",2323 Bryan Street,USA,Texas,75201,Dallas,2323 Bryan Street,Digital Realty
"
	2403 Walsh Street is located in the area Santa Clara, USA (America), and the colocation data center is  carrier neutral. The data center was last updated on 09-10-2007.",2403 Walsh Street,USA,California,95051,Santa Clara,2403 Walsh Street,Digital Realty
"
	3 Corporate Place is located in the area Piscataway, USA (America), and the colocation data center is  carrier neutral. The data center was last updated on 21-09-2011.",3 Corporate Place,USA,New Jersey,08854,Piscataway,3 Corporate Place,Digital Realty
"
	300 JFK Blvd E is located in the area Hudson County, USA (America), and the colocation data center is  carrier neutral. The data center was last updated on 21-09-2011.",300 JFK Blvd E,USA,New Jersey,07086,Weehawken,300 JFK Blvd E,Digital Realty
"
	3015 Winona Avenue is located in the area Burbank, USA (America), and the colocation data center is  carrier neutral. The data center was last updated on 09-10-2007.",3015 Winona Avenue,USA,California,91504,Burbank,3015 Winona Avenue,Digital Realty
"
	3011 Lafayette Street is located in the area Santa Clara, USA (America), and the colocation data center is  carrier neutral. The data center was last updated on 09-10-2007.",3011 Lafayette Street,USA,California,95054,Santa Clara,3011 Lafayette Street,Digital Realty
"
	3300 East Birch Street is located in the area Los Angeles, USA (America), and the colocation data center is  carrier neutral. The data center was last updated on 09-10-2007.",3300 East Birch Street,USA,California,92821,Brea,3300 East Birch Street,Digital Realty
"
	3065 Gold Camp Dr is located in the area Sacramento, USA (America), and the colocation data center is  carrier neutral. The data center was last updated on 21-09-2011.",3065 Gold Camp Dr,USA,California,95050,Rancho Cordova,3065 Gold Camp Dr,Digital Realty
"
	2440 Marsh Lane is located in the area Dallas, USA (America), and the colocation data center is  carrier neutral. The data center was last updated on 09-10-2007.",2440 Marsh Lane,USA,Texas,75006,Carrollton,2440 Marsh Lane,Digital Realty
"
	2300 NW 89th Pl is located in the area Miami, USA (America), and the colocation data center is  carrier neutral. The data center was last updated on 09-10-2007.",2300 NW 89th Pl,USA,Florida,33172,Miami,2300 NW 89th Pl,Digital Realty
"
	2055 E Technology Circle is located in the area Phoenix, USA (America), and the colocation data center is  carrier neutral. The data center was last updated on 09-10-2007.",2055 E Technology Circle,USA,Arizona,85284,Tempe,2055 E Technology Circle,Digital Realty
"
	21110 Ridgetop Circle is located in the area Sterling, USA (America), and the colocation data center is  carrier neutral. The data center was last updated on 09-10-2007.",21110 Ridgetop Circle,USA,Virginia,20166,Sterling,21110 Ridgetop Circle,Digital Realty
"
	CoreSite San Jose (SV1) is located in the area San Jose, USA (America), and the colocation data center is  carrier neutral. The data center was last updated on 07-11-2016.",CoreSite San Jose (SV1),USA,California,95113,San Jose,CoreSite San Jose (SV1),CoreSite
"
	CoreSite Miami (MI1) is located in the area Miami, USA (America), and the colocation data center is  carrier neutral. The data center was last updated on 07-11-2016.",CoreSite Miami (MI1),USA,Florida,33142,Miami,CoreSite Miami (MI1),CoreSite
"
	CoreSite Santa Clara (SV4 - SV7) is located in the area Santa Clara, USA (America), and the colocation data center is  carrier neutral. The data center was last updated on 07-11-2016.",CoreSite Santa Clara (SV4 - SV7),USA,California,95054,Santa Clara,CoreSite Santa Clara (SV4 - SV7),CoreSite
"
	CoreSite Boston (BO1) is located in the area Boston, USA (America), and the colocation data center is  carrier neutral. The data center was last updated on 07-11-2016.",CoreSite Boston (BO1),USA,Massachusetts,02143,Boston,CoreSite Boston (BO1),CoreSite
"
	CoreSite D.C. (DC1) is located in the area Washington D.C., USA (America), and the colocation data center is  carrier neutral. The data center was last updated on 07-11-2016.",CoreSite D.C. (DC1),USA,District of Columbia,20005,Washington D.C.,CoreSite D.C. (DC1),CoreSite
"
	CoreSite Silicon Valley (SV2) is located in the area San Jose, USA (America), and the colocation data center is  carrier neutral. The data center was last updated on 07-11-2016.",CoreSite Silicon Valley (SV2),USA,California,95035,Milpitas,CoreSite Silicon Valley (SV2),CoreSite
"
	CoreSite Reston (VA1, VA2) is located in the area Reston, USA (America), and the colocation data center is  carrier neutral. The data center was last updated on 07-11-2016.","CoreSite Reston (VA1, VA2)",USA,Virginia,20190,Reston,"CoreSite Reston (VA1, VA2)",CoreSite
"
	CoreSite Wilshire Annex (LA2) is located in the area Los Angeles, USA (America), and the colocation data center is  carrier neutral. The data center was last updated on 07-11-2016.",CoreSite Wilshire Annex (LA2),USA,California,90017,Los Angeles,CoreSite Wilshire Annex (LA2),CoreSite
"
	ViaWest - Las Vegas 1 is located in the area Las Vegas, USA (America), and the colocation data center is  carrier neutral. The data center was last updated on 14-10-2015.",ViaWest - Las Vegas 1,USA,Nevada,89101,Las Vegas,ViaWest - Las Vegas 1,"ViaWest, Inc."
"
	ViaWest - Austin 1 is located in the area Austin, USA (America), and the colocation data center is  carrier neutral. The data center was last updated on 14-10-2015.",ViaWest - Austin 1,USA,Texas,78701,Austin,ViaWest - Austin 1,"ViaWest, Inc."
"
	Telx DAL2 - 8435 Stemmons, Dallas is located in the area Dallas, USA (America), and the colocation data center is  carrier neutral. The data center was last updated on 16-10-2013.","Telx DAL2 - 8435 Stemmons, Dallas",USA,Texas,75207,Dallas,"Telx DAL2 - 8435 Stemmons, Dallas",Digital Realty
"
	Interxion ZUR1 (Zurich) is located in the area Zürich, Switzerland (Schweiz), and the colocation data center is  carrier neutral. The data center was last updated on 13-02-2017.",Interxion ZUR1 (Zurich),Switzerland,,8152,Glattbrugg,Interxion ZUR1 (Zurich),Interxion
"
	Servecentric Dublin, Ireland is located in the area Dublin, Ireland (Éire), and the colocation data center is  carrier neutral. The data center was last updated on 21-12-2016.","Servecentric Dublin, Ireland",Ireland,,D15 CXE2,Dublin 15,,"Servecentric Dublin, Ireland"
"
	Telx ATL1 - 56 Marietta, Atlanta is located in the area Atlanta, USA (America), and the colocation data center is  carrier neutral. The data center was last updated on 16-10-2013.","Telx ATL1 - 56 Marietta, Atlanta",USA,Georgia,30303,Atlanta,"Telx ATL1 - 56 Marietta, Atlanta",Digital Realty
"
	TELEHOUSE London (Metro) is located in the area London, United Kingdom (UK), and the colocation data center is  carrier neutral. The data center was last updated on 08-06-2015.",TELEHOUSE London (Metro),United Kingdom,,EC2A 4JE,London,TELEHOUSE London (Metro),TELEHOUSE Europe
"
	TELEHOUSE Paris Voltaire is located in the area Paris, France (Française), and the colocation data center is  carrier neutral. The data center was last updated on 08-06-2015.",TELEHOUSE Paris Voltaire,France,,75011,Paris,TELEHOUSE Paris Voltaire,TELEHOUSE Europe
"
	TELEHOUSE London Docklands (East) is located in the area London, United Kingdom (UK), and the colocation data center is  carrier neutral. The data center was last updated on 08-06-2015.",TELEHOUSE London Docklands (East),United Kingdom,,E14 2AA,London,TELEHOUSE London Docklands (East),TELEHOUSE Europe
"
	TELEHOUSE Paris Jeûneurs is located in the area Paris, France (Française), and the colocation data center is  carrier neutral. The data center was last updated on 08-06-2015.",TELEHOUSE Paris Jeûneurs,France,,75002,Paris,TELEHOUSE Paris Jeûneurs,TELEHOUSE Europe
"
	TELEHOUSE London Docklands (North) is located in the area London, United Kingdom (UK), and the colocation data center is  carrier neutral. The data center was last updated on 08-06-2015.",TELEHOUSE London Docklands (North),United Kingdom,,E14 2AA,London,TELEHOUSE London Docklands (North),TELEHOUSE Europe
"
	Ns3i is located in the area San Francisco, USA (America), and the colocation data center is  carrier neutral. The data center was last updated on 29-10-2014.",Ns3i,USA,California,95054,Santa Clara,,Ns3i
"
	TELEHOUSE Los Angeles Center is located in the area Los Angeles, USA (America), and the colocation data center is  carrier neutral. The data center was last updated on 08-06-2015.",TELEHOUSE Los Angeles Center,USA,California,90017,Los Angeles,TELEHOUSE Los Angeles Center,Telehouse America
"
	TELEHOUSE New York Staten Island is located in the area New York, USA (America), and the colocation data center is  carrier neutral. The data center was last updated on 08-06-2015.",TELEHOUSE New York Staten Island,USA,New York,10311,New York,TELEHOUSE New York Staten Island,Telehouse America
"
	CyrusOne Houston - Galleria is located in the area Houston, USA (America), and the colocation data center is  carrier neutral. The data center was last updated on 26-02-2015.",CyrusOne Houston - Galleria,USA,Texas,77027,Houston,CyrusOne Houston - Galleria,CyrusOne Data Centers
"
	Net Access - Cedar Knolls I is located in the area Morris County, USA (America), and the colocation data center is  carrier neutral. The data center was last updated on 10-02-2011.",Net Access - Cedar Knolls I,USA,New Jersey,07927,Cedar Knolls,Net Access - Cedar Knolls I,Cologix
"
	NYI - New York is located in the area New York, USA (America), and the colocation data center is  carrier neutral. The data center was last updated on 18-07-2014.",NYI - New York,USA,New York,10038,New York,NYI - New York,NYI (New York Internet Company)
"
	ColoSpace Waltham is located in the area Boston, USA (America), and the colocation data center is  carrier neutral. The data center was last updated on 16-05-2016.",ColoSpace Waltham,USA,Massachusetts,02451,Waltham,ColoSpace Waltham,ColoSpace Inc.
"
	vXchnge Santa Clara (CA01) is located in the area Santa Clara, USA (America), and the colocation data center is  carrier neutral. The data center was last updated on 25-04-2017.",vXchnge Santa Clara (CA01),USA,California,95050,Santa Clara,vXchnge Santa Clara (CA01),vXchnge
"
	CyrusOne Houston Greenspoint is located in the area Houston, USA (America), and the colocation data center is  carrier neutral. The data center was last updated on 26-02-2015.",CyrusOne Houston Greenspoint,USA,Texas,77060,Houston,CyrusOne Houston Greenspoint,CyrusOne Data Centers
"
	Rockford IT is located in the area Shropshire, United Kingdom (UK), and the colocation data center is not  carrier neutral. The data center was last updated on 31-03-2015.",Rockford IT,United Kingdom,,TF2 9TW,Telford,,Rockford IT
"
	Atlantic Metro - LGA6 is located in the area New York, USA (America), and the colocation data center is  carrier neutral. The data center was last updated on 23-01-2014.",Atlantic Metro - LGA6,USA,New York,10013,new york,Atlantic Metro - LGA6,Atlantic Metro Communications
"
	TELEHOUSE Paris Magny-Les-Hameaux is located in the area Paris, France (Française), and the colocation data center is  carrier neutral. The data center was last updated on 09-06-2015.",TELEHOUSE Paris Magny-Les-Hameaux,France,,78114,Paris,TELEHOUSE Paris Magny-Les-Hameaux,TELEHOUSE Europe
"
	Brussels DataCenter is located in the area Brussels (Bruxelles), Belgium, and the colocation data center is  carrier neutral. The data center was last updated on 15-10-2013.",Brussels DataCenter,Belgium,Brussels,1930,Zaventem,Brussels DataCenter,Antwerp DC
"
	CyrusOne Austin Data Center II is located in the area Austin, USA (America), and the colocation data center is  carrier neutral. The data center was last updated on 26-02-2015.",CyrusOne Austin Data Center II,USA,Texas,78703,Austin,CyrusOne Austin Data Center II,CyrusOne Data Centers
"
	Amatis Reading is located in the area Berkshire, United Kingdom (UK), and the colocation data center is not  carrier neutral. The data center was last updated on 07-02-2014.",Amatis Reading,United Kingdom,,RG30 1EA,Reading,Amatis Reading,Amatis Networks Ltd
"
	Colocation-Center Contern is located in the area Luxembourg, Luxembourg (Luxemburg), and the colocation data center is  carrier neutral. The data center was last updated on 20-12-2013.",Colocation-Center Contern,Luxembourg,,L-5326,Contern,Colocation-Center Contern,Visual Online
"
	ViaWest - Portland is located in the area Portland, USA (America), and the colocation data center is  carrier neutral. The data center was last updated on 14-10-2015.",ViaWest - Portland,USA,Oregon,97124,Hillsboro,ViaWest - Portland,"ViaWest, Inc."
"
	ViaWest - Denver Wazee is located in the area Denver, USA (America), and the colocation data center is  carrier neutral. The data center was last updated on 14-10-2015.",ViaWest - Denver Wazee,USA,Colorado,80204,Denver,ViaWest - Denver Wazee,"ViaWest, Inc."
"
	ViaWest - SLC Cottonwood is located in the area Salt Lake City, USA (America), and the colocation data center is  carrier neutral. The data center was last updated on 14-10-2015.",ViaWest - SLC Cottonwood,USA,Utah,84121,Salt Lake City,ViaWest - SLC Cottonwood,"ViaWest, Inc."
"
	ViaWest - Denver Tech Center is located in the area Denver, USA (America), and the colocation data center is  carrier neutral. The data center was last updated on 14-10-2015.",ViaWest - Denver Tech Center,USA,Colorado,80112,Centennial,ViaWest - Denver Tech Center,"ViaWest, Inc."
"
	ViaWest - Cornell Data Center is located in the area Denver, USA (America), and the colocation data center is  carrier neutral. The data center was last updated on 14-10-2015.",ViaWest - Cornell Data Center,USA,Colorado,80014,Aurora,ViaWest - Cornell Data Center,"ViaWest, Inc."
"
	ViaWest - SLC Lindon is located in the area Orem, USA (America), and the colocation data center is  carrier neutral. The data center was last updated on 14-10-2015.",ViaWest - SLC Lindon,USA,Utah,84042,Lindon,ViaWest - SLC Lindon,"ViaWest, Inc."
"
	ViaWest - SLC Delong is located in the area Salt Lake City, USA (America), and the colocation data center is  carrier neutral. The data center was last updated on 14-10-2015.",ViaWest - SLC Delong,USA,Utah,84104,Salt Lake City,ViaWest - SLC Delong,"ViaWest, Inc."
"
	Reynolds House is located in the area Manchester, United Kingdom (UK), and the colocation data center is  carrier neutral. The data center was last updated on 21-01-2010.",Reynolds House,United Kingdom,,M15 5RN,Manchester,Reynolds House,Digital Realty
"
	ATMAN Data Center is located in the area Warsaw (Warszawa), Poland (Polska), and the colocation data center is  carrier neutral. The data center was last updated on 17-02-2017.",ATMAN Data Center,Poland,,04-186,Warsaw,ATMAN Data Center,ATM S.A.
"
	Thinx Poland is located in the area Warsaw (Warszawa), Poland (Polska), and the colocation data center is  carrier neutral. The data center was last updated on 17-02-2017.",Thinx Poland,Poland,,02-673,Warsaw,Thinx Poland,ATM S.A.
"
	wusys Data Center (DC-EBL110) is located in the area Frankfurt (Frankfurt am Main), Germany (Deutschland), and the colocation data center is  carrier neutral. The data center was last updated on 08-12-2010.",wusys Data Center (DC-EBL110),Germany,Hessen,60489,Frankfurt,wusys Data Center (DC-EBL110),wusys
"
	Mainstream Technologies is located in the area Little Rock, USA (America), and the colocation data center is  carrier neutral. The data center was last updated on 21-01-2011.",Mainstream Technologies,USA,Arkansas,72201,Little Rock,Mainstream Technologies,"Mainstream Technologies, Inc."
"
	Sanity DC1 is located in the area Brisbane (Queensland), AUSTRALIA, and the colocation data center is  carrier neutral. The data center was last updated on 19-03-2010.",Sanity DC1,AUSTRALIA,QLD,4006,Fortitude Valley,Sanity DC1,Over the Wire Holdings Ltd
"
	DataHouse.PL is located in the area Warsaw (Warszawa), Poland (Polska), and the colocation data center is  carrier neutral. The data center was last updated on 25-05-2010.",DataHouse.PL,Poland,,02-222,Warszawa,DataHouse.PL,etop sp z o.o.
"
	Real Comm is located in the area Pordenone, Italy (Italia), and the colocation data center is not  carrier neutral. The data center was last updated on 21-05-2010.",Real Comm,Italy,,33080,Porcia,Real Comm,Real Comm srl
"
	121 Varick St is located in the area New York, USA (America).",121 Varick St,,,,,,
"
	iseek Data Centre-Brisbane Airport is located in the area Brisbane (Queensland), Australia, and the colocation data center is  carrier neutral. The data center was last updated on 21-08-2015.",iseek Data Centre-Brisbane Airport,Australia,QLD,4009,Brisbane Airport,iseek Data Centre-Brisbane Airport,iseek Communications
"
	MWTN - NOC of the Rockies is located in the area Casper, USA (America), and the colocation data center is  carrier neutral. The data center was last updated on 07-10-2011.",MWTN - NOC of the Rockies,USA,Wyoming,82601,Casper,MWTN - NOC of the Rockies,Mountain West Technology Network
"
	Tinext Datacenter is located in the area Lugano, Switzerland (Schweiz), and the colocation data center is  carrier neutral. The data center was last updated on 12-01-2017.",Tinext Datacenter,Switzerland,Ticino,6834,Morbio Inferiore,Tinext Datacenter,Tinext
"
	wusys Data Center (DC-AS71) is located in the area Frankfurt (Frankfurt am Main), Germany (Deutschland), and the colocation data center is  carrier neutral. The data center was last updated on 08-12-2010.",wusys Data Center (DC-AS71),Germany,Hesse,63067,Frankfurt/Offenbach,wusys Data Center (DC-AS71),wusys
"
	MWTN-CYS is located in the area Cheyenne, USA (America), and the colocation data center is not  carrier neutral. The data center was last updated on 07-10-2011.",MWTN-CYS,USA,Wyoming,82001,Cheyenne,MWTN-CYS,Mountain West Technology Network
"
	Net Access - Parsippany II is located in the area Morris County, USA (America), and the colocation data center is  carrier neutral. The data center was last updated on 10-01-2012.",Net Access - Parsippany II,USA,New Jersey,07054,Parsippany,Net Access - Parsippany II,Cologix
"
	Net Access - Parsippany I is located in the area Morris County, USA (America), and the colocation data center is  carrier neutral. The data center was last updated on 10-02-2011.",Net Access - Parsippany I,USA,New Jersey,07054,Parsippany,Net Access - Parsippany I,Cologix
"
	Quasar Data Center is located in the area Houston, USA (America), and the colocation data center is  carrier neutral. The data center was last updated on 19-11-2010.",Quasar Data Center,USA,Texas,77002,Houston,,Quasar Data Center
"
	Frontline Data Services is located in the area New York, USA (America), and the colocation data center is  carrier neutral. The data center was last updated on 15-03-2017.",Frontline Data Services,USA,New York,10962,Orangeburg,,Frontline Data Services
"
	Cover-All Markham Centre is located in the area Toronto, Canada, and the colocation data center is  carrier neutral. The data center was last updated on 30-09-2016.",Cover-All Markham Centre,Canada,Ontario,L3R5L9,Toronto,Cover-All Markham Centre,Cover-All Computer Services Corp
"
	Kolotek is located in the area Montreal, Canada, and the colocation data center is  carrier neutral. The data center was last updated on 06-04-2016.",Kolotek,Canada,Qc,J4B 5H3,Boucherville,,Kolotek
"
	Antwerp DataCenter is located in the area Antwerp (Antwerpen), Belgium, and the colocation data center is  carrier neutral. The data center was last updated on 15-10-2013.",Antwerp DataCenter,Belgium,Antwerp,2030,Antwerpen,Antwerp DataCenter,Antwerp DC
"
	TELEHOUSE New York Chelsea is located in the area New York, USA (America), and the colocation data center is  carrier neutral. The data center was last updated on 08-06-2015.",TELEHOUSE New York Chelsea,USA,New York,10011,New York,TELEHOUSE New York Chelsea,Telehouse America
"
	S-NET Biprostal Data Centre is located in the area Krakow, Poland (Polska), and the colocation data center is not  carrier neutral. The data center was last updated on 02-12-2016.",S-NET Biprostal Data Centre,Poland,,30-081,krakow,S-NET Biprostal Data Centre,S-NET Sp z o.o.
"
	RagingWire Dallas TX1 is located in the area Dallas, USA (America), and the colocation data center is  carrier neutral. The data center was last updated on 31-01-2017.",RagingWire Dallas TX1,USA,Texas,75044,Garland,RagingWire Dallas TX1,RagingWire Data Centers
"
	CyrusOne Dallas is located in the area Dallas, USA (America), and the colocation data center is  carrier neutral. The data center was last updated on 26-02-2015.",CyrusOne Dallas,USA,Texas,75067,Lewsiville,CyrusOne Dallas,CyrusOne Data Centers
"
	CyrusOne Houston West I is located in the area Houston, USA (America), and the colocation data center is  carrier neutral. The data center was last updated on 26-02-2015.",CyrusOne Houston West I,USA,Texas,77041,Houston,CyrusOne Houston West I,CyrusOne Data Centers
"
	RagingWire - Ashburn VA is located in the area Ashburn, USA (America), and the colocation data center is  carrier neutral. The data center was last updated on 02-01-2013.",RagingWire - Ashburn VA,USA,Virginia,20147,Ashburn,RagingWire - Ashburn VA,RagingWire Data Centers
"
	CyrusOne Austin Data Center I is located in the area Austin, USA (America), and the colocation data center is  carrier neutral. The data center was last updated on 26-02-2015.",CyrusOne Austin Data Center I,USA,Texas,78741,Austin,CyrusOne Austin Data Center I,CyrusOne Data Centers
"
	vXchnge Secaucus (NJ01) is located in the area Hudson County, USA (America), and the colocation data center is  carrier neutral. The data center was last updated on 25-04-2017.",vXchnge Secaucus (NJ01),USA,New Jersey,07094,Secaucus,vXchnge Secaucus (NJ01),vXchnge
"
	SoloGigabit Neutral DataCenter is located in the area Valencia, Spain (España), and the colocation data center is  carrier neutral. The data center was last updated on 10-10-2016.",SoloGigabit Neutral DataCenter,Spain,Valencia,46988,Valencia,SoloGigabit Neutral DataCenter,Sologigabit S.L.U.
"
	Switch Datacenter Amsterdam is located in the area Amsterdam, The Netherlands (Holland), and the colocation data center is  carrier neutral. The data center was last updated on 21-03-2012.",Switch Datacenter Amsterdam,The Netherlands,NH,1101 AH,Amsterdam,,Switch Datacenter Amsterdam
"
	vXchnge Westchester (NY02) is located in the area Westchester County, USA (America), and the colocation data center is  carrier neutral. The data center was last updated on 25-04-2017.",vXchnge Westchester (NY02),USA,New York,10514,Chappaqua,vXchnge Westchester (NY02),vXchnge
"
	55 Middlesex is located in the area Boston, USA (America), and the colocation data center is  carrier neutral. The data center was last updated on 14-09-2011.",55 Middlesex,USA,Massachusetts,01803,Bedford,55 Middlesex,Digital Realty
"
	aqumo San Lorenzo (Lugano) is located in the area Lugano, Switzerland (Schweiz), and the colocation data center is  carrier neutral. The data center was last updated on 14-06-2013.",aqumo San Lorenzo (Lugano),Switzerland,Ticino,6900,Lugano,aqumo San Lorenzo (Lugano),aqumo technologies SA
"
	1550 Space Park is located in the area Santa Clara, USA (America), and the colocation data center is  carrier neutral. The data center was last updated on 22-09-2011.",1550 Space Park,USA,California,95054,Santa Clara,1550 Space Park,Digital Realty
"
	800 Central Expressway is located in the area Santa Clara, USA (America), and the colocation data center is  carrier neutral. The data center was last updated on 22-09-2011.",800 Central Expressway,USA,California,95050,Santa Clara,800 Central Expressway,Digital Realty
"
	3105 Alfred Rd is located in the area Santa Clara, USA (America), and the colocation data center is  carrier neutral. The data center was last updated on 22-09-2011.",3105 Alfred Rd,USA,California,95054,Santa Clara,3105 Alfred Rd,Digital Realty
"
	200 Quannapowitt is located in the area Boston, USA (America), and the colocation data center is  carrier neutral. The data center was last updated on 14-09-2011.",200 Quannapowitt,USA,Massachusetts,01880,Wakefield,200 Quannapowitt,Digital Realty
"
	1301 International Pkwy - DPD is located in the area Dallas, USA (America), and the colocation data center is  carrier neutral. The data center was last updated on 15-09-2011.",1301 International Pkwy - DPD,USA,Texas,75081,Richardson,1301 International Pkwy - DPD,Digital Realty
"
	1232 Alma - DPD is located in the area Dallas, USA (America), and the colocation data center is  carrier neutral. The data center was last updated on 15-09-2011.",1232 Alma - DPD,USA,Texas,75081,Richardson,1232 Alma - DPD,Digital Realty
"
	900 Quality Way - DPD is located in the area Dallas, USA (America), and the colocation data center is  carrier neutral. The data center was last updated on 15-09-2011.",900 Quality Way - DPD,USA,Texas,75081,Richardson,900 Quality Way - DPD,Digital Realty
"
	1400 N Bowser Rd - DPD is located in the area Dallas, USA (America), and the colocation data center is  carrier neutral. The data center was last updated on 15-09-2011.",1400 N Bowser Rd - DPD,USA,Texas,75081,Richardson,1400 N Bowser Rd - DPD,Digital Realty
"
	Iron Mountain Data Centers - BOS-1 is located in the area Boston, USA (America), and the colocation data center is  carrier neutral. The data center was last updated on 30-03-2017.",Iron Mountain Data Centers - BOS-1,USA,Massachusetts,01532,Northborough,Iron Mountain Data Centers - BOS-1,Iron Mountain
"
	905 Security Row - DPD is located in the area Dallas, USA (America), and the colocation data center is  carrier neutral. The data center was last updated on 15-09-2011.",905 Security Row - DPD,USA,Texas,75081,Richardson,905 Security Row - DPD,Digital Realty
"
	4025 Midway is located in the area Dallas, USA (America), and the colocation data center is  carrier neutral. The data center was last updated on 21-09-2011.",4025 Midway,USA,Texas,75007,Carrollton,4025 Midway,Digital Realty
"
	650 Randolph Rd is located in the area Franklin Township, USA (America), and the colocation data center is  carrier neutral. The data center was last updated on 21-09-2011.",650 Randolph Rd,USA,New Jersey,08854,Franklin Township,650 Randolph Rd,Digital Realty
"
	3115 Alfred Rd is located in the area Santa Clara, USA (America), and the colocation data center is  carrier neutral. The data center was last updated on 22-09-2011.",3115 Alfred Rd,USA,California,95054,Santa Clara,3115 Alfred Rd,Digital Realty
"
	43830 Devin Shafron Dr is located in the area Ashburn, USA (America), and the colocation data center is  carrier neutral. The data center was last updated on 21-09-2011.",43830 Devin Shafron Dr,USA,Virginia,20147,Ashburn,43830 Devin Shafron Dr,Digital Realty
"
	Unit 3 Foxboro Park is located in the area London, United Kingdom (UK), and the colocation data center is  carrier neutral. The data center was last updated on 22-09-2011.",Unit 3 Foxboro Park,United Kingdom,,RH1 1,Surrey,Unit 3 Foxboro Park,Digital Realty
"
	Cateringweg 5 is located in the area Amsterdam, The Netherlands (Holland), and the colocation data center is  carrier neutral. The data center was last updated on 11-01-2012.",Cateringweg 5,The Netherlands,,1118 AM Schiphol,Amsterdam,Cateringweg 5,Digital Realty
"
	Simplex is located in the area Limassol, Cyprus (Republic of Cyprus), and the colocation data center is  carrier neutral. The data center was last updated on 19-07-2014.",Simplex,Cyprus,,3025,Limassol,,Simplex
"
	Webspesialisten is located in the area OSLO, Norway (Norge), and the colocation data center is  carrier neutral. The data center was last updated on 04-10-2016.",Webspesialisten,Norway,,0356,OSLO,Webspesialisten,Webspesialisten AS
"
	Swisscolocation - Your Datacenter is located in the area Chiasso, Switzerland (Schweiz), and the colocation data center is  carrier neutral. The data center was last updated on 18-09-2015.",Swisscolocation - Your Datacenter,Switzerland,Ticino,6834,Morbio/Chiasso,Swisscolocation - Your Datacenter,Swisscolocation SA
"
	HostColor.com is located in the area South Bend, USA (America), and the colocation data center is  carrier neutral. The data center was last updated on 20-07-2016.",HostColor.com,USA,Indiana,46619,South Bend,HostColor.com,Host Color
"
	Cologix Data Center (MTL 4) is located in the area Montreal, Canada, and the colocation data center is  carrier neutral. The data center was last updated on 17-02-2015.",Cologix Data Center (MTL 4),Canada,Quebec,H1M 3N2,Anjou,Cologix Data Center (MTL 4),Cologix
"
	Cologix Data Center (MTL 1) is located in the area Montreal, Canada, and the colocation data center is  carrier neutral. The data center was last updated on 14-04-2015.",Cologix Data Center (MTL 1),Canada,Quebec,H3B 1R2,Montreal,Cologix Data Center (MTL 1),Cologix
"
	Cologix Data Center (MTL 6) is located in the area Montreal, Canada, and the colocation data center is  carrier neutral. The data center was last updated on 13-02-2015.",Cologix Data Center (MTL 6),Canada,Quebec,H4S 2A9,Montreal,Cologix Data Center (MTL 6),Cologix
"
	Cologix Data Center (MTL 5) is located in the area Montreal, Canada, and the colocation data center is  carrier neutral. The data center was last updated on 13-02-2015.",Cologix Data Center (MTL 5),Canada,Quebec,H4S 2A9,Montreal,Cologix Data Center (MTL 5),Cologix
"
	Artmotion Main Datacenter is located in the area Zürich, Switzerland (Schweiz), and the colocation data center is not  carrier neutral. The data center was last updated on 31-10-2012.",Artmotion Main Datacenter,Switzerland,,8048,Zuerich,Artmotion Main Datacenter,Artmotion Ltd
"
	Artmotion Backup Datacenter is located in the area Zürich, Switzerland (Schweiz), and the colocation data center is not  carrier neutral. The data center was last updated on 31-10-2012.",Artmotion Backup Datacenter,Switzerland,,8003,Zuerich,Artmotion Backup Datacenter,Artmotion Ltd
"
	DataSite Atlanta is located in the area Atlanta, USA (America), and the colocation data center is  carrier neutral. The data center was last updated on 30-03-2015.",DataSite Atlanta,USA,Georgia,30067,Marietta,DataSite Atlanta,DataSite
"
	CoreSpace is located in the area Dallas, USA (America), and the colocation data center is  carrier neutral. The data center was last updated on 19-11-2015.",CoreSpace,USA,Texas,75247,Dallas,,CoreSpace
"
	iseek Data Centre - Sydney is located in the area Sydney (New South Wales), Australia, and the colocation data center is  carrier neutral. The data center was last updated on 21-08-2015.",iseek Data Centre - Sydney,Australia,NSW,2064,Artarmon,iseek Data Centre - Sydney,iseek Communications
"
	Emtel Data Centre is located in the area Arsenal, Mauritius (Republic of Mauritius), and the colocation data center is  carrier neutral. The data center was last updated on 28-01-2016.",Emtel Data Centre,Mauritius,,00230,Arsenal,Emtel Data Centre,Emtel Ltd
"
	Cologix Toronto Data Center (TOR 2) is located in the area Toronto, Canada, and the colocation data center is  carrier neutral. The data center was last updated on 17-02-2015.",Cologix Toronto Data Center (TOR 2),Canada,Ontario,M6K 3G9,Toronto,Cologix Toronto Data Center (TOR 2),Cologix
"
	Ask4 DC1 Sheffield is located in the area Sheffield, United Kingdom (UK), and the colocation data center is  carrier neutral. The data center was last updated on 29-05-2012.",Ask4 DC1 Sheffield,United Kingdom,South Yorkshire,S9 2PA,Sheffield,Ask4 DC1 Sheffield,Ask4 Data Centres
"
	iseek Data Centre - Brisbane City is located in the area Brisbane (Queensland), Australia, and the colocation data center is  carrier neutral. The data center was last updated on 21-06-2012.",iseek Data Centre - Brisbane City,Australia,Queensland,4000,Brisbane,iseek Data Centre - Brisbane City,iseek Communications
"
	Cologix Data Center (VAN 2) is located in the area Vancouver, Canada, and the colocation data center is  carrier neutral. The data center was last updated on 17-02-2015.",Cologix Data Center (VAN 2),Canada,British Columbia,V6E 3S7,Vancouver,Cologix Data Center (VAN 2),Cologix
"
	Pulsant Milton Keynes is located in the area Milton Keynes, United Kingdom (UK), and the colocation data center is  carrier neutral. The data center was last updated on 04-08-2015.",Pulsant Milton Keynes,United Kingdom,,MK14 6LY,Milton Keynes,Pulsant Milton Keynes,Pulsant Ltd
"
	iseek Data Centre-Woolloongabba is located in the area Brisbane (Queensland), Australia, and the colocation data center is  carrier neutral. The data center was last updated on 21-08-2015.",iseek Data Centre-Woolloongabba,Australia,Queensland,4102,Woolloongabba,iseek Data Centre-Woolloongabba,iseek Communications
"
	Pulsant Reading Central is located in the area Berkshire, United Kingdom (UK), and the colocation data center is  carrier neutral. The data center was last updated on 04-08-2015.",Pulsant Reading Central,United Kingdom,,RG2 0HP,Reading,Pulsant Reading Central,Pulsant Ltd
"
	Pulsant South London is located in the area London, United Kingdom (UK), and the colocation data center is  carrier neutral. The data center was last updated on 04-08-2015.",Pulsant South London,United Kingdom,,CR0 4RR,London,Pulsant South London,Pulsant Ltd
"
	Pulsant Newbridge is located in the area Edinburgh (Scotland), United Kingdom (UK), and the colocation data center is not  carrier neutral. The data center was last updated on 04-08-2015.",Pulsant Newbridge,United Kingdom,,EH28 8LF,Edinburgh,Pulsant Newbridge,Pulsant Ltd
"
	Pulsant Maidenhead 1/2/3 is located in the area Berkshire, United Kingdom (UK), and the colocation data center is  carrier neutral. The data center was last updated on 04-08-2015.",Pulsant Maidenhead 1/2/3,United Kingdom,,SL6 2HP,Maidenhead,Pulsant Maidenhead 1/2/3,Pulsant Ltd
"
	Psychz Networks Los Angeles is located in the area Los Angeles, USA (America), and the colocation data center is  carrier neutral. The data center was last updated on 09-08-2014.",Psychz Networks Los Angeles,USA,California,90017,Los Angeles,Psychz Networks Los Angeles,Psychz Networks
"
	ATMAN Data Center Katowice is located in the area Katowice, Poland (Polska), and the colocation data center is not  carrier neutral. The data center was last updated on 17-06-2014.",ATMAN Data Center Katowice,Poland,,40-007,Katowice,ATMAN Data Center Katowice,ATM S.A.
"
	DC 25 is located in the area Riga, Latvia (Latvija), and the colocation data center is not  carrier neutral. The data center was last updated on 31-08-2015.",DC 25,Latvia,LV,LV 1082,Riga,DC 25,Optron Ltd.
"
	MFX RFP is located in the area Hudson County, USA (America), and the colocation data center is  carrier neutral. The data center was last updated on 07-08-2014.",MFX RFP,USA,New Jersey,07660,Ridgefield Park,MFX RFP,"MFX Roanoke, Inc"
"
	Turnkey Internet Data Center NY is located in the area Albany, USA (America), and the colocation data center is  carrier neutral. The data center was last updated on 07-04-2017.",Turnkey Internet Data Center NY,USA,New York,12110,Latham,Turnkey Internet Data Center NY,"Turnkey Internet, Inc."
"
	Netstyle is located in the area Tel Aviv, Israel, and the colocation data center is not  carrier neutral. The data center was last updated on 17-11-2016.",Netstyle,Israel,,74036,Ness-Tziona,Netstyle,Net-Style Atarim Ltd
"
	Volta Data Centres is located in the area London, United Kingdom (UK), and the colocation data center is  carrier neutral. The data center was last updated on 02-06-2016.",Volta Data Centres,United Kingdom,,EC1V0AB,London,,Volta Data Centres
"
	MKDC-0 - Milton Keynes is located in the area Milton Keynes, United Kingdom (UK), and the colocation data center is not  carrier neutral. The data center was last updated on 01-02-2013.",MKDC-0 - Milton Keynes,United Kingdom,Bucks,MK11 3EJ,Milton Keynes,MKDC-0 - Milton Keynes,nuco technologies ltd
"
	TELEHOUSE Frankfurt is located in the area Frankfurt (Frankfurt am Main), Germany (Deutschland), and the colocation data center is  carrier neutral. The data center was last updated on 22-06-2015.",TELEHOUSE Frankfurt,Germany,,60326,Frankfurt,TELEHOUSE Frankfurt,TELEHOUSE Europe
"
	OnRamp RTP 1 is located in the area Raleigh, USA (America), and the colocation data center is  carrier neutral. The data center was last updated on 20-02-2015.",OnRamp RTP 1,USA,North Carolina,27617,Raleigh,OnRamp RTP 1,OnRamp
"
	Telx PRT1 - Portland is located in the area Portland, USA (America), and the colocation data center is  carrier neutral. The data center was last updated on 16-10-2013.",Telx PRT1 - Portland,USA,Oregon,97124,Hillsboro,Telx PRT1 - Portland,Digital Realty
"
	Telx SCL2 - Santa Clara is located in the area Santa Clara, USA (America), and the colocation data center is  carrier neutral. The data center was last updated on 16-10-2013.",Telx SCL2 - Santa Clara,USA,California,95051,Santa Clara,Telx SCL2 - Santa Clara,Digital Realty
"
	Telx SEA1 - Seattle is located in the area Seattle, USA (America), and the colocation data center is  carrier neutral. The data center was last updated on 16-10-2013.",Telx SEA1 - Seattle,USA,Washington,98168,Tuckwila,Telx SEA1 - Seattle,Digital Realty
"
	Telx NJR2 - Clifton is located in the area Hudson County, USA (America), and the colocation data center is  carrier neutral. The data center was last updated on 16-10-2013.",Telx NJR2 - Clifton,USA,New Jersey,07014,Clifton,Telx NJR2 - Clifton,Digital Realty
"
	Colocation America 701 S. Lasalle is located in the area Chicago, USA (America), and the colocation data center is  carrier neutral. The data center was last updated on 19-02-2013.",Colocation America 701 S. Lasalle,USA,Illinois,60605,Chicago,Colocation America 701 S. Lasalle,Colocation America
"
	Telx NJR3 - Clifton is located in the area Hudson County, USA (America), and the colocation data center is  carrier neutral. The data center was last updated on 16-10-2013.",Telx NJR3 - Clifton,USA,New Jersey,07014,Clifton,Telx NJR3 - Clifton,Digital Realty
"
	Colocation America 1331 Business is located in the area Chicago, USA (America), and the colocation data center is  carrier neutral. The data center was last updated on 20-02-2013.",Colocation America 1331 Business,USA,Illinois,60056,Mt. Prospect,Colocation America 1331 Business,Colocation America
"
	Colocation America 600 W Chicago Av is located in the area Chicago, USA (America), and the colocation data center is  carrier neutral. The data center was last updated on 20-02-2013.",Colocation America 600 W Chicago Av,USA,Illinois,60654,Chicago,Colocation America 600 W Chicago Av,Colocation America
"
	Colocation America 1905 Lunt ave is located in the area Chicago, USA (America), and the colocation data center is  carrier neutral. The data center was last updated on 20-02-2013.",Colocation America 1905 Lunt ave,USA,Illinois,60007,Elk Grove Village,Colocation America 1905 Lunt ave,Colocation America
"
	Colocation America 2425 Busse Rd. is located in the area Chicago, USA (America), and the colocation data center is  carrier neutral. The data center was last updated on 20-02-2013.",Colocation America 2425 Busse Rd.,USA,Illinois,60005,Arlington Heights,Colocation America 2425 Busse Rd.,Colocation America
"
	Internap Japan Tokyo Inzai DC is located in the area Tokyo, Japan, and the colocation data center is  carrier neutral. The data center was last updated on 02-02-2016.",Internap Japan Tokyo Inzai DC,Japan,"Inzai, Chiba",270-1350,Tokyo,Internap Japan Tokyo Inzai DC,"Internap Japan Co.,ltd."
"
	CyrusOne Chicago is located in the area Chicago, USA (America), and the colocation data center is  carrier neutral. The data center was last updated on 20-02-2013.",CyrusOne Chicago,USA,Illinois,60148,Lombard,CyrusOne Chicago,CyrusOne Data Centers
"
	Internap Japan Tokyo Shiohama DC is located in the area Tokyo, Japan, and the colocation data center is  carrier neutral. The data center was last updated on 02-02-2016.",Internap Japan Tokyo Shiohama DC,Japan,"Koto-Ku, Tokyo",135-0043,Tokyo,Internap Japan Tokyo Shiohama DC,"Internap Japan Co.,ltd."
"
	Internap Japan Osaka Data Center is located in the area Osaka, Japan, and the colocation data center is  carrier neutral. The data center was last updated on 02-02-2016.",Internap Japan Osaka Data Center,Japan,Osaka-shi,556,Osaka,Internap Japan Osaka Data Center,"Internap Japan Co.,ltd."
"
	Internap Japan Tokyo Palace is located in the area Tokyo, Japan, and the colocation data center is  carrier neutral. The data center was last updated on 02-02-2016.",Internap Japan Tokyo Palace,Japan,"Chiyoda-ku, Tokyo",100-0004,Tokyo,Internap Japan Tokyo Palace,"Internap Japan Co.,ltd."
"
	ViaWest - Las Vegas Lone Mountain is located in the area Las Vegas, USA (America), and the colocation data center is  carrier neutral. The data center was last updated on 14-10-2015.",ViaWest - Las Vegas Lone Mountain,USA,Nevada,89081,North Las Vegas,ViaWest - Las Vegas Lone Mountain,"ViaWest, Inc."
"
	Internap Japan Tokyo Kasai DC is located in the area Tokyo, Japan, and the colocation data center is  carrier neutral. The data center was last updated on 02-02-2016.",Internap Japan Tokyo Kasai DC,Japan,"edogawa, Tokyo",134-0086,Tokyo,Internap Japan Tokyo Kasai DC,"Internap Japan Co.,ltd."
"
	INTERNETPORT is located in the area Hudiksvall, Sweden (Sverige), and the colocation data center is not  carrier neutral. The data center was last updated on 07-10-2015.",INTERNETPORT,Sweden,se,824 50,Hudiksvall,INTERNETPORT,Internetport Sweden ab
"
	InfoRelay IAD4 - Herndon Virginia is located in the area Ashburn, USA (America), and the colocation data center is  carrier neutral. The data center was last updated on 16-12-2013.",InfoRelay IAD4 - Herndon Virginia,USA,Virginia,20171,Herndon,InfoRelay IAD4 - Herndon Virginia,InfoRelay Online Systems Inc.
"
	CyrusOne Carrollton is located in the area Dallas, USA (America), and the colocation data center is  carrier neutral. The data center was last updated on 27-08-2013.",CyrusOne Carrollton,USA,Texas,75007,Carrollton,CyrusOne Carrollton,CyrusOne Data Centers
"
	CyrusOne Houston (Greenspoint) is located in the area Houston, USA (America), and the colocation data center is  carrier neutral. The data center was last updated on 22-08-2013.",CyrusOne Houston (Greenspoint),USA,Texas,77060,Houston,CyrusOne Houston (Greenspoint),CyrusOne Data Centers
"
	CyrusOne San Antonio is located in the area San Antonio, USA (America), and the colocation data center is  carrier neutral. The data center was last updated on 27-08-2013.",CyrusOne San Antonio,USA,Texas,78251,San Antonio,CyrusOne San Antonio,CyrusOne Data Centers
"
	CyrusOne Cincinnati (Gold Coast) is located in the area Cincinnati, USA (America), and the colocation data center is  carrier neutral. The data center was last updated on 27-08-2013.",CyrusOne Cincinnati (Gold Coast),USA,Ohio,45249,Cincinnati,CyrusOne Cincinnati (Gold Coast),CyrusOne Data Centers
"
	CyrusOne Ohio (Blue Ash) is located in the area Cincinnati, USA (America), and the colocation data center is  carrier neutral. The data center was last updated on 27-08-2013.",CyrusOne Ohio (Blue Ash),USA,Ohio,45242,Blue Ash,CyrusOne Ohio (Blue Ash),CyrusOne Data Centers
"
	CyrusOne Cincinnati (Lebanon) is located in the area Lebanon, USA (America), and the colocation data center is  carrier neutral. The data center was last updated on 27-08-2013.",CyrusOne Cincinnati (Lebanon),USA,Ohio,45036,Lebanon,CyrusOne Cincinnati (Lebanon),CyrusOne Data Centers
"
	CyrusOne Ohio (Hamilton) is located in the area Cincinnati, USA (America), and the colocation data center is  carrier neutral. The data center was last updated on 27-08-2013.",CyrusOne Ohio (Hamilton),USA,Ohio,45011,Hamilton,CyrusOne Ohio (Hamilton),CyrusOne Data Centers
"
	CyrusOne Cincinnati is located in the area Cincinnati, USA (America), and the colocation data center is  carrier neutral. The data center was last updated on 27-08-2013.",CyrusOne Cincinnati,USA,Ohio,45202,Cincinnati,CyrusOne Cincinnati,CyrusOne Data Centers
"
	CyrusOne Ohio (Mason) is located in the area Cincinnati, USA (America), and the colocation data center is  carrier neutral. The data center was last updated on 27-08-2013.",CyrusOne Ohio (Mason),USA,Ohio,45040,Cincinnati,CyrusOne Ohio (Mason),CyrusOne Data Centers
"
	CyrusOne Kentucky (Florence) is located in the area Florence KY, USA (America), and the colocation data center is  carrier neutral. The data center was last updated on 27-08-2013.",CyrusOne Kentucky (Florence),USA,Kentucky,41042,Florence,CyrusOne Kentucky (Florence),CyrusOne Data Centers
"
	CyrusOne Phoenix (Chandler) is located in the area Phoenix, USA (America), and the colocation data center is  carrier neutral. The data center was last updated on 27-08-2013.",CyrusOne Phoenix (Chandler),USA,Arizona,85286,Chandler,CyrusOne Phoenix (Chandler),CyrusOne Data Centers
"
	Amatis Newbury is located in the area Berkshire, United Kingdom (UK), and the colocation data center is  carrier neutral. The data center was last updated on 26-09-2016.",Amatis Newbury,United Kingdom,,RG14 2EZ,Newbury,Amatis Newbury,Amatis Networks Ltd
"
	Jurong Data Center: 29A Intl. Business Park is located in the area Singapore, Singapore, and the colocation data center is  carrier neutral. The data center was last updated on 27-08-2013.",Jurong Data Center: 29A Intl. Business Park,Singapore,,609934,Jurong,Jurong Data Center: 29A Intl. Business Park,Digital Realty
"
	Link33 is located in the area Berkshire, United Kingdom (UK), and the colocation data center is  carrier neutral. The data center was last updated on 24-09-2013.",Link33,United Kingdom,,RG2 0QS,Reading,Link33,Everest Data Centres
"
	CoreSite Secaucus (NY2) is located in the area New York, USA (America), and the colocation data center is  carrier neutral. The data center was last updated on 07-11-2016.",CoreSite Secaucus (NY2),USA,New York,07094,Secaucus,CoreSite Secaucus (NY2),CoreSite
"
	Digital Realty Data Center is located in the area Sydney (New South Wales), Australia, and the colocation data center is  carrier neutral. The data center was last updated on 07-04-2016.",Digital Realty Data Center,Australia,New South Wales,2759,Sydney,Digital Realty Data Center,Digital Realty
"
	New Continuum Data Centers is located in the area Aurora, USA (America), and the colocation data center is  carrier neutral. The data center was last updated on 05-02-2016.",New Continuum Data Centers,USA,Illinois,60185,West Chicago,,New Continuum Data Centers
"
	DataSite Boise is located in the area Boise, USA (America), and the colocation data center is  carrier neutral. The data center was last updated on 03-01-2014.",DataSite Boise,USA,Idaho,83709,Boise,DataSite Boise,DataSite
"
	Coloblox - Smyrna is located in the area Atlanta, USA (America), and the colocation data center is  carrier neutral. The data center was last updated on 09-03-2015.",Coloblox - Smyrna,USA,Georgia,30339,Smyrna,Coloblox - Smyrna,Coloblox
"
	AFS Center is located in the area Phoenix, USA (America), and the colocation data center is not  carrier neutral. The data center was last updated on 15-01-2014.",AFS Center,USA,Arizona,85282,Tempe,,AFS Center
"
	Web Werks Pune Data Center is located in the area Pune, India, and the colocation data center is  carrier neutral. The data center was last updated on 16-01-2014.",Web Werks Pune Data Center,India,Maharashtra,411027,Hinjewadi,Web Werks Pune Data Center,Web Werks India Pvt. Ltd.
"
	Web Werks Navi Mumbai Data Center is located in the area Navi Mumbai, India, and the colocation data center is  carrier neutral. The data center was last updated on 30-06-2016.",Web Werks Navi Mumbai Data Center,India,Maharashtra,400701,Thane,Web Werks Navi Mumbai Data Center,Web Werks India Pvt. Ltd.
"
	325 Hudson is located in the area New York, USA (America).",325 Hudson,,,,,,
"
	ROOT Data Center - MTL-R1 is located in the area Montreal, Canada, and the colocation data center is  carrier neutral. The data center was last updated on 31-10-2016.",ROOT Data Center - MTL-R1,Canada,QC,H8N2J8,LaSalle (Montreal),ROOT Data Center - MTL-R1,ROOT Data Center
"
	Web Werks New Delhi is located in the area New Delhi, India, and the colocation data center is  carrier neutral. The data center was last updated on 24-01-2014.",Web Werks New Delhi,India,,110058,New Delhi,Web Werks New Delhi,Web Werks India Pvt. Ltd.
"
	I2B Networks is located in the area San Diego, USA (America), and the colocation data center is  carrier neutral. The data center was last updated on 03-04-2014.",I2B Networks,USA,California,92123,San Diego,I2B Networks,"I2B Networks, Inc"
"
	centron Datacenter is located in the area Bamberg, Germany (Deutschland), and the colocation data center is  carrier neutral. The data center was last updated on 28-11-2016.",centron Datacenter,Germany,Bavaria,96103,Hallstadt,centron Datacenter,centron GmbH
"
	NYI - New Jersey is located in the area Bridgewater, USA (America), and the colocation data center is  carrier neutral. The data center was last updated on 18-07-2014.",NYI - New Jersey,USA,New Jersey,08807,Bridgewater,NYI - New Jersey,NYI (New York Internet Company)
"
	1-Net East is located in the area Singapore, Singapore, and the colocation data center is  carrier neutral. The data center was last updated on 29-07-2016.",1-Net East,Singapore,Singapore,000000,Singapore,1-Net East,1-Net Singapore Pte Ltd
"
	ViaWest - Phoenix is located in the area Phoenix, USA (America), and the colocation data center is  carrier neutral. The data center was last updated on 14-10-2015.",ViaWest - Phoenix,USA,Arizona,85027,Phoenix,ViaWest - Phoenix,"ViaWest, Inc."
"
	Data Center Rio is located in the area Rio de Janeiro, Brazil (Brasil), and the colocation data center is  carrier neutral. The data center was last updated on 22-04-2014.",Data Center Rio,Brazil,Rio de Janeiro,20941-140,Rio de Janeiro,Data Center Rio,NB Telecom
"
	Caronet Engineered Hosting is located in the area Charlotte, USA (America), and the colocation data center is not  carrier neutral. The data center was last updated on 20-11-2014.",Caronet Engineered Hosting,USA,North Carolina,28217,Charlotte,Caronet Engineered Hosting,Caronet
"
	ViaWest - Twin Cities is located in the area Minneapolis, USA (America), and the colocation data center is  carrier neutral. The data center was last updated on 14-10-2015.",ViaWest - Twin Cities,USA,Minnesota,55318,Chaska,ViaWest - Twin Cities,"ViaWest, Inc."
"
	ViaWest - Compark is located in the area Denver, USA (America), and the colocation data center is  carrier neutral. The data center was last updated on 14-10-2015.",ViaWest - Compark,USA,Colorado,80112,Englewood,ViaWest - Compark,"ViaWest, Inc."
"
	Mid-Range is located in the area Toronto, Canada, and the colocation data center is  carrier neutral. The data center was last updated on 09-01-2017.",Mid-Range,Canada,Ontario,L3R1A9,Markham,,Mid-Range
"
	WILCON is located in the area Los Angeles, USA (America), and the colocation data center is  carrier neutral. The data center was last updated on 16-06-2015.",WILCON,USA,California,90017,Los Angeles,,WILCON
"
	ViaWest - Synergy Park is located in the area Dallas, USA (America), and the colocation data center is  carrier neutral. The data center was last updated on 14-10-2015.",ViaWest - Synergy Park,USA,Texas,75080,Richardson,ViaWest - Synergy Park,"ViaWest, Inc."
"
	ViaWest - SLC Campus View is located in the area Salt Lake City, USA (America), and the colocation data center is  carrier neutral. The data center was last updated on 14-10-2015.",ViaWest - SLC Campus View,USA,Utah,84084,West Jordan,ViaWest - SLC Campus View,"ViaWest, Inc."
"
	ViaWest - SLC West is located in the area Salt Lake City, USA (America), and the colocation data center is  carrier neutral. The data center was last updated on 14-10-2015.",ViaWest - SLC West,USA,Utah,84104,Salt Lake City,ViaWest - SLC West,"ViaWest, Inc."
"
	Switch Datacenters Woerden is located in the area Utrecht, The Netherlands (Holland), and the colocation data center is  carrier neutral. The data center was last updated on 11-07-2014.",Switch Datacenters Woerden,The Netherlands,,3447 GN,Woerden,Switch Datacenters Woerden,Switch Datacenter Amsterdam
"
	ViaWest - SLC East is located in the area Salt Lake City, USA (America), and the colocation data center is  carrier neutral. The data center was last updated on 14-10-2015.",ViaWest - SLC East,USA,Utah,84107,Salt Lake City,ViaWest - SLC East,"ViaWest, Inc."
"
	MFX RKE is located in the area Roanoke, USA (America), and the colocation data center is  carrier neutral. The data center was last updated on 07-08-2014.",MFX RKE,USA,Virginia,24018,Roanoke,MFX RKE,"MFX Roanoke, Inc"
"
	1-Net North is located in the area Singapore, Singapore, and the colocation data center is  carrier neutral. The data center was last updated on 29-07-2016.",1-Net North,Singapore,Singapore,Furnish upon request,Singapore,1-Net North,1-Net Singapore Pte Ltd
"
	Iron Mountain Data Centers - WPA-1 is located in the area Pittsburgh, USA (America), and the colocation data center is  carrier neutral. The data center was last updated on 30-03-2017.",Iron Mountain Data Centers - WPA-1,USA,Pennsylvania,16020,Boyers,Iron Mountain Data Centers - WPA-1,Iron Mountain
"
	ACI 35 John (CBC Building) is located in the area Toronto, Canada, and the colocation data center is  carrier neutral. The data center was last updated on 20-01-2015.",ACI 35 John (CBC Building),Canada,Ontario,M6P 1T7,Toronto,ACI 35 John (CBC Building),Accelerated Connections Inc
"
	Cologix Lakeland Data Center is located in the area Tampa, USA (America), and the colocation data center is  carrier neutral. The data center was last updated on 13-04-2015.",Cologix Lakeland Data Center,USA,Florida,33805,Lakeland,Cologix Lakeland Data Center,Cologix
"
	DataChambers is located in the area Winston Salem, USA (America), and the colocation data center is  carrier neutral. The data center was last updated on 31-01-2017.",DataChambers,USA,North Carolina,27107,Winston-Salem,,DataChambers
"
	DataChambers is located in the area Charlotte, USA (America), and the colocation data center is  carrier neutral. The data center was last updated on 31-01-2017.",DataChambers,USA,North Carolina,28081,Kannapolis,,DataChambers
"
	DataChambers is located in the area Raleigh, USA (America), and the colocation data center is  carrier neutral. The data center was last updated on 31-01-2017.",DataChambers,USA,North Carolina,27603,Raleigh,,DataChambers
"
	HOSTKEY/DataPro is located in the area Moscow, Russia, and the colocation data center is  carrier neutral. The data center was last updated on 23-12-2015.",HOSTKEY/DataPro,Russia,,111024,Moscow,HOSTKEY/DataPro,HOSTKEY
"
	CoreSite Denver (DE2) is located in the area Denver, USA (America), and the colocation data center is not  carrier neutral. The data center was last updated on 07-11-2016.",CoreSite Denver (DE2),USA,Colorado,80203,Denver,CoreSite Denver (DE2),CoreSite
"
	TELEHOUSE London Docklands (West) is located in the area London, United Kingdom (UK), and the colocation data center is  carrier neutral. The data center was last updated on 09-06-2015.",TELEHOUSE London Docklands (West),United Kingdom,London,E14 2AA,London,TELEHOUSE London Docklands (West),TELEHOUSE Europe
"
	CyrusOne (Sterling) is located in the area Sterling, USA (America), and the colocation data center is  carrier neutral. The data center was last updated on 07-05-2015.",CyrusOne (Sterling),USA,Virginia,20166,Sterling,CyrusOne (Sterling),CyrusOne Data Centers
"
	vXchnge Austin (TX01) is located in the area Austin, USA (America), and the colocation data center is  carrier neutral. The data center was last updated on 25-04-2017.",vXchnge Austin (TX01),USA,Texas,78753,Austin,vXchnge Austin (TX01),vXchnge
"
	EGIT is located in the area Cairo (Al Qahirah), Egypt, and the colocation data center is  carrier neutral. The data center was last updated on 09-08-2016.",EGIT,Egypt,0,11835,Cairo,,EGIT
"
	vXchnge Minneapolis (MN01) is located in the area Minneapolis, USA (America), and the colocation data center is  carrier neutral. The data center was last updated on 25-04-2017.",vXchnge Minneapolis (MN01),USA,Minnesota,55415,Minneapolis,vXchnge Minneapolis (MN01),vXchnge
"
	vXchnge Philadelphia (PA01) is located in the area Philadelphia, USA (America), and the colocation data center is  carrier neutral. The data center was last updated on 25-04-2017.",vXchnge Philadelphia (PA01),USA,Pennsylvania,19130,Philadelphia,vXchnge Philadelphia (PA01),vXchnge
"
	vXchnge Portland (OR01) is located in the area Portland, USA (America), and the colocation data center is  carrier neutral. The data center was last updated on 25-04-2017.",vXchnge Portland (OR01),USA,Oregon,97209,Portland,vXchnge Portland (OR01),vXchnge
"
	vXchnge Pittsburgh (PA02) is located in the area Pittsburgh, USA (America), and the colocation data center is  carrier neutral. The data center was last updated on 25-04-2017.",vXchnge Pittsburgh (PA02),USA,Pennsylvania,15222,Pittsburgh,vXchnge Pittsburgh (PA02),vXchnge
"
	vXchnge Raleigh-Durham (NC01) is located in the area Raleigh, USA (America), and the colocation data center is  carrier neutral. The data center was last updated on 25-04-2017.",vXchnge Raleigh-Durham (NC01),USA,North Carolina,27703,Durham,vXchnge Raleigh-Durham (NC01),vXchnge
"
	vXchnge St. Paul (MN02) is located in the area Minneapolis, USA (America), and the colocation data center is  carrier neutral. The data center was last updated on 25-04-2017.",vXchnge St. Paul (MN02),USA,Minnesota,55108,St. Paul,vXchnge St. Paul (MN02),vXchnge
"
	Pulsant - South Gyle 1/2 is located in the area Edinburgh (Scotland), United Kingdom (UK), and the colocation data center is  carrier neutral. The data center was last updated on 04-08-2015.",Pulsant - South Gyle 1/2,United Kingdom,,EH12 9LB,Midlothian,Pulsant - South Gyle 1/2,Pulsant Ltd
"
	Cover-All Birchmount Centre is located in the area Toronto, Canada, and the colocation data center is not  carrier neutral. The data center was last updated on 13-09-2016.",Cover-All Birchmount Centre,Canada,Ontario,M1P5E3,Toronto,Cover-All Birchmount Centre,Cover-All Computer Services Corp
"
	ViaWest - Brookwood is located in the area Portland, USA (America), and the colocation data center is  carrier neutral. The data center was last updated on 14-10-2015.",ViaWest - Brookwood,USA,Oregon,97124,Hillsboro,ViaWest - Brookwood,"ViaWest, Inc."
"
	Chicago Southland - Urbancom.net is located in the area Chicago, USA (America), and the colocation data center is not  carrier neutral. The data center was last updated on 01-10-2015.",Chicago Southland - Urbancom.net,USA,illinois,60452,Oak Forest,Chicago Southland - Urbancom.net,"Urban Communications, Inc."
"
	Deer Valley Data is located in the area Phoenix, USA (America), and the colocation data center is  carrier neutral. The data center was last updated on 21-10-2015.",Deer Valley Data,USA,Arizona,85027,Phoenix,Deer Valley Data,ITAS
"
	Q9 - Toronto One is located in the area Toronto, Canada, and the colocation data center is  carrier neutral. The data center was last updated on 21-12-2015.",Q9 - Toronto One,Canada,Ontario,M5K 1J3,Toronto,Q9 - Toronto One,Q9
"
	Q9 - Toronto Two is located in the area Toronto, Canada, and the colocation data center is  carrier neutral. The data center was last updated on 21-12-2015.",Q9 - Toronto Two,Canada,Ontario,L6S,Brampton,Q9 - Toronto Two,Q9
"
	Q9 - Calgary One is located in the area Calgary, Canada, and the colocation data center is  carrier neutral. The data center was last updated on 21-12-2015.",Q9 - Calgary One,Canada,Alberta,T2P 4K1,Calgary,Q9 - Calgary One,Q9
"
	Q9 - Calgary Three is located in the area Calgary, Canada, and the colocation data center is  carrier neutral. The data center was last updated on 21-12-2015.",Q9 - Calgary Three,Canada,Alberta,T2C 4L7,Calgary,Q9 - Calgary Three,Q9
"
	Q9 - Calgary Two is located in the area Calgary, Canada, and the colocation data center is  carrier neutral. The data center was last updated on 21-12-2015.",Q9 - Calgary Two,Canada,Alberta,T2E 6J8,Caglary,Q9 - Calgary Two,Q9
"
	Q9 - Kamloops One is located in the area Kamloops, Canada, and the colocation data center is  carrier neutral. The data center was last updated on 21-12-2015.",Q9 - Kamloops One,Canada,BC,V2C 0B5,Kamloops,Q9 - Kamloops One,Q9
"
	vXchnge Nashville (TN01) is located in the area Nashville, USA (America), and the colocation data center is  carrier neutral. The data center was last updated on 25-04-2017.",vXchnge Nashville (TN01),USA,Tennessee,37201,Nashville,vXchnge Nashville (TN01),vXchnge
"
	ViaWest - Philadelphia is located in the area Philadelphia, USA (America), and the colocation data center is not  carrier neutral. The data center was last updated on 18-07-2016.",ViaWest - Philadelphia,USA,Pennsylvania,18109,Allentown,ViaWest - Philadelphia,"ViaWest, Inc."
"
	Calgary Data Center is located in the area Calgary, Canada, and the colocation data center is  carrier neutral. The data center was last updated on 22-01-2016.",Calgary Data Center,Canada,AB,T2C 3C2,Calgary,Calgary Data Center,"ViaWest, Inc."
"
	The Portal is located in the area Nottingham, United Kingdom (UK), and the colocation data center is  carrier neutral. The data center was last updated on 14-04-2016.",The Portal,United Kingdom,Nottinghamshire,NG2 1AL,Nottingham,The Portal,FLEXIRAX UK LTD
"
	Digital Realty Data Center is located in the area Boston, USA (America), and the colocation data center is  carrier neutral. The data center was last updated on 07-04-2016.",Digital Realty Data Center,USA,Massachusetts,02494,Needham,Digital Realty Data Center,Digital Realty
"
	ColoSpace Rockland is located in the area Boston, USA (America), and the colocation data center is  carrier neutral. The data center was last updated on 16-05-2016.",ColoSpace Rockland,USA,Massachusetts,02370,Rockland,ColoSpace Rockland,ColoSpace Inc.
"
	ColoSpace Bedford is located in the area Manchester NH, USA (America), and the colocation data center is  carrier neutral. The data center was last updated on 16-05-2016.",ColoSpace Bedford,USA,New Hampshire,03110,Bedford,ColoSpace Bedford,ColoSpace Inc.
"
	SH2 is located in the area Lausanne, Switzerland (Schweiz), and the colocation data center is  carrier neutral. The data center was last updated on 20-05-2016.",SH2,Switzerland,,CH-1196,Gland,SH2,Safe Host SA
"
	TELEHOUSE North Two is located in the area London, United Kingdom (UK), and the colocation data center is  carrier neutral. The data center was last updated on 19-05-2016.",TELEHOUSE North Two,United Kingdom,,E14 2AA,London,TELEHOUSE North Two,TELEHOUSE Europe
"
	CORE Data Center is located in the area Tulsa, USA (America), and the colocation data center is  carrier neutral. The data center was last updated on 01-06-2016.",CORE Data Center,USA,Oklahoma,74301,Vinita,,CORE Data Center
"
	SH3 is located in the area Bern, Switzerland (Schweiz), and the colocation data center is  carrier neutral. The data center was last updated on 20-05-2016.",SH3,Switzerland,,CH-1580,Avenches,SH3,Safe Host SA
"
	WhitelabelITSolutions is located in the area Hackensack, USA (America), and the colocation data center is  carrier neutral. The data center was last updated on 26-10-2016.",WhitelabelITSolutions,USA,New Jersey,07601,Hackensack,WhitelabelITSolutions,Whitelabelitsolutions
"
	IAD2 is located in the area Reston, USA (America), and the colocation data center is  carrier neutral. The data center was last updated on 08-06-2016.",IAD2,USA,Virginia,20190,Reston,IAD2,InfoRelay Online Systems Inc.
"
	CL8 is located in the area Limassol, Cyprus (Republic of Cyprus), and the colocation data center is  carrier neutral. The data center was last updated on 26-10-2016.",CL8,Cyprus,,3722,Limassol,CL8,Cloudlayer8 Limited
"
	ROOT Data Center - MTL-R2 is located in the area Montreal, Canada, and the colocation data center is  carrier neutral. The data center was last updated on 30-11-2016.",ROOT Data Center - MTL-R2,Canada,QC,H9X 3T1,Baie d'Urfe (Montreal),ROOT Data Center - MTL-R2,ROOT Data Center
"
	4D Gatwick is located in the area Crawley, United Kingdom (UK), and the colocation data center is  carrier neutral. The data center was last updated on 14-11-2016.",4D Gatwick,United Kingdom,,RH10 9EY,Crawley,4D Gatwick,4D Data Centres Ltd
"
	Maxihost is located in the area Sao Paulo (São Paulo), Brazil (Brasil), and the colocation data center is  carrier neutral. The data center was last updated on 11-01-2017.",Maxihost,Brazil,SP,04013050,Sao Paulo,,Maxihost
"
	Diversified Colocation Services is located in the area Phoenix, USA (America), and the colocation data center is  carrier neutral. The data center was last updated on 16-03-2017.",Diversified Colocation Services,USA,Arizona,85040,Phoenix,,Diversified Colocation Services
"
	Iron Mountain Data Centers - KCM-1 is located in the area Kansas City MO, USA (America), and the colocation data center is  carrier neutral. The data center was last updated on 23-03-2017.",Iron Mountain Data Centers - KCM-1,USA,Missouri,64133,Kansas City,Iron Mountain Data Centers - KCM-1,Iron Mountain
"
	Bertina is located in the area tehran, iran, and the colocation data center is not  carrier neutral. The data center was last updated on 26-03-2017.",Bertina,iran,tehran,1454714588,tehran,,Bertina
"
	Iron Mountain Data Center - VA-1 is located in the area Manassas, USA (America), and the colocation data center is  carrier neutral. The data center was last updated on 30-03-2017.",Iron Mountain Data Center - VA-1,USA,Virginia,20109,Manassas,Iron Mountain Data Center - VA-1,Iron Mountain
"
	WHS Narva Datacenter is located in the area Narva, Estonia (Eesti Vabariik), and the colocation data center is not  carrier neutral. The data center was last updated on 17-04-2017.",WHS Narva Datacenter,Estonia,Ida-Virumaa,20104,Narva,WHS Narva Datacenter,OÜ Web Hosting Solutions
"
	eServer.Space Moscow Ostankino is located in the area Moscow, Russia, and the colocation data center is  carrier neutral. The data center was last updated on 21-04-2017.",eServer.Space Moscow Ostankino,Russia,,129515,Moscow,eServer.Space Moscow Ostankino,eServer s.r.o.
"
	eServer.Space Moscow IXcellerate is located in the area Moscow, Russian Federation, and the colocation data center is  carrier neutral. The data center was last updated on 21-04-2017.",eServer.Space Moscow IXcellerate,Russian Federation,,127410,Moscow,eServer.Space Moscow IXcellerate,eServer s.r.o.
