description,title,country,region,postal code,locality,extend address,name
"
	Electromagnetica Business Park is located in the area Bucharest, Romania.",Electromagnetica Business Park,,,,,,
"
	ECC Solutions II is located in the area Cairo (Al Qahirah), Egypt, and the colocation data center is  carrier neutral. The data center was last updated on 11-11-2008.",ECC Solutions II,Egypt,,11461,Giza,ECC Solutions II,ECC Solutions
"
	ECC Solutions I is located in the area 6 October City, Egypt, and the colocation data center is  carrier neutral. The data center was last updated on 11-11-2008.",ECC Solutions I,Egypt,,12581,6 October,ECC Solutions I,ECC Solutions
"
	GO Marsa is located in the area Marsa, Malta, and the colocation data center is  carrier neutral. The data center was last updated on 11-08-2008.",GO Marsa,Malta,,MRS1501,Marsa,GO Marsa,GO plc.
"
	The Bunker - Ash Data Centre is located in the area Kent, United Kingdom (UK), and the colocation data center is  carrier neutral. The data center was last updated on 11-02-2011.",The Bunker - Ash Data Centre,United Kingdom,,CT13 0PL,"Sandwich, Kent",The Bunker - Ash Data Centre,The Bunker
"
	Coreix Limited is located in the area London, United Kingdom (UK), and the colocation data center is  carrier neutral. The data center was last updated on 05-07-2011.",Coreix Limited,United Kingdom,,EN1 1TX,Enfield,,Coreix Limited
"
	CityNet Data Center is located in the area Ramadan City, Egypt, and the colocation data center is  carrier neutral. The data center was last updated on 31-03-2015.",CityNet Data Center,Egypt,Cairo,44653,Ramadan Tenth,CityNet Data Center,CityNet Telecom
"
	Picenodatacentre I is located in the area Ascoli Piceno, Italy (Italia), and the colocation data center is not  carrier neutral. The data center was last updated on 11-02-2011.",Picenodatacentre I,Italy,AP,63100,Ascoli Piceno,Picenodatacentre I,TopneT Telecomunicazioni srl
"
	BMIT DCH Data Centre is located in the area Qormi, Malta, and the colocation data center is  carrier neutral. The data center was last updated on 18-03-2014.",BMIT DCH Data Centre,Malta,,QRM4000,Qormi,BMIT DCH Data Centre,BMIT Ltd
"
	The Bunker - Newbury Data Centre is located in the area Berkshire, United Kingdom (UK), and the colocation data center is  carrier neutral. The data center was last updated on 11-02-2011.",The Bunker - Newbury Data Centre,United Kingdom,,RG19 6HN,Newbury,The Bunker - Newbury Data Centre,The Bunker
"
	DanDomain is located in the area Randers, Denmark (Danmark), and the colocation data center is  carrier neutral. The data center was last updated on 18-09-2008.",DanDomain,Denmark,,8920,Randers NV,DanDomain,Dandomain A/S
"
	Louhi Datacenter Espoo is located in the area Helsinki, Finland (Suomi), and the colocation data center is not  carrier neutral. The data center was last updated on 25-11-2008.",Louhi Datacenter Espoo,Finland,,02600,Espoo,Louhi Datacenter Espoo,Louhi Networks Oy
"
	FDCservers.net  Zlin EU is located in the area Zlin, Czech Republic, and the colocation data center is not  carrier neutral. The data center was last updated on 12-06-2012.",FDCservers.net  Zlin EU,Czech Republic,,76001,Zlin,FDCservers.net  Zlin EU,FDCservers.net LLC
"
	IZZI Data Center is located in the area Riga, Latvia (Latvija), and the colocation data center is not  carrier neutral. The data center was last updated on 21-05-2008.",IZZI Data Center,Latvia,,0,Riga,IZZI Data Center,IZZI Ltd.
"
	Beyond.pl Data Center 1 is located in the area Poznan, Poland (Polska), and the colocation data center is  carrier neutral. The data center was last updated on 27-03-2017.",Beyond.pl Data Center 1,Poland,,61-888,Poznan,Beyond.pl Data Center 1,Beyond.pl Sp z o.o.
"
	NAP Info Data Center is located in the area Kuningan, Indonesia, and the colocation data center is  carrier neutral. The data center was last updated on 04-07-2008.",NAP Info Data Center,Indonesia,,12940,Jakarta,NAP Info Data Center,NAP Info
"
	Biznet MegaPOP is located in the area Jakarta (Djakarta), Indonesia, and the colocation data center is  carrier neutral. The data center was last updated on 31-05-2012.",Biznet MegaPOP,Indonesia,,10220,Jakarta,Biznet MegaPOP,Biznet Networks
"
	E-Commerce Park N.V. is located in the area Curacao (Curaçao), Netherlands Antilles (Nederlandse Antillen), and the colocation data center is  carrier neutral. The data center was last updated on 19-09-2007.",E-Commerce Park N.V.,Netherlands Antilles,,00000,Willemstad,,E-Commerce Park N.V.
"
	Panamaserver.com is located in the area Panama City, Panama, and the colocation data center is not  carrier neutral. The data center was last updated on 04-02-2010.",Panamaserver.com,Panama,,00000,Panama,,Panamaserver.com
"
	Sadecehosting.Com is located in the area Istanbul, Turkey (Türkiye), and the colocation data center is  carrier neutral. The data center was last updated on 02-12-2012.",Sadecehosting.Com,Turkey,,34000,Istanbul,Sadecehosting.Com,(Sh) SadeceHosting.Com Internet Services Ltd
"
	LINKdotNET Data Center is located in the area Cairo (Al Qahirah), Egypt, and the colocation data center is not  carrier neutral. The data center was last updated on 30-03-2008.",LINKdotNET Data Center,Egypt,,11431,Cairo,LINKdotNET Data Center,LINKdotNET
"
	EgyptNetwork is located in the area Mansura (El Mansurah), Egypt, and the colocation data center is  carrier neutral. The data center was last updated on 08-12-2007.",EgyptNetwork,Egypt,,11471,Mansura,,EgyptNetwork
"
	WDC13 is located in the area Beltsville, USA (America), and the colocation data center is  carrier neutral. The data center was last updated on 28-08-2008.",WDC13,USA,Maryland,20705,Beltsville,WDC13,AiNET
"
	ACD.net MetroIX is located in the area Lansing, USA (America), and the colocation data center is  carrier neutral. The data center was last updated on 18-11-2010.",ACD.net MetroIX,USA,Michigan,48906,Lansing,ACD.net MetroIX,ACD.net
"
	a wilhelm.tel DC is located in the area Hamburg, Germany (Deutschland), and the colocation data center is  carrier neutral. The data center was last updated on 06-11-2008.",a wilhelm.tel DC,Germany,,22846,Norderstedt,a wilhelm.tel DC,wilhelm.tel GmbH
"
	Advantagecom Networks is located in the area Walla Walla, USA (America), and the colocation data center is not  carrier neutral. The data center was last updated on 22-08-2008.",Advantagecom Networks,USA,Washington,99362,Walla Walla,Advantagecom Networks,"Advantagecom Networks, Inc."
"
	Charlotte Colocation Center is located in the area Charlotte, USA (America), and the colocation data center is not  carrier neutral. The data center was last updated on 23-10-2007.",Charlotte Colocation Center,USA,North Carolina,28209,Charlotte,Charlotte Colocation Center,"Charlotte Colocation Center, LLC"
"
	Datacenter Vlaanderen is located in the area Antwerp (Antwerpen), Belgium, and the colocation data center is  carrier neutral. The data center was last updated on 10-01-2017.",Datacenter Vlaanderen,Belgium,,2030,Antwerp,Datacenter Vlaanderen,Yellow Duck
"
	Digital Enterprise Center is located in the area South Bend, USA (America), and the colocation data center is  carrier neutral. The data center was last updated on 21-03-2008.",Digital Enterprise Center,USA,Indiana,46628,South Bend,Digital Enterprise Center,Global Access Point
"
	CIX - Cork Internet eXchange is located in the area Cork, Ireland (Éire), and the colocation data center is  carrier neutral. The data center was last updated on 09-01-2017.",CIX - Cork Internet eXchange,Ireland,,T23 R68N,Cork,CIX - Cork Internet eXchange,Cork Internet eXchange
"
	GAP Union Station is located in the area South Bend, USA (America), and the colocation data center is  carrier neutral. The data center was last updated on 02-06-2016.",GAP Union Station,USA,Indiana,46601,South Bend,GAP Union Station,Global Access Point
"
	GAP Indy Data Center is located in the area Indianapolis, USA (America), and the colocation data center is  carrier neutral. The data center was last updated on 21-03-2008.",GAP Indy Data Center,USA,Indiana,46225,Indianapolis,GAP Indy Data Center,Global Access Point
"
	Basis Bay Green Data Centre is located in the area Cyberjaya, Malaysia, and the colocation data center is  carrier neutral. The data center was last updated on 30-12-2008.",Basis Bay Green Data Centre,Malaysia,Kuala Lumpur,63000,Cyberjaya,Basis Bay Green Data Centre,Basis Bay SDN BHD
"
	GramTel Blactkhorn is located in the area South Bend, USA (America), and the colocation data center is  carrier neutral. The data center was last updated on 14-08-2008.",GramTel Blactkhorn,USA,Indiana,46628,South Bend,GramTel Blactkhorn,GramTel
"
	FREENET Malaysia Data Center - CSQ1 is located in the area Cyberjaya, Malaysia, and the colocation data center is  carrier neutral. The data center was last updated on 29-08-2011.",FREENET Malaysia Data Center - CSQ1,Malaysia,,63000,Cyberjaya,FREENET Malaysia Data Center - CSQ1,Free Net Business Solutions Sdn Bhd
"
	GramTel Grand Rapids is located in the area Grand Rapids, USA (America), and the colocation data center is  carrier neutral. The data center was last updated on 14-08-2008.",GramTel Grand Rapids,USA,Michigan,49503,Grand Rapids,GramTel Grand Rapids,GramTel
"
	AIS Lightwave San Diego (LWDC) is located in the area San Diego, USA (America), and the colocation data center is  carrier neutral. The data center was last updated on 16-12-2009.",AIS Lightwave San Diego (LWDC),USA,California,92123,San Diego,AIS Lightwave San Diego (LWDC),American Internet Services
"
	Xecunet is located in the area Frederick, USA (America), and the colocation data center is not  carrier neutral. The data center was last updated on 08-05-2013.",Xecunet,USA,Maryland,21704,Frederick,Xecunet,"Xecunet, LLC."
"
	BHI NOC is located in the area Minneapolis, USA (America), and the colocation data center is not  carrier neutral. The data center was last updated on 02-10-2008.",BHI NOC,USA,Minnesota,55344,Eden Prairie,BHI NOC,BHI Advanced Internet
"
	Claranet Faubourg Elysées is located in the area Paris, France (Française), and the colocation data center is not  carrier neutral. The data center was last updated on 29-01-2009.",Claranet Faubourg Elysées,France,,75008,Paris,Claranet Faubourg Elysées,Claranet Limited
"
	Redwood is located in the area Oakville, Canada, and the colocation data center is  carrier neutral. The data center was last updated on 09-04-2008.",Redwood,Canada,,L6J 5E3,Oakville,Redwood,Blink Communications
"
	HOSTING - San Francisco is located in the area San Francisco, USA (America), and the colocation data center is  carrier neutral. The data center was last updated on 12-08-2013.",HOSTING - San Francisco,USA,California,94107,San Francisco,HOSTING - San Francisco,HOSTING
"
	HostDrive.Com is located in the area Lake Geneva, USA (America), and the colocation data center is not  carrier neutral. The data center was last updated on 14-01-2015.",HostDrive.Com,USA,Wisconsin,53147,Lake Geneva,HostDrive.Com,"Bella Mia, Inc."
"
	HOSTING - Dallas is located in the area Dallas, USA (America), and the colocation data center is  carrier neutral. The data center was last updated on 12-08-2013.",HOSTING - Dallas,USA,Texas,75201,Dallas,HOSTING - Dallas,HOSTING
"
	HOSTING - Irvine is located in the area Irvine, USA (America), and the colocation data center is  carrier neutral. The data center was last updated on 12-08-2013.",HOSTING - Irvine,USA,California,92606,Irvine,HOSTING - Irvine,HOSTING
"
	Gigenet is located in the area Chicago, USA (America), and the colocation data center is  carrier neutral. The data center was last updated on 18-10-2007.",Gigenet,USA,Illinois,60005,Arlington Heights,,Gigenet
"
	HOSTING - Louisville is located in the area Louisville, USA (America), and the colocation data center is  carrier neutral. The data center was last updated on 12-08-2013.",HOSTING - Louisville,USA,Kentucky,40202,Louisville,HOSTING - Louisville,HOSTING
"
	iWeb-CL is located in the area Montreal, Canada, and the colocation data center is  carrier neutral. The data center was last updated on 02-04-2010.",iWeb-CL,Canada,,H1P 1A8,St-Leonard,iWeb-CL,iWeb Technologies Inc.
"
	iWeb-HD is located in the area Montreal, Canada, and the colocation data center is  carrier neutral. The data center was last updated on 18-10-2007.",iWeb-HD,Canada,,H1W 1G4,Montreal,iWeb-HD,iWeb Technologies Inc.
"
	DSS Data Center is located in the area Reading, USA (America), and the colocation data center is  carrier neutral. The data center was last updated on 04-12-2014.",DSS Data Center,USA,Pennsylvania,19610,Wyomissing,DSS Data Center,DSS
"
	iWeb-CO is located in the area Montreal, Canada, and the colocation data center is  carrier neutral. The data center was last updated on 18-10-2007.",iWeb-CO,Canada,,H3E 1Z6,Ile des soeurs,iWeb-CO,iWeb Technologies Inc.
"
	Atlantech Online is located in the area Silver Spring, USA (America), and the colocation data center is  carrier neutral. The data center was last updated on 19-12-2007.",Atlantech Online,USA,Maryland,20910,Silver Spring,Atlantech Online,"Atlantech Online, Inc."
"
	American Internet Services (FADC) is located in the area San Diego, USA (America), and the colocation data center is  carrier neutral. The data center was last updated on 10-12-2009.",American Internet Services (FADC),USA,California,92123,San Diego,American Internet Services (FADC),American Internet Services
"
	Cyquator Technologies is located in the area Navi Mumbai, India, and the colocation data center is  carrier neutral. The data center was last updated on 03-03-2008.",Cyquator Technologies,India,Maharashtra,400703,Mumbai,,Cyquator Technologies
"
	Data Center West is located in the area Medford, USA (America), and the colocation data center is  carrier neutral. The data center was last updated on 28-10-2009.",Data Center West,USA,Oregon,97501,Medford,Data Center West,"Data Center West, Inc"
"
	Colocity is located in the area Adelaide (South Australia), Australia, and the colocation data center is  carrier neutral. The data center was last updated on 16-07-2008.",Colocity,Australia,,5000,Adelaide,Colocity,Colocity Pty Ltd
"
	ColoBâle is located in the area Basel, Switzerland (Schweiz), and the colocation data center is  carrier neutral. The data center was last updated on 10-02-2009.",ColoBâle,Switzerland,,4133,Pratteln,ColoBâle,ColoBâle AG
"
	Sarka data center is located in the area Prague, Czech Republic, and the colocation data center is  carrier neutral. The data center was last updated on 29-03-2008.",Sarka data center,Czech Republic,,16000,Prague,Sarka data center,Vegacom a.s.
"
	The Data Centre is located in the area Auckland, New Zealand, and the colocation data center is  carrier neutral. The data center was last updated on 23-01-2011.",The Data Centre,New Zealand,,1140,Auckland,The Data Centre,data centre limited
"
	FORPSI Datacenter is located in the area Prachatice, Czech Republic, and the colocation data center is not  carrier neutral. The data center was last updated on 28-03-2008.",FORPSI Datacenter,Czech Republic,,384 03,Ktis,FORPSI Datacenter,"INTERNET CZ, a.s."
"
	Master DC Prague is located in the area Prague, Czech Republic, and the colocation data center is  carrier neutral. The data center was last updated on 14-05-2009.",Master DC Prague,Czech Republic,,110 00,Prague,Master DC Prague,"Master Internet, Ltd."
"
	LightEdge Data Center - Altoona is located in the area Des Moines, USA (America), and the colocation data center is  carrier neutral. The data center was last updated on 18-06-2015.",LightEdge Data Center - Altoona,USA,Iowa,50009,Altoona,LightEdge Data Center - Altoona,LightEdge Solutions
"
	Master DC Brno is located in the area Morava, Czech Republic, and the colocation data center is  carrier neutral. The data center was last updated on 14-05-2009.",Master DC Brno,Czech Republic,,60200,Brno,Master DC Brno,"Master Internet, Ltd."
"
	Proserver is located in the area Budapest, Hungary, and the colocation data center is  carrier neutral. The data center was last updated on 20-03-2015.",Proserver,Hungary,,1152,Budapest,Proserver,ProServer Ltd.
"
	Host Networks is located in the area Brisbane (Queensland), Australia, and the colocation data center is  carrier neutral. The data center was last updated on 11-06-2014.",Host Networks,Australia,Queensland,4113,Eight Mile Plains,Host Networks,Host Group of Companies Pty Ltd.
"
	XNet Critical Computing Facility is located in the area Chicago, USA (America), and the colocation data center is  carrier neutral. The data center was last updated on 03-03-2015.",XNet Critical Computing Facility,USA,Illinois,60532,Lisle,XNet Critical Computing Facility,"XNet Information Systems, Inc."
"
	MDC VeePee is located in the area Paris, France (Française), and the colocation data center is  carrier neutral. The data center was last updated on 24-06-2008.",MDC VeePee,France,,75017,Paris,MDC VeePee,VeePee
"
	Continuity Centers is located in the area Long Island, USA (America), and the colocation data center is  carrier neutral. The data center was last updated on 02-03-2017.",Continuity Centers,USA,New York,11797,Woodbury,Continuity Centers,"American Business Continuity Centers, LLC."
"
	Cube XS Weatherly is located in the area Karachi, Pakistan (Islamic Republic of Pakistan), and the colocation data center is not  carrier neutral. The data center was last updated on 28-05-2009.",Cube XS Weatherly,Pakistan,,75600,Karachi,Cube XS Weatherly,CubeXS Weatherly (Pvt.) Ltd.
"
	Continuity Centers Hawthorne is located in the area Westchester County, USA (America), and the colocation data center is  carrier neutral. The data center was last updated on 02-03-2017.",Continuity Centers Hawthorne,USA,New York,10532,Hawthorne,Continuity Centers Hawthorne,"American Business Continuity Centers, LLC."
"
	noris network (MUC 6) is located in the area Munich (Münich), Germany (Deutschland), and the colocation data center is  carrier neutral. The data center was last updated on 06-06-2014.",noris network (MUC 6),Germany,,80835,München,noris network (MUC 6),noris network AG
"
	Handy Networks is located in the area Denver, USA (America), and the colocation data center is  carrier neutral. The data center was last updated on 19-10-2007.",Handy Networks,USA,Colorado,80202,Denver,Handy Networks,"Handy Networks, LLC"
"
	The Fort - Honolulu, Hawaii is located in the area Honolulu, USA (America), and the colocation data center is  carrier neutral. The data center was last updated on 22-09-2007.","The Fort - Honolulu, Hawaii",USA,Hawaii,96819,Honolulu,"The Fort - Honolulu, Hawaii","DR Fortress, LLC"
"
	MicroLink Sopruse DC is located in the area Tallinn, Estonia (Eesti Vabariik), and the colocation data center is not  carrier neutral. The data center was last updated on 12-01-2010.",MicroLink Sopruse DC,Estonia,,13415,Tallinn,MicroLink Sopruse DC,MicroLink Estonia
"
	Herakles Data is located in the area Sacramento, USA (America), and the colocation data center is  carrier neutral. The data center was last updated on 19-09-2007.",Herakles Data,USA,California,95834,Sacramento,Herakles Data,QTS (Quality Technology Services)
"
	Epsilon Global Hubs is located in the area London, United Kingdom (UK), and the colocation data center is  carrier neutral. The data center was last updated on 22-10-2008.",Epsilon Global Hubs,United Kingdom,,EC2A 4NW,London,Epsilon Global Hubs,Epsilon Telecommunications
"
	CyberTrails is located in the area Phoenix, USA (America), and the colocation data center is  carrier neutral. The data center was last updated on 15-12-2008.",CyberTrails,USA,Arizona,85027,Phoenix,,CyberTrails
"
	Interserver is located in the area Hudson County, USA (America), and the colocation data center is not  carrier neutral. The data center was last updated on 18-01-2008.",Interserver,USA,New Jersey,07094,Secaucus,Interserver,"InterServer, Inc"
"
	Liberty Center One is located in the area Detroit, USA (America), and the colocation data center is  carrier neutral. The data center was last updated on 17-06-2009.",Liberty Center One,USA,Michigan,48073,Royal Oak,Liberty Center One,Liberty Center One Datacenters
"
	Teo is located in the area Vilnius, Lithuania (Republic of Lithuania), and the colocation data center is not  carrier neutral. The data center was last updated on 29-10-2015.",Teo,Lithuania,,11203,Vilnius,Teo,Teo LT
"
	Hostex is located in the area Vilnius, Lithuania (Republic of Lithuania), and the colocation data center is  carrier neutral. The data center was last updated on 03-11-2015.",Hostex,Lithuania,,2000,Vilnius,Hostex,Teo LT
"
	WiTCOM DataCenter 2 is located in the area Frankfurt (Frankfurt am Main), Germany (Deutschland), and the colocation data center is  carrier neutral. The data center was last updated on 08-01-2010.",WiTCOM DataCenter 2,Germany,,65189,Wiesbaden,WiTCOM DataCenter 2,WiTCOM Wiesbadener Informations- und Telekommunikations GmbH
"
	Hosting365 Facility is located in the area Dublin, Ireland (Éire), and the colocation data center is not  carrier neutral. The data center was last updated on 15-10-2007.",Hosting365 Facility,Ireland,,D12,Dublin,Hosting365 Facility,Hosting365 Ltd.
"
	TierPoint New York is located in the area Westchester County, USA (America), and the colocation data center is  carrier neutral. The data center was last updated on 23-02-2017.",TierPoint New York,USA,New York,10528,Hawthorne,TierPoint New York,TierPoint
"
	Enterhost is located in the area Dallas, USA (America), and the colocation data center is  carrier neutral. The data center was last updated on 31-10-2007.",Enterhost,USA,Texas,76102,Fort Worth,,Enterhost
"
	WORLDLINK North Datacenter is located in the area Seattle, USA (America), and the colocation data center is  carrier neutral. The data center was last updated on 30-08-2011.",WORLDLINK North Datacenter,USA,Washington,98021,Bothell,WORLDLINK North Datacenter,WORLDLINK
"
	Webplus24 is located in the area Mahlow, Germany (Deutschland), and the colocation data center is  carrier neutral. The data center was last updated on 21-03-2014.",Webplus24,Germany,,15831,Mahlow,Webplus24,Webplus24 GmbH
"
	Vector Comms Northcote Telehouse Centre is located in the area Auckland, New Zealand, and the colocation data center is not  carrier neutral. The data center was last updated on 27-02-2008.",Vector Comms Northcote Telehouse Centre,New Zealand,,Northcote,North Shore City,Vector Comms Northcote Telehouse Centre,VectorFibre
"
	Vostron is located in the area Southampton (Southhampton), United Kingdom (UK), and the colocation data center is  carrier neutral. The data center was last updated on 31-03-2008.",Vostron,United Kingdom,,SO16 7NS,Hampshire,,Vostron
"
	IgLou Colocation is located in the area Louisville, USA (America), and the colocation data center is  carrier neutral. The data center was last updated on 07-08-2014.",IgLou Colocation,USA,Kentucky,40213,Louisville,IgLou Colocation,"IgLou Internet Services, Inc."
"
	Unilogic Networks DC is located in the area Limburg, The Netherlands (Holland), and the colocation data center is not  carrier neutral. The data center was last updated on 04-10-2011.",Unilogic Networks DC,The Netherlands,,6135KD,Sittard,Unilogic Networks DC,Unilogic Networks B.V.
"
	TWS Hosting is located in the area Long Island, USA (America), and the colocation data center is  carrier neutral. The data center was last updated on 23-01-2009.",TWS Hosting,USA,New York,11749,Islandia,,TWS Hosting
"
	Teledata UK is located in the area Manchester, United Kingdom (UK), and the colocation data center is  carrier neutral. The data center was last updated on 16-07-2012.",Teledata UK,United Kingdom,,M22 5QZ,Manchester,,Teledata UK
"
	Cavern Technologies is located in the area Kansas City KS, USA (America), and the colocation data center is  carrier neutral. The data center was last updated on 01-10-2007.",Cavern Technologies,USA,Kansas,66219,Lenexa,,Cavern Technologies
"
	Netissime - Groupe ELB Multimedia is located in the area Lyon, France (Française), and the colocation data center is  carrier neutral. The data center was last updated on 18-08-2008.",Netissime - Groupe ELB Multimedia,France,,69100,Villeurbanne,Netissime - Groupe ELB Multimedia,Groupe e.l.b. multimedia
"
	G-system Bykovo-POINT-1 is located in the area Moscow, Russia, and the colocation data center is  carrier neutral. The data center was last updated on 24-06-2008.",G-system Bykovo-POINT-1,Russia,,140100,Bykovo,G-system Bykovo-POINT-1,LLC GCX
"
	KIO Networks - World Trade Drive is located in the area San Diego, USA (America), and the colocation data center is  carrier neutral. The data center was last updated on 09-09-2015.",KIO Networks - World Trade Drive,USA,California,92128,San Diego,KIO Networks - World Trade Drive,KIO Networks USA
"
	G-System Zhukovskiy-2 is located in the area Moscow, Russia, and the colocation data center is  carrier neutral. The data center was last updated on 05-05-2011.",G-System Zhukovskiy-2,Russia,,140180,Zhukovskiy,G-System Zhukovskiy-2,LLC GCX
"
	KIO Networks - Aero Drive is located in the area San Diego, USA (America), and the colocation data center is  carrier neutral. The data center was last updated on 09-09-2015.",KIO Networks - Aero Drive,USA,California,92123,San Diego,KIO Networks - Aero Drive,KIO Networks USA
"
	Profisol Telecom is located in the area Bucharest, Romania, and the colocation data center is not  carrier neutral. The data center was last updated on 16-04-2011.",Profisol Telecom,Romania,,021841,Bucharest,,Profisol Telecom
"
	Euclyde Data Centers DC1 is located in the area Sophia Antipolis, France (Française), and the colocation data center is  carrier neutral. The data center was last updated on 21-11-2013.",Euclyde Data Centers DC1,France,,06600,Antibes Sophia Antipolis,Euclyde Data Centers DC1,Euclyde Data Centers
"
	Lifeline Data Centers Henry is located in the area Indianapolis, USA (America), and the colocation data center is  carrier neutral. The data center was last updated on 19-07-2011.",Lifeline Data Centers Henry,USA,Indiana,46225,Indianapolis,Lifeline Data Centers Henry,"Lifeline Data Centers, LLC"
"
	EVOLINK Datacenter  - Sofia is located in the area Sofia, Bulgaria, and the colocation data center is  carrier neutral. The data center was last updated on 31-05-2014.",EVOLINK Datacenter  - Sofia,Bulgaria,,1574,Sofia,EVOLINK Datacenter  - Sofia,EVOLINK AD
"
	NOS Data Center NS is located in the area Matosinhos, Portugal, and the colocation data center is  carrier neutral. The data center was last updated on 13-11-2015.",NOS Data Center NS,Portugal,,4461-901,Senhora da Hora - Matosinhos,NOS Data Center NS,NOS Sistemas
"
	NOS Data Center LX is located in the area Carnaxide, Portugal, and the colocation data center is  carrier neutral. The data center was last updated on 13-11-2015.",NOS Data Center LX,Portugal,,2790-114,Carnaxide,NOS Data Center LX,NOS Sistemas
"
	NWI Networks is located in the area Hartford, USA (America), and the colocation data center is not  carrier neutral. The data center was last updated on 28-02-2008.",NWI Networks,USA,Connecticut,06111,Newington,NWI Networks,"New Wave Industries, Inc."
"
	The Karcher Group is located in the area Akron Canton, USA (America), and the colocation data center is not  carrier neutral. The data center was last updated on 04-03-2008.",The Karcher Group,USA,Ohio,44720,North Canton,,The Karcher Group
"
	iStreet Solutions is located in the area Sacramento, USA (America), and the colocation data center is  carrier neutral. The data center was last updated on 19-05-2014.",iStreet Solutions,USA,California,95605,West Sacramento,iStreet Solutions,"iStreet Solutions, LLC"
"
	Fareham is located in the area Portsmouth, United Kingdom (UK), and the colocation data center is  carrier neutral. The data center was last updated on 30-11-2011.",Fareham,United Kingdom,Hampshire,PO15 5TX,Portsmouth,Fareham,SSE Data Centres
"
	KIO Networks 2 is located in the area Queretaro (Querétaro), Mexico (United Mexican States), and the colocation data center is  carrier neutral. The data center was last updated on 09-01-2009.",KIO Networks 2,Mexico,,76240,Queretaro,KIO Networks 2,KIO Networks
"
	KIO Networks 1 is located in the area Mexico City (Ciudad de México), Mexico (United Mexican States), and the colocation data center is  carrier neutral. The data center was last updated on 08-01-2009.",KIO Networks 1,Mexico,,05000,Cuajimalpa,KIO Networks 1,KIO Networks
"
	Atmosera Data Center 1 is located in the area Portland, USA (America), and the colocation data center is  carrier neutral. The data center was last updated on 21-09-2015.",Atmosera Data Center 1,USA,Oregon,97005,Beaverton,Atmosera Data Center 1,Atmosera
"
	EscapeNet is located in the area Adelaide (South Australia), Australia, and the colocation data center is  carrier neutral. The data center was last updated on 20-09-2008.",EscapeNet,Australia,,5000,Adelaide,,EscapeNet
"
	Hypertec BCDR is located in the area Montreal, Canada, and the colocation data center is  carrier neutral. The data center was last updated on 11-12-2008.",Hypertec BCDR,Canada,,H4S 1K5,"Saint-Laurent, Quebec",Hypertec BCDR,Hypertec BCDR Inc.
"
	Iliad-Entreprises VTY is located in the area Paris, France (Française), and the colocation data center is  carrier neutral. The data center was last updated on 24-01-2009.",Iliad-Entreprises VTY,France,,94400,Vitry sur seineE,Iliad-Entreprises VTY,ILIAD DATACENTER
"
	I-Net is located in the area Milan (Milano), Italy (Italia), and the colocation data center is  carrier neutral. The data center was last updated on 07-11-2007.",I-Net,Italy,,20019,Settimo Milanese,I-Net,I.NET
"
	Data Cave is located in the area Columbus IN, USA (America), and the colocation data center is  carrier neutral. The data center was last updated on 19-10-2015.",Data Cave,USA,Indiana,47201,Columbus,Data Cave,Data Cave Inc.
"
	Altitude VDR is located in the area Rouen, France (Française), and the colocation data center is  carrier neutral. The data center was last updated on 24-12-2008.",Altitude VDR,France,,27100,Val de reuil,Altitude VDR,Altitude Telecom
"
	NXDATA-2 is located in the area Bucharest, Romania, and the colocation data center is  carrier neutral. The data center was last updated on 03-04-2017.",NXDATA-2,Romania,,020337,Bucharest,NXDATA-2,NXDATA SRL
"
	Cleveland Data Center is located in the area Cleveland, USA (America).",Cleveland Data Center,,,,,,
"
	BTI Youngstown is located in the area Youngstown, USA (America), and the colocation data center is not  carrier neutral. The data center was last updated on 09-10-2008.",BTI Youngstown,USA,Ohio,44503,Youngstown,BTI Youngstown,B-Telecom Inc.
"
	iBeam Solutions is located in the area Columbus, USA (America), and the colocation data center is  carrier neutral. The data center was last updated on 12-02-2009.",iBeam Solutions,USA,Ohio,43215,Columbus,iBeam Solutions,iBeam Solutions LLC
"
	Global Iletisim OSTIM Datacenter is located in the area Ankara, Turkey (Türkiye), and the colocation data center is not  carrier neutral. The data center was last updated on 13-01-2011.",Global Iletisim OSTIM Datacenter,Turkey,,12345,Ankara,Global Iletisim OSTIM Datacenter,Global Iletisim Hizmetleri A.S.
"
	Global Iletisim Fulya Datacenter is located in the area Istanbul, Turkey (Türkiye), and the colocation data center is not  carrier neutral. The data center was last updated on 13-01-2011.",Global Iletisim Fulya Datacenter,Turkey,,34349,Istanbul,Global Iletisim Fulya Datacenter,Global Iletisim Hizmetleri A.S.
"
	Isocentric Networks is located in the area Tulsa, USA (America), and the colocation data center is  carrier neutral. The data center was last updated on 10-09-2008.",Isocentric Networks,USA,Oklahoma,74103,Tulsa,Isocentric Networks,isocentric networks inc.
"
	Data Center Bulgaria is located in the area Sofia, Bulgaria, and the colocation data center is  carrier neutral. The data center was last updated on 03-02-2009.",Data Center Bulgaria,Bulgaria,,1164,Sofia,Data Center Bulgaria,Info Data Center Ltd
"
	Kompakar CRC is located in the area Selangor, Malaysia, and the colocation data center is  carrier neutral. The data center was last updated on 22-02-2008.",Kompakar CRC,Malaysia,,46200,Selangor,Kompakar CRC,Kompakar Inc Bhd.
"
	Sago Networks Atlanta is located in the area Atlanta, USA (America), and the colocation data center is  carrier neutral. The data center was last updated on 05-09-2007.",Sago Networks Atlanta,USA,Georgia,30093,Norcross,Sago Networks Atlanta,Sago Networks
"
	ByteGrid Lynnwood is located in the area Lynnwood, USA (America), and the colocation data center is  carrier neutral. The data center was last updated on 26-07-2016.",ByteGrid Lynnwood,USA,Washington,98036,Lynnwood,ByteGrid Lynnwood,ByteGrid
"
	Sago Networks Tampa is located in the area Tampa, USA (America), and the colocation data center is  carrier neutral. The data center was last updated on 05-09-2007.",Sago Networks Tampa,USA,Florida,33611,Tampa,Sago Networks Tampa,Sago Networks
"
	Intradesk Data Center Rotterdam is located in the area Rotterdam, The Netherlands (Holland), and the colocation data center is  carrier neutral. The data center was last updated on 27-10-2008.",Intradesk Data Center Rotterdam,The Netherlands,,3024 EL,Rotterdam,Intradesk Data Center Rotterdam,Intradesk
"
	MarquisNet Riverside Data Center is located in the area Riverside, USA (America), and the colocation data center is  carrier neutral. The data center was last updated on 31-10-2008.",MarquisNet Riverside Data Center,USA,California,92507,Riverside,MarquisNet Riverside Data Center,"MarquisNetTM, LLC."
"
	InfoBunker is located in the area Des Moines, USA (America), and the colocation data center is  carrier neutral. The data center was last updated on 11-02-2011.",InfoBunker,USA,Iowa,50312,Des Moines,,InfoBunker
"
	Involta - Marion is located in the area Cedar Rapids, USA (America), and the colocation data center is  carrier neutral. The data center was last updated on 20-06-2011.",Involta - Marion,USA,Iowa,52406,Cedar Rapids,Involta - Marion,Involta
"
	FPT Data Center is located in the area Hanoi (Hà N?i), Vietnam (Socialist Republic of Vietnam), and the colocation data center is not  carrier neutral. The data center was last updated on 20-11-2009.",FPT Data Center,Vietnam,,84,Hanoi,,FPT Data Center
"
	redIT Santa Fe is located in the area Mexico City (Ciudad de México), Mexico (United Mexican States), and the colocation data center is  carrier neutral. The data center was last updated on 29-05-2012.",redIT Santa Fe,Mexico,,01210,Mexico City,redIT Santa Fe,redIT
"
	Infrastructure Technology Solutions is located in the area Monticello, USA (America), and the colocation data center is  carrier neutral. The data center was last updated on 07-05-2008.",Infrastructure Technology Solutions,USA,Iowa,52310,Monticello,,Infrastructure Technology Solutions
"
	redIT Monterrey is located in the area Monterrey (San Pedro Garza García), Mexico (United Mexican States), and the colocation data center is  carrier neutral. The data center was last updated on 29-05-2012.",redIT Monterrey,Mexico,Nuevo Leon,66265,Monterrey,redIT Monterrey,redIT
"
	Miami-Connect is located in the area Miami, USA (America), and the colocation data center is  carrier neutral. The data center was last updated on 11-01-2012.",Miami-Connect,USA,Florida,33132,Miami,Miami-Connect,"Miami-Connect, LLC"
"
	LightPoint Colocation & Hosting is located in the area Portland, USA (America), and the colocation data center is  carrier neutral. The data center was last updated on 26-01-2010.",LightPoint Colocation & Hosting,USA,Oregon,97205,Portland,LightPoint Colocation & Hosting,LightPoint
"
	I-Evolve Data Center is located in the area Buffalo, USA (America), and the colocation data center is  carrier neutral. The data center was last updated on 31-05-2012.",I-Evolve Data Center,USA,New York,14228,Buffalo,I-Evolve Data Center,i-evolve
"
	Emango Datacenter is located in the area Heerlen, The Netherlands (Holland), and the colocation data center is not  carrier neutral. The data center was last updated on 04-06-2009.",Emango Datacenter,The Netherlands,,6365 CX,Schinnen,Emango Datacenter,Emango Internet Services BV
"
	Synergy House is located in the area Manchester, United Kingdom (UK), and the colocation data center is  carrier neutral. The data center was last updated on 30-06-2008.",Synergy House,United Kingdom,,M15 6JJ,Manchester,Synergy House,The UK Grid Network LTD
"
	Quonix Networks is located in the area Philadelphia, USA (America), and the colocation data center is  carrier neutral. The data center was last updated on 27-07-2009.",Quonix Networks,USA,Pennsylvania,19103,Philadelphia,Quonix Networks,"Quonix Networks, Inc."
"
	Modesto City Tower is located in the area Modesto, USA (America), and the colocation data center is  carrier neutral. The data center was last updated on 19-05-2014.",Modesto City Tower,USA,California,95354,Modesto,Modesto City Tower,"Ayera Technologies, Inc."
"
	Fibernet Corp is located in the area Orem, USA (America), and the colocation data center is  carrier neutral. The data center was last updated on 28-01-2009.",Fibernet Corp,USA,Utah,84097,Orem,,Fibernet Corp
"
	TierPoint Spokane is located in the area Spokane, USA (America), and the colocation data center is  carrier neutral. The data center was last updated on 26-03-2014.",TierPoint Spokane,USA,Washington,99019,Liberty Lake,TierPoint Spokane,TierPoint
"
	Latisys-Denver is located in the area Denver, USA (America), and the colocation data center is  carrier neutral. The data center was last updated on 11-01-2008.",Latisys-Denver,USA,Colorado,80112,Englewood,Latisys-Denver,Latisys
"
	Latisys-Irvine is located in the area Irvine, USA (America), and the colocation data center is  carrier neutral. The data center was last updated on 16-06-2010.",Latisys-Irvine,USA,California,92614,Irvine,Latisys-Irvine,Latisys
"
	Hosting.UA is located in the area Odessa, Ukraine (Ukrayina), and the colocation data center is  carrier neutral. The data center was last updated on 23-09-2007.",Hosting.UA,Ukraine,,65001,Odessa,Hosting.UA,LLC Future Technologies
"
	Serverphase.com is located in the area Dallas, USA (America), and the colocation data center is not  carrier neutral. The data center was last updated on 10-06-2014.",Serverphase.com,USA,Texas,75006,Carrollton,Serverphase.com,M&A Technology Inc.
"
	EvoSwitch AMS1 is located in the area Amsterdam, The Netherlands (Holland), and the colocation data center is  carrier neutral. The data center was last updated on 04-08-2014.",EvoSwitch AMS1,The Netherlands,,2031 BE,Amsterdam,EvoSwitch AMS1,EvoSwitch
"
	ATAC is located in the area South West Virginia, USA (America), and the colocation data center is  carrier neutral. The data center was last updated on 14-11-2008.",ATAC,USA,Virginia,24244,Duffield,ATAC,"OnePartner, LLC."
"
	ipHouse is located in the area Minneapolis, USA (America), and the colocation data center is  carrier neutral. The data center was last updated on 21-05-2008.",ipHouse,USA,Minnesota,55401,Minneapolis,,ipHouse
"
	NEPHAX Data Center is located in the area Trojmiasto, Poland (Polska), and the colocation data center is  carrier neutral. The data center was last updated on 30-03-2011.",NEPHAX Data Center,Poland,,80-807,Gdansk,NEPHAX Data Center,CIS NEPHAX
"
	TelecityGroup DUB2 is located in the area Dublin, Ireland (Éire), and the colocation data center is  carrier neutral. The data center was last updated on 01-10-2015.",TelecityGroup DUB2,Ireland,,D22,Dublin,TelecityGroup DUB2,TelecityGroup
"
	Orange County Internet Exchange is located in the area Irvine, USA (America), and the colocation data center is  carrier neutral. The data center was last updated on 15-05-2008.",Orange County Internet Exchange,USA,California,92705,Santa Ana,Orange County Internet Exchange,Telekenex Inc.
"
	Gigahost is located in the area Sandefjord, Norway (Norge), and the colocation data center is not  carrier neutral. The data center was last updated on 17-10-2007.",Gigahost,Norway,,3223,Sandefjord,Gigahost,GigaHost DA
"
	Data Foundry - Austin Data Center is located in the area Austin, USA (America), and the colocation data center is  carrier neutral. The data center was last updated on 10-01-2011.",Data Foundry - Austin Data Center,USA,Texas,78741,Austin,Data Foundry - Austin Data Center,Data Foundry
"
	Liquid Web DC2 is located in the area Lansing, USA (America), and the colocation data center is not  carrier neutral. The data center was last updated on 17-10-2007.",Liquid Web DC2,USA,Michigan,48917,Lansing,Liquid Web DC2,Liquid Web Inc.
"
	GIPNetworks Plano is located in the area Dallas, USA (America), and the colocation data center is  carrier neutral. The data center was last updated on 20-02-2011.",GIPNetworks Plano,USA,Texas,75074,Plano,GIPNetworks Plano,Plano Data Center | Global IP Networks
"
	Liquid Web DC1 is located in the area Lansing, USA (America), and the colocation data center is not  carrier neutral. The data center was last updated on 18-10-2007.",Liquid Web DC1,USA,Michigan,48917,Lansing,Liquid Web DC1,Liquid Web Inc.
"
	Interconnect is located in the area s-Hertogenbosch ('s-Hertogenbosch), The Netherlands (Holland), and the colocation data center is not  carrier neutral. The data center was last updated on 19-01-2012.",Interconnect,The Netherlands,,5215 MG,'s-Hertogenbosch,Interconnect,Interconnect Services BV
"
	Green House Data is located in the area Cheyenne, USA (America), and the colocation data center is  carrier neutral. The data center was last updated on 20-07-2015.",Green House Data,USA,Wyoming,82007,Cheyenne,,Green House Data
"
	SYNAPSECOM Athens SNC-2 is located in the area Athens (Athina), Greece (Hellenic Republic), and the colocation data center is  carrier neutral. The data center was last updated on 29-03-2017.",SYNAPSECOM Athens SNC-2,Greece,,13341,Ano Liosia,SYNAPSECOM Athens SNC-2,Synapsecom Telecoms
"
	Ethoplex is located in the area Milwaukee, USA (America), and the colocation data center is  carrier neutral. The data center was last updated on 07-12-2010.",Ethoplex,USA,Wisconsin,53022,Germantown,,Ethoplex
"
	The Dataport is located in the area Ballasalla, Isle of Man, and the colocation data center is  carrier neutral. The data center was last updated on 10-02-2011.",The Dataport,Isle of Man,,IM9 2AP,Ballasalla,The Dataport,Netcetera
"
	Aruba.it is located in the area Arezzo, Italy (Italia), and the colocation data center is  carrier neutral. The data center was last updated on 07-11-2007.",Aruba.it,Italy,,52100,Arezzo,Aruba.it,Aruba S.p.A.
"
	Gotham Bus is located in the area Long Island, USA (America), and the colocation data center is not  carrier neutral. The data center was last updated on 31-12-2008.",Gotham Bus,USA,New York,11766,Mt. Sinai,Gotham Bus,The Gotham Bus Company Inc.
"
	Springs Hosting is located in the area Colorado Springs, USA (America), and the colocation data center is  carrier neutral. The data center was last updated on 21-05-2008.",Springs Hosting,USA,Colorado,80910,Colorado Springs,,Springs Hosting
"
	GET Long Island is located in the area Long Island, USA (America), and the colocation data center is not  carrier neutral. The data center was last updated on 18-12-2007.",GET Long Island,USA,New York,11805,Hicksville,GET Long Island,"Global Enterprise Technologies, Inc."
"
	Surfplanet Datacenter is located in the area Cologne (Köln), Germany (Deutschland), and the colocation data center is  carrier neutral. The data center was last updated on 03-06-2009.",Surfplanet Datacenter,Germany,,51063,Cologne,Surfplanet Datacenter,Surfplanet GmbH
"
	Hot Site Data Center is located in the area Cincinnati, USA (America), and the colocation data center is  carrier neutral. The data center was last updated on 29-10-2008.",Hot Site Data Center,USA,Ohio,45211,Cincinnati,,Hot Site Data Center
"
	Dedicated Server Store is located in the area Miami, USA (America), and the colocation data center is  carrier neutral. The data center was last updated on 02-01-2008.",Dedicated Server Store,USA,Florida,33142,Miami,Dedicated Server Store,Stealth - ISS Inc.
"
	Spectrum Softtech Solutions is located in the area Cochin, India, and the colocation data center is  carrier neutral. The data center was last updated on 18-12-2007.",Spectrum Softtech Solutions,India,Kerala,682011,Ernakulam,Spectrum Softtech Solutions,Spectrum Softtech Solutions ( P ) Ltd.
"
	BCE Broadcasting Center Europe is located in the area Luxembourg, Luxembourg (Luxemburg), and the colocation data center is  carrier neutral. The data center was last updated on 20-09-2011.",BCE Broadcasting Center Europe,Luxembourg,,1543,Kirchberg,BCE Broadcasting Center Europe,Broadcasting Center Europe
"
	Stone Mountain Data Complex is located in the area Olive Hill, USA (America), and the colocation data center is  carrier neutral. The data center was last updated on 08-09-2008.",Stone Mountain Data Complex,USA,Kentucky,41164,Olive Hill,Stone Mountain Data Complex,"Stone Mountain Dataplex, Inc."
"
	PCI is located in the area Buffalo, USA (America), and the colocation data center is  carrier neutral. The data center was last updated on 22-10-2008.",PCI,USA,New York,14203,Buffalo,PCI,"Personal Computers, Inc."
"
	Awecomm Technologies is located in the area Detroit, USA (America), and the colocation data center is  carrier neutral. The data center was last updated on 05-11-2010.",Awecomm Technologies,USA,Michigan,48084,Troy,,Awecomm Technologies
"
	NetStandard is located in the area Kansas City KS, USA (America), and the colocation data center is not  carrier neutral. The data center was last updated on 19-10-2007.",NetStandard,USA,Kansas,66106,Kansas City,NetStandard,NetStandard Inc.
"
	PRISM Technologies is located in the area Albuquerque, USA (America), and the colocation data center is  carrier neutral. The data center was last updated on 06-05-2008.",PRISM Technologies,USA,New Mexico,87102,Albuquerque,,PRISM Technologies
"
	TierPoint Oklahoma City #2 is located in the area Oklahoma City, USA (America), and the colocation data center is  carrier neutral. The data center was last updated on 26-03-2014.",TierPoint Oklahoma City #2,USA,Oklahoma,73112,Oklahoma City,TierPoint Oklahoma City #2,TierPoint
"
	TierPoint Oklahoma City #1 is located in the area Oklahoma City, USA (America), and the colocation data center is  carrier neutral. The data center was last updated on 26-03-2014.",TierPoint Oklahoma City #1,USA,Oklahoma,73112,Oklahoma City,TierPoint Oklahoma City #1,TierPoint
"
	TierPoint Oklahoma-Tulsa is located in the area Tulsa, USA (America), and the colocation data center is  carrier neutral. The data center was last updated on 26-03-2014.",TierPoint Oklahoma-Tulsa,USA,Oklahoma,74120,Tulsa,TierPoint Oklahoma-Tulsa,TierPoint
"
	Micron21 Melbourne Datacentre is located in the area Melbourne (Victoria), Australia, and the colocation data center is  carrier neutral. The data center was last updated on 04-11-2008.",Micron21 Melbourne Datacentre,Australia,Victoria,3137,Melbourne,Micron21 Melbourne Datacentre,"Micron21 Pty, Ltd."
"
	SevenL Networks is located in the area Toronto, Canada, and the colocation data center is not  carrier neutral. The data center was last updated on 21-10-2008.",SevenL Networks,Canada,,M5A1Z1,Toronto,SevenL Networks,SevenL Networks Inc.
"
	DATACENTRUM MORAVIA is located in the area Olomouc, Czech Republic, and the colocation data center is not  carrier neutral. The data center was last updated on 16-06-2008.",DATACENTRUM MORAVIA,Czech Republic,,77200,Olomouc,DATACENTRUM MORAVIA,MERIT GROUP a.s.
"
	Servernet Services P Ltd is located in the area Chennai, India, and the colocation data center is not  carrier neutral. The data center was last updated on 20-06-2013.",Servernet Services P Ltd,India,Tamilnadu,600041,Chennai,,Servernet Services P Ltd
"
	solana.hk is located in the area Hong Kong, Hong Kong (Hong Kong, SAR of China), and the colocation data center is  carrier neutral. The data center was last updated on 12-11-2008.",solana.hk,Hong Kong,,Chaiwan,Hong Kong,,solana.hk
"
	SotaConnect Data Centre is located in the area Kent, United Kingdom (UK), and the colocation data center is  carrier neutral. The data center was last updated on 07-09-2007.",SotaConnect Data Centre,United Kingdom,,ME9 8PX,Sittingbourne,SotaConnect Data Centre,Sota Solutions Limited
"
	Ann Arbor Data Center is located in the area Ann Arbor, USA (America), and the colocation data center is  carrier neutral. The data center was last updated on 25-02-2015.",Ann Arbor Data Center,USA,Michigan,48104,Ann Arbor,Ann Arbor Data Center,Online Tech
"
	Options Data Centre is located in the area London, United Kingdom (UK), and the colocation data center is  carrier neutral. The data center was last updated on 11-01-2008.",Options Data Centre,United Kingdom,,NW10 7NU,London,Options Data Centre,Options Technology Ltd.
"
	Mid-Michigan Data Center is located in the area Flint, USA (America), and the colocation data center is  carrier neutral. The data center was last updated on 09-06-2015.",Mid-Michigan Data Center,USA,Michigan,48507,Flint,Mid-Michigan Data Center,Online Tech
"
	Hosting Data Center Brasov is located in the area Brasov, Romania, and the colocation data center is not  carrier neutral. The data center was last updated on 23-08-2013.",Hosting Data Center Brasov,Romania,,500030,Brasov,Hosting Data Center Brasov,Telekom Romania Communications
"
	Hosting Data Center Brasov #2 is located in the area Brasov, Romania, and the colocation data center is not  carrier neutral. The data center was last updated on 23-08-2013.",Hosting Data Center Brasov #2,Romania,,500365,Brasov,Hosting Data Center Brasov #2,Telekom Romania Communications
"
	Smart City is located in the area Orlando, USA (America), and the colocation data center is  carrier neutral. The data center was last updated on 09-10-2008.",Smart City,USA,Florida,32810,Orlando,Smart City,"Smart City Holdings, LLC"
"
	Hosting Data Center Bucharest is located in the area Bucharest, Romania, and the colocation data center is not  carrier neutral. The data center was last updated on 23-08-2013.",Hosting Data Center Bucharest,Romania,,061391,Bucharest,Hosting Data Center Bucharest,Telekom Romania Communications
"
	123Net DC2 is located in the area Detroit, USA (America), and the colocation data center is  carrier neutral. The data center was last updated on 25-05-2012.",123Net DC2,USA,Michigan,48075,Southfield,123Net DC2,"123Net, Inc."
"
	SolutionPro Boise Idaho is located in the area Boise, USA (America), and the colocation data center is  carrier neutral. The data center was last updated on 14-01-2010.",SolutionPro Boise Idaho,USA,Idaho,83709,Boise,SolutionPro Boise Idaho,SolutionPro Inc
"
	Pugmarks is located in the area Chicago, USA (America), and the colocation data center is not  carrier neutral. The data center was last updated on 02-01-2008.",Pugmarks,USA,Illinois,60563,Naperville,Pugmarks,Pugmarks Inc.
"
	PT Prime Picoas is located in the area Lisbon (Lisboa), Portugal, and the colocation data center is not  carrier neutral. The data center was last updated on 22-09-2008.",PT Prime Picoas,Portugal,,1069 - 300,Picoas,PT Prime Picoas,PT Prime
"
	PT Prime Tenente Valadim is located in the area Porto, Portugal, and the colocation data center is not  carrier neutral. The data center was last updated on 22-09-2008.",PT Prime Tenente Valadim,Portugal,,4100 - 459,Tenente Valadim,PT Prime Tenente Valadim,PT Prime
"
	PT Prime Carnide is located in the area Lisbon (Lisboa), Portugal, and the colocation data center is not  carrier neutral. The data center was last updated on 22-09-2008.",PT Prime Carnide,Portugal,,1500 - 441,Carnide,PT Prime Carnide,PT Prime
"
	SVTIX is located in the area San Jose, USA (America), and the colocation data center is  carrier neutral. The data center was last updated on 18-10-2007.",SVTIX,USA,California,95126,San Jose,SVTIX,Silicon Valley Telecom & Internet Exchange
"
	Oso Secure is located in the area Albuquerque, USA (America), and the colocation data center is  carrier neutral. The data center was last updated on 28-04-2008.",Oso Secure,USA,New Mexico,87109,Albuquerque,Oso Secure,OSO Technologies
"
	GigaCenter is located in the area Kelowna, Canada, and the colocation data center is  carrier neutral. The data center was last updated on 24-01-2012.",GigaCenter,Canada,,V1Y 6H7,Kelowna,GigaCenter,RackForce
"
	Appica Cincinnati Metro is located in the area Cincinnati, USA (America), and the colocation data center is  carrier neutral. The data center was last updated on 28-10-2013.",Appica Cincinnati Metro,USA,Ohio,45202,Cincinnati,Appica Cincinnati Metro,Immedion
"
	Optiquest Datacenter is located in the area The Woodlands, USA (America), and the colocation data center is not  carrier neutral. The data center was last updated on 25-07-2008.",Optiquest Datacenter,USA,Texas,77380,The Woodlands,Optiquest Datacenter,"Optiquest Internet Services, Inc."
"
	Sofia-connect Ltd is located in the area Sofia, Bulgaria, and the colocation data center is  carrier neutral. The data center was last updated on 20-01-2010.",Sofia-connect Ltd,Bulgaria,,1504,Sofia,Sofia-connect Ltd,Sofia Connect
"
	Worldspice is located in the area Memphis, USA (America), and the colocation data center is not  carrier neutral. The data center was last updated on 25-03-2008.",Worldspice,USA,Tennessee,38157,Memphis,Worldspice,WorldSpice Technologies
"
	SimpleNet Colo is located in the area San Diego, USA (America), and the colocation data center is not  carrier neutral. The data center was last updated on 29-02-2008.",SimpleNet Colo,USA,California,92101,San Diego,SimpleNet Colo,"SimpleNet, Inc."
"
	226 North Fifth Street is located in the area Columbus, USA (America).",226 North Fifth Street,,,,,,
"
	SAVEHOUSE MONTREUIL is located in the area Paris, France (Française), and the colocation data center is not  carrier neutral. The data center was last updated on 30-07-2008.",SAVEHOUSE MONTREUIL,France,,93100,Montreuil sous Bois,SAVEHOUSE MONTREUIL,Saveho
"
	Si Bs Dc is located in the area Brescia, Italy (Italia), and the colocation data center is not  carrier neutral. The data center was last updated on 20-10-2008.",Si Bs Dc,Italy,,25125,Brescia,Si Bs Dc,Servizi Internet S.r.l.
"
	Sofia Connect 2 is located in the area Sofia, Bulgaria, and the colocation data center is  carrier neutral. The data center was last updated on 19-01-2010.",Sofia Connect 2,Bulgaria,,1000,Sofia,Sofia Connect 2,Sofia Connect
"
	Schuberg Philis is located in the area Schiphol-Rijk, The Netherlands (Holland), and the colocation data center is  carrier neutral. The data center was last updated on 24-09-2007.",Schuberg Philis,The Netherlands,,1119 PD,Schiphol-Rijk,,Schuberg Philis
"
	Neuviz Batam Data Center is located in the area Batam, indonesia, and the colocation data center is  carrier neutral. The data center was last updated on 19-05-2016.",Neuviz Batam Data Center,indonesia,,29463,Sei baloi,Neuviz Batam Data Center,PT Prestasi Piranti Informasi
"
	NEXCESS.NET DC1 is located in the area Detroit, USA (America), and the colocation data center is not  carrier neutral. The data center was last updated on 21-11-2013.",NEXCESS.NET DC1,USA,Michigan,48124,Dearborn,NEXCESS.NET DC1,NEXCESS.NET L.L.C.
"
	Bhumishq Data Centre is located in the area Reduit (Le Reduit), Mauritius (Republic of Mauritius), and the colocation data center is  carrier neutral. The data center was last updated on 29-08-2008.",Bhumishq Data Centre,Mauritius,,00000,Ebene,Bhumishq Data Centre,Bhumishq Technologies Ltd.
"
	QITX / CDMS is located in the area Montreal, Canada, and the colocation data center is not  carrier neutral. The data center was last updated on 18-11-2013.",QITX / CDMS,Canada,Québec,H3A 2E3,Montréal,QITX / CDMS,QITX inc
"
	NEXCESS.NET DC2 is located in the area Detroit, USA (America), and the colocation data center is  carrier neutral. The data center was last updated on 21-11-2013.",NEXCESS.NET DC2,USA,Michigan,48075,Southfield,NEXCESS.NET DC2,NEXCESS.NET L.L.C.
"
	ServOnDemand is located in the area Detroit, USA (America), and the colocation data center is  carrier neutral. The data center was last updated on 16-11-2009.",ServOnDemand,USA,Michigan,48075,Southfield,,ServOnDemand
"
	GlobalWays StreamHost Stuttgart is located in the area Stuttgart, Germany (Deutschland), and the colocation data center is  carrier neutral. The data center was last updated on 27-12-2008.",GlobalWays StreamHost Stuttgart,Germany,,70174,Stuttgart,GlobalWays StreamHost Stuttgart,Globalways AG
"
	TierPoint Omaha-Bellevue is located in the area Omaha, USA (America), and the colocation data center is  carrier neutral. The data center was last updated on 23-02-2017.",TierPoint Omaha-Bellevue,USA,Nebraska,68005,Bellevue,TierPoint Omaha-Bellevue,TierPoint
"
	Key Info (Agoura Ct) is located in the area Los Angeles, USA (America), and the colocation data center is  carrier neutral. The data center was last updated on 06-06-2014.",Key Info (Agoura Ct),USA,California,91301,Agoura Hills,Key Info (Agoura Ct),Key Information Systems
"
	Key Info (Canwood) is located in the area Los Angeles, USA (America), and the colocation data center is  carrier neutral. The data center was last updated on 06-06-2014.",Key Info (Canwood),USA,California,91301,Agoura Hills,Key Info (Canwood),Key Information Systems
"
	IWB Datacenter is located in the area Basel, Switzerland (Schweiz), and the colocation data center is  carrier neutral. The data center was last updated on 05-09-2014.",IWB Datacenter,Switzerland,,4002,Basel,IWB Datacenter,IWB
"
	Aixit 2 is located in the area Frankfurt (Frankfurt am Main), Germany (Deutschland), and the colocation data center is  carrier neutral. The data center was last updated on 27-01-2010.",Aixit 2,Germany,Hessen,63067,Offenbach am Main,Aixit 2,aixit GmbH
"
	CORETX is located in the area Bournemouth, United Kingdom (UK), and the colocation data center is  carrier neutral. The data center was last updated on 22-08-2016.",CORETX,United Kingdom,,BH1 1AZ,Poole,,CORETX
"
	CeraNet DC1 is located in the area Columbus, USA (America), and the colocation data center is  carrier neutral. The data center was last updated on 17-09-2015.",CeraNet DC1,USA,Ohio,43230,Columbus,CeraNet DC1,"CeraNet, Inc."
"
	Aixit Frankfurt is located in the area Frankfurt (Frankfurt am Main), Germany (Deutschland), and the colocation data center is  carrier neutral. The data center was last updated on 27-01-2010.",Aixit Frankfurt,Germany,,60313,Frankfurt,Aixit Frankfurt,aixit GmbH
"
	colozueri.ch is located in the area Zürich, Switzerland (Schweiz), and the colocation data center is  carrier neutral. The data center was last updated on 28-12-2011.",colozueri.ch,Switzerland,,8048,Zürich,colozueri.ch,colozüri.ch AG
"
	Atlanta NAP is located in the area Atlanta, USA (America), and the colocation data center is  carrier neutral. The data center was last updated on 06-01-2014.",Atlanta NAP,USA,Georgia,30310,Atlanta,Atlanta NAP,Global Net Acces
"
	CISP is located in the area Toledo, USA (America), and the colocation data center is not  carrier neutral. The data center was last updated on 18-02-2008.",CISP,USA,Ohio,43615,Toledo,,CISP
"
	Vernon Data Center is located in the area Los Angeles, USA (America), and the colocation data center is  carrier neutral. The data center was last updated on 20-03-2008.",Vernon Data Center,USA,California,90058,Vernon,Vernon Data Center,"Downtown Properties Holdings, LLC"
"
	Pulsant - Reading East 1/2 is located in the area Berkshire, United Kingdom (UK), and the colocation data center is  carrier neutral. The data center was last updated on 04-08-2015.",Pulsant - Reading East 1/2,United Kingdom,,RG6 1AZ,Reading,Pulsant - Reading East 1/2,Pulsant Ltd
"
	818 West 7th Street is located in the area Los Angeles, USA (America).",818 West 7th Street,,,,,,
"
	IO is located in the area Phoenix, USA (America), and the colocation data center is  carrier neutral. The data center was last updated on 22-07-2016.",IO,USA,Arizona,85255,Scottsdale,,IO
"
	Colosseum Online Inc. is located in the area Toronto, Canada, and the colocation data center is not  carrier neutral. The data center was last updated on 28-12-2007.",Colosseum Online Inc.,Canada,,M3J 3K4,Toronto,,Colosseum Online Inc.
"
	IO is located in the area Edison, USA (America), and the colocation data center is  carrier neutral. The data center was last updated on 09-06-2016.",IO,USA,New Jersey,08837,Edison,,IO
"
	1102 GRAND is located in the area Kansas City MO, USA (America), and the colocation data center is  carrier neutral. The data center was last updated on 15-02-2010.",1102 GRAND,USA,Missouri,64106,Kansas City,1102 GRAND,"1102 GRAND, LLC"
"
	Data Center Vista is located in the area Singapore, Singapore, and the colocation data center is  carrier neutral. The data center was last updated on 08-06-2008.",Data Center Vista,Singapore,,117612,Singapore,Data Center Vista,Data Center Vista Pte Ltd.
"
	4dv.net is located in the area Denver, USA (America), and the colocation data center is  carrier neutral. The data center was last updated on 08-10-2007.",4dv.net,USA,Colorado,80112,Englewood,,4dv.net
"
	111 Eight Avenue is located in the area New York, USA (America).",111 Eight Avenue,,,,,,
"
	151 Front Street West is located in the area Toronto, Canada.",151 Front Street West,,,,,,
"
	INFOMART DALLAS is located in the area Dallas, USA (America).",INFOMART DALLAS,,,,,,
"
	AAPT Glebe is located in the area Sydney (New South Wales), Australia, and the colocation data center is  carrier neutral. The data center was last updated on 13-10-2007.",AAPT Glebe,Australia,New South Wales,NS 2037,Glebe,AAPT Glebe,AAPT
"
	AAPT Haymarket is located in the area Sydney (New South Wales), Australia, and the colocation data center is  carrier neutral. The data center was last updated on 13-10-2007.",AAPT Haymarket,Australia,New South Wales,NS 2006,Haymarket,AAPT Haymarket,AAPT
"
	AAPT Brisbane is located in the area Brisbane (Queensland), Australia, and the colocation data center is  carrier neutral. The data center was last updated on 13-10-2007.",AAPT Brisbane,Australia,Queensland,QL 4000,Brisbane,AAPT Brisbane,AAPT
"
	AAPT Adelaide is located in the area Adelaide (South Australia), Australia, and the colocation data center is  carrier neutral. The data center was last updated on 13-10-2007.",AAPT Adelaide,Australia,South Australia,SA 5000,Adelaide,AAPT Adelaide,AAPT
"
	AAPT Richmond (Melbourne) is located in the area Melbourne (Victoria), Australia, and the colocation data center is  carrier neutral. The data center was last updated on 08-08-2008.",AAPT Richmond (Melbourne),Australia,Victoria,3043,Richmond,AAPT Richmond (Melbourne),AAPT
"
	ANET Chicago is located in the area Chicago, USA (America), and the colocation data center is  carrier neutral. The data center was last updated on 21-10-2007.",ANET Chicago,USA,Illinois,60606,Chicago,ANET Chicago,ANET Internet Solutions
"
	TierPoint Dallas is located in the area Dallas, USA (America), and the colocation data center is  carrier neutral. The data center was last updated on 23-02-2017.",TierPoint Dallas,USA,Texas,75247,Dallas,TierPoint Dallas,TierPoint
"
	C I Host Dallas is located in the area Dallas, USA (America), and the colocation data center is not  carrier neutral. The data center was last updated on 21-10-2007.",C I Host Dallas,USA,Texas,76021,Bredford,C I Host Dallas,C I Host
"
	365 Data Centers - Emeryville is located in the area Emeryville, USA (America), and the colocation data center is  carrier neutral. The data center was last updated on 10-02-2015.",365 Data Centers - Emeryville,USA,California,94608,Emeryville,365 Data Centers - Emeryville,365 Data Centers
"
	C I Host Chicago is located in the area Chicago, USA (America), and the colocation data center is not  carrier neutral. The data center was last updated on 21-10-2007.",C I Host Chicago,USA,Illinois,60610,Chicago,C I Host Chicago,C I Host
"
	C I Host Newark is located in the area Newark, USA (America), and the colocation data center is not  carrier neutral. The data center was last updated on 21-10-2007.",C I Host Newark,USA,New Jersey,07102,Newark,C I Host Newark,C I Host
"
	BIT-2 Datacenter is located in the area Ede, The Netherlands (Holland), and the colocation data center is  carrier neutral. The data center was last updated on 08-08-2011.",BIT-2 Datacenter,The Netherlands,,6716 BV,Ede,BIT-2 Datacenter,BIT BV
"
	BIT-1 Datacenter is located in the area Ede, The Netherlands (Holland), and the colocation data center is  carrier neutral. The data center was last updated on 08-08-2011.",BIT-1 Datacenter,The Netherlands,,6716 BV,Ede,BIT-1 Datacenter,BIT BV
"
	iAdvantage (ONE-iAdvantage) is located in the area Hong Kong, Hong Kong (Hong Kong, SAR of China), and the colocation data center is  carrier neutral. The data center was last updated on 11-02-2015.",iAdvantage (ONE-iAdvantage),Hong Kong,,",","Kwun Tong, Kowloon",iAdvantage (ONE-iAdvantage),iAdvantage Limited
"
	TAS France is located in the area Sophia Antipolis, France (Française), and the colocation data center is  carrier neutral. The data center was last updated on 26-03-2014.",TAS France,France,,06560,Sophia Antipolis,,TAS France
"
	LAX Data Center is located in the area Los Angeles, USA (America), and the colocation data center is  carrier neutral. The data center was last updated on 08-11-2007.",LAX Data Center,USA,California,90045,Los Angeles,LAX Data Center,"Alchemy Communications, Inc."
"
	Caribe.Net is located in the area San Juan (Santurce), Puerto Rico, and the colocation data center is not  carrier neutral. The data center was last updated on 23-10-2007.",Caribe.Net,Puerto Rico,,00911,Santurce,Caribe.Net,"Critical Hub Networks, Inc."
"
	Capital Internet is located in the area Atlanta, USA (America), and the colocation data center is not  carrier neutral. The data center was last updated on 24-07-2012.",Capital Internet,USA,Georgia,30328,Atlanta,Capital Internet,Capital Internet Data Center
"
	ColoCenter Frankfurt am Main is located in the area Frankfurt (Frankfurt am Main), Germany (Deutschland), and the colocation data center is  carrier neutral. The data center was last updated on 01-08-2007.",ColoCenter Frankfurt am Main,Germany,,65760,Eschborn,ColoCenter Frankfurt am Main,ColoCenter Frankfurt am Main GmbH
"
	colobern is located in the area Bern, Switzerland (Schweiz), and the colocation data center is  carrier neutral. The data center was last updated on 05-10-2007.",colobern,Switzerland,,3012,Bern,colobern,NTS Workspace AG
"
	Digiplex Oslo is located in the area Oslo, Norway (Norge), and the colocation data center is  carrier neutral. The data center was last updated on 23-06-2015.",Digiplex Oslo,Norway,,0581,Oslo,Digiplex Oslo,Digiplex
"
	BTC Core Network is located in the area Sofia, Bulgaria, and the colocation data center is  carrier neutral. The data center was last updated on 13-10-2007.",BTC Core Network,Bulgaria,,1000,Sofia,BTC Core Network,BTC
"
	UnitedColo Coburg is located in the area Coburg, Germany (Deutschland), and the colocation data center is  carrier neutral. The data center was last updated on 13-10-2007.",UnitedColo Coburg,Germany,,96450,Coburg,UnitedColo Coburg,United Colo GmbH
"
	Binary.net is located in the area Lincoln, USA (America), and the colocation data center is not  carrier neutral. The data center was last updated on 17-02-2012.",Binary.net,USA,Nebraska,68508,Lincoln,Binary.net,Binary Net
"
	Eurociber is located in the area Madrid, Spain (España), and the colocation data center is  carrier neutral. The data center was last updated on 08-10-2007.",Eurociber,Spain,,28230,Madrid,,Eurociber
"
	Digital Sense is located in the area Brisbane (Queensland), Australia, and the colocation data center is  carrier neutral. The data center was last updated on 10-11-2011.",Digital Sense,Australia,Queensland,4069,Brisbane,Digital Sense,Digital Sense Hosting Pty. Ltd.
"
	Vertex SSX is located in the area Los Angeles, USA (America), and the colocation data center is  carrier neutral. The data center was last updated on 08-10-2007.",Vertex SSX,USA,California,90017,Los Angeles,Vertex SSX,Vertex SSX Corporation
"
	ITGate Torino PdF is located in the area Torino, Italy (Italia), and the colocation data center is  carrier neutral. The data center was last updated on 13-10-2007.",ITGate Torino PdF,Italy,,10149,Torino,ITGate Torino PdF,IT.Gate S.p.A.
"
	ISP Services Doetinchem is located in the area Doetinchem, The Netherlands (Holland), and the colocation data center is  carrier neutral. The data center was last updated on 13-10-2007.",ISP Services Doetinchem,The Netherlands,,7005 BM,Doetinchem,ISP Services Doetinchem,ISP Services BV
"
	DTS DataCenter Herford is located in the area Herford, Germany (Deutschland), and the colocation data center is  carrier neutral. The data center was last updated on 13-10-2007.",DTS DataCenter Herford,Germany,,32051,Herford,DTS DataCenter Herford,DTS Systeme GmbH
"
	Colo Solutions Orlando is located in the area Orlando, USA (America), and the colocation data center is  carrier neutral. The data center was last updated on 08-10-2007.",Colo Solutions Orlando,USA,Florida,32801,Orlando,Colo Solutions Orlando,Colo Solutions
"
	I.T.E.N.O.S is located in the area Frankfurt (Frankfurt am Main), Germany (Deutschland), and the colocation data center is  carrier neutral. The data center was last updated on 06-10-2007.",I.T.E.N.O.S,Germany,,60326,Frankfurt,I.T.E.N.O.S,I.T.E.N.O.S. GmbH
"
	Atmosera Data Center 3 is located in the area Portland, USA (America), and the colocation data center is  carrier neutral. The data center was last updated on 21-09-2015.",Atmosera Data Center 3,USA,Oregon,97205,Portland,Atmosera Data Center 3,Atmosera
"
	Litewire is located in the area McMinnville, USA (America), and the colocation data center is  carrier neutral. The data center was last updated on 30-10-2015.",Litewire,USA,Tennessee,37110,McMinnville,,Litewire
"
	Network 222 is located in the area Madison, USA (America).",Network 222,,,,,,
"
	e-shelter Berlin is located in the area Berlin, Germany (Deutschland), and the colocation data center is  carrier neutral. The data center was last updated on 27-08-2007.",e-shelter Berlin,Germany,,13599,Berlin,e-shelter Berlin,e-shelter facility services GmbH
"
	IRIS - Nashville is located in the area Nashville, USA (America), and the colocation data center is  carrier neutral. The data center was last updated on 13-10-2007.",IRIS - Nashville,USA,Tennessee,37201,Nashville,IRIS - Nashville,Iris Networks
"
	e-shelter Frankfurt 1 is located in the area Frankfurt (Frankfurt am Main), Germany (Deutschland), and the colocation data center is  carrier neutral. The data center was last updated on 13-10-2007.",e-shelter Frankfurt 1,Germany,,60489,Frankfurt,e-shelter Frankfurt 1,e-shelter facility services GmbH
"
	FCCN SE03/GigaPix II is located in the area Lisbon (Lisboa), Portugal, and the colocation data center is  carrier neutral. The data center was last updated on 19-05-2015.",FCCN SE03/GigaPix II,Portugal,,1700-066,Lisbon,FCCN SE03/GigaPix II,FCT-FCCN
"
	Dataplex is located in the area Budapest, Hungary, and the colocation data center is  carrier neutral. The data center was last updated on 01-10-2007.",Dataplex,Hungary,,1087,Budapest,,Dataplex
"
	HKCOLO Carrier Colocation Centre is located in the area Hong Kong, Hong Kong (Hong Kong, SAR of China), and the colocation data center is  carrier neutral. The data center was last updated on 21-03-2011.",HKCOLO Carrier Colocation Centre,Hong Kong,,-,Hong Kong,HKCOLO Carrier Colocation Centre,HKCOLO
"
	KDweb San Jose is located in the area San Jose, USA (America), and the colocation data center is  carrier neutral. The data center was last updated on 13-10-2007.",KDweb San Jose,USA,California,95122,San Jose,KDweb San Jose,KD-Web
"
	IP Exchange Nurembourg is located in the area Nuremberg (Nürnberg), Germany (Deutschland), and the colocation data center is  carrier neutral. The data center was last updated on 13-10-2007.",IP Exchange Nurembourg,Germany,,90475,Nuernberg,IP Exchange Nurembourg,IP Exchange GmbH
"
	M-Net is located in the area Nuremberg (Nürnberg), Germany (Deutschland), and the colocation data center is  carrier neutral. The data center was last updated on 06-10-2007.",M-Net,Germany,,90441,Nürnberg,M-Net,M-net Telekommunikations GmbH
"
	Hostingcenter Århus is located in the area Århus, Denmark (Danmark), and the colocation data center is not  carrier neutral. The data center was last updated on 26-01-2010.",Hostingcenter Århus,Denmark,,8000,Århus C,Hostingcenter Århus,nianet a/s
"
	Communication Center cc.ch is located in the area Biel (Bienne), Switzerland (Schweiz), and the colocation data center is  carrier neutral. The data center was last updated on 13-10-2007.",Communication Center cc.ch,Switzerland,,2503,Biel,Communication Center cc.ch,LAN Computer Systems AG
"
	CSS MPS Moscow is located in the area Moscow, Russia, and the colocation data center is  carrier neutral. The data center was last updated on 13-10-2007.",CSS MPS Moscow,Russia,,?,Moscow,CSS MPS Moscow,CSS MPS
"
	Moscow M9 is located in the area Moscow, Russia, and the colocation data center is  carrier neutral. The data center was last updated on 13-10-2007.",Moscow M9,Russia,,117485,Moscow,Moscow M9,MMTS9
"
	GTS Telehouse Prague is located in the area Prague, Czech Republic, and the colocation data center is  carrier neutral. The data center was last updated on 13-10-2007.",GTS Telehouse Prague,Czech Republic,,13000,Prague,GTS Telehouse Prague,GTS Novera
"
	Wave Hosting Santa Clara is located in the area Santa Clara, USA (America), and the colocation data center is  carrier neutral. The data center was last updated on 18-11-2016.",Wave Hosting Santa Clara,USA,California,95054,Santa Clara,Wave Hosting Santa Clara,Wave Business
"
	NIKHEF Amsterdam is located in the area Amsterdam, The Netherlands (Holland), and the colocation data center is  carrier neutral. The data center was last updated on 13-10-2007.",NIKHEF Amsterdam,The Netherlands,,1098 XG,Amsterdam,NIKHEF Amsterdam,Nikhef
"
	myLoc Duesseldorf is located in the area Düsseldorf, Germany (Deutschland), and the colocation data center is  carrier neutral. The data center was last updated on 13-10-2007.",myLoc Duesseldorf,Germany,,40472,Düsseldorf,myLoc Duesseldorf,myLoc managed IT AG
"
	Jay.net Smedeland is located in the area Copenhagen (København), Denmark (Danmark), and the colocation data center is not  carrier neutral. The data center was last updated on 01-08-2007.",Jay.net Smedeland,Denmark,,2600,Glostrup,Jay.net Smedeland,Jay.net A/S
"
	HostNordic Datacenter is located in the area Århus, Denmark (Danmark), and the colocation data center is not  carrier neutral. The data center was last updated on 01-08-2007.",HostNordic Datacenter,Denmark,,8260,Viby J,HostNordic Datacenter,Hostnordic A/S
"
	Peak 10 Atlanta is located in the area Atlanta, USA (America), and the colocation data center is  carrier neutral. The data center was last updated on 08-10-2009.",Peak 10 Atlanta,USA,Georgia,30071,Norcross,Peak 10 Atlanta,"Peak 10, Inc."
"
	Nianet Hørskætten is located in the area Copenhagen (København), Denmark (Danmark), and the colocation data center is  carrier neutral. The data center was last updated on 23-05-2008.",Nianet Hørskætten,Denmark,,2630,Taastrup,Nianet Hørskætten,nianet a/s
"
	Peak 10 Tampa is located in the area Tampa, USA (America), and the colocation data center is  carrier neutral. The data center was last updated on 08-10-2009.",Peak 10 Tampa,USA,Florida,33634,Tampa,Peak 10 Tampa,"Peak 10, Inc."
"
	Peak 10 Louisville is located in the area Louisville, USA (America), and the colocation data center is  carrier neutral. The data center was last updated on 08-10-2009.",Peak 10 Louisville,USA,Kentucky,40204,Louisville,Peak 10 Louisville,"Peak 10, Inc."
"
	Peak 10 Richmond is located in the area Richmond, USA (America), and the colocation data center is  carrier neutral. The data center was last updated on 08-10-2009.",Peak 10 Richmond,USA,Virginia,23227,Richmond,Peak 10 Richmond,"Peak 10, Inc."
"
	Peak 10 Raleigh is located in the area Raleigh, USA (America), and the colocation data center is  carrier neutral. The data center was last updated on 08-10-2009.",Peak 10 Raleigh,USA,North Carolina,27560,Morrisville,Peak 10 Raleigh,"Peak 10, Inc."
"
	Peak 10 Nashville is located in the area Nashville, USA (America), and the colocation data center is  carrier neutral. The data center was last updated on 10-02-2011.",Peak 10 Nashville,USA,Tennessee,37027,Brentwood,Peak 10 Nashville,"Peak 10, Inc."
"
	Peak 10 Charlotte is located in the area Charlotte, USA (America), and the colocation data center is  carrier neutral. The data center was last updated on 08-10-2009.",Peak 10 Charlotte,USA,North Carolina,28273,Charlotte,Peak 10 Charlotte,"Peak 10, Inc."
"
	Peak 10 Jacksonville is located in the area Jacksonville, USA (America), and the colocation data center is  carrier neutral. The data center was last updated on 08-10-2009.",Peak 10 Jacksonville,USA,Florida,32256,Jacksonville,Peak 10 Jacksonville,"Peak 10, Inc."
"
	Peak 10 Cincinnati is located in the area Cincinnati, USA (America), and the colocation data center is  carrier neutral. The data center was last updated on 08-10-2009.",Peak 10 Cincinnati,USA,Ohio,45011,Hamilton,Peak 10 Cincinnati,"Peak 10, Inc."
"
	Nap of the Americas is located in the area Miami, USA (America), and the colocation data center is  carrier neutral. The data center was last updated on 08-10-2007.",Nap of the Americas,USA,Florida,33132,Miami,Nap of the Americas,"Terremark Worldwide, Inc."
"
	NAP West is located in the area Santa Clara, USA (America), and the colocation data center is  carrier neutral. The data center was last updated on 13-10-2007.",NAP West,USA,California,95051,Santa Clara,NAP West,"Terremark Worldwide, Inc."
"
	PIPE Networks Hobart is located in the area Hobart (Tasmania), Australia, and the colocation data center is  carrier neutral. The data center was last updated on 13-10-2007.",PIPE Networks Hobart,Australia,Tasmania,TA 7000,Hobart,PIPE Networks Hobart,PIPE Networks Limited
"
	PIPE Networks Brisbane is located in the area Brisbane (Queensland), Australia, and the colocation data center is  carrier neutral. The data center was last updated on 13-10-2007.",PIPE Networks Brisbane,Australia,Queensland,QL 4000,Brisbane,PIPE Networks Brisbane,PIPE Networks Limited
"
	PIPE Networks Adelaide is located in the area Adelaide (South Australia), Australia, and the colocation data center is  carrier neutral. The data center was last updated on 13-10-2007.",PIPE Networks Adelaide,Australia,South Australia,SA 5000,Adelaide,PIPE Networks Adelaide,PIPE Networks Limited
"
	PIPE Networks Sydney is located in the area Sydney (New South Wales), Australia, and the colocation data center is  carrier neutral. The data center was last updated on 13-10-2007.",PIPE Networks Sydney,Australia,New South Wales,NS 2000,Sydney,PIPE Networks Sydney,PIPE Networks Limited
"
	GlobalConnect Hørskætten is located in the area Copenhagen (København), Denmark (Danmark), and the colocation data center is  carrier neutral. The data center was last updated on 19-04-2009.",GlobalConnect Hørskætten,Denmark,,2630,Taastrup,GlobalConnect Hørskætten,GlobalConnect A/S
"
	The Globe Building is located in the area St. Louis, USA (America).",The Globe Building,,,,,,
"
	GlobalConnect København is located in the area Copenhagen (København), Denmark (Danmark), and the colocation data center is  carrier neutral. The data center was last updated on 20-02-2008.",GlobalConnect København,Denmark,,1620,Copenhagen V,GlobalConnect København,GlobalConnect A/S
"
	GlobalConnect Hamburg #2 is located in the area Hamburg, Germany (Deutschland), and the colocation data center is  carrier neutral. The data center was last updated on 20-02-2008.",GlobalConnect Hamburg #2,Germany,,20537,Hamburg,GlobalConnect Hamburg #2,GlobalConnect A/S
"
	GlobalConnect Kolding is located in the area Kolding, Denmark (Danmark), and the colocation data center is  carrier neutral. The data center was last updated on 28-08-2007.",GlobalConnect Kolding,Denmark,,6000,Kolding,GlobalConnect Kolding,GlobalConnect A/S
"
	GlobalConnect Hamburg is located in the area Hamburg, Germany (Deutschland), and the colocation data center is  carrier neutral. The data center was last updated on 06-10-2007.",GlobalConnect Hamburg,Germany,,22335,Hamburg,GlobalConnect Hamburg,GlobalConnect A/S
"
	KPN Nossegem is located in the area Nossegem, Belgium, and the colocation data center is  carrier neutral. The data center was last updated on 13-10-2007.",KPN Nossegem,Belgium,,1930,Nossegem,KPN Nossegem,Koninklijke KPN N.V
"
	KPN Gent is located in the area Gent (Ghent), Belgium, and the colocation data center is  carrier neutral. The data center was last updated on 13-10-2007.",KPN Gent,Belgium,,9000,Gent,KPN Gent,Koninklijke KPN N.V
"
	Versatel Berlin is located in the area Berlin, Germany (Deutschland), and the colocation data center is  carrier neutral. The data center was last updated on 13-10-2007.",Versatel Berlin,Germany,,12347,Berlin,Versatel Berlin,Versatel AG
"
	Versatel Gyroscoopweg is located in the area Amsterdam, The Netherlands (Holland), and the colocation data center is  carrier neutral. The data center was last updated on 24-03-2008.",Versatel Gyroscoopweg,The Netherlands,,1042 AZ,Amsterdam,Versatel Gyroscoopweg,Versatel AG
"
	QTS Atlanta is located in the area Atlanta, USA (America), and the colocation data center is  carrier neutral. The data center was last updated on 04-10-2010.",QTS Atlanta,USA,Georgia,30319,Atlanta,QTS Atlanta,QTS (Quality Technology Services)
"
	QTS Suwanee is located in the area Atlanta, USA (America), and the colocation data center is  carrier neutral. The data center was last updated on 04-10-2010.",QTS Suwanee,USA,Georgia,30024,Suwanee,QTS Suwanee,QTS (Quality Technology Services)
"
	SFR Netcenter Courbevoie is located in the area Paris, France (Française), and the colocation data center is  carrier neutral. The data center was last updated on 17-08-2010.",SFR Netcenter Courbevoie,France,,92400,Courbevoie,SFR Netcenter Courbevoie,"SFR,SA"
"
	SFR Netcenter Bordeaux is located in the area Bordeaux, France (Française), and the colocation data center is  carrier neutral. The data center was last updated on 17-08-2010.",SFR Netcenter Bordeaux,France,,33000,Bordeaux,SFR Netcenter Bordeaux,"SFR,SA"
"
	SFR Netcenter Strasbourg is located in the area Strasbourg, France (Française), and the colocation data center is  carrier neutral. The data center was last updated on 17-08-2010.",SFR Netcenter Strasbourg,France,,67000,Strasbourg,SFR Netcenter Strasbourg,"SFR,SA"
"
	Berget Boras is located in the area Boras (Borås), Sweden (Sverige), and the colocation data center is  carrier neutral. The data center was last updated on 13-10-2007.",Berget Boras,Sweden,,?,Boras,Berget Boras,Borås Elnät AB
"
	internet solutions Johannesburg is located in the area Johannesburg (Jozi), South Africa, and the colocation data center is not  carrier neutral. The data center was last updated on 01-08-2007.",internet solutions Johannesburg,South Africa,,2010,Bryanston,internet solutions Johannesburg,Internet Solutions
"
	AirWorld Technology Center is located in the area Kansas City MO, USA (America), and the colocation data center is not  carrier neutral. The data center was last updated on 19-10-2007.",AirWorld Technology Center,USA,Missouri,64153,Kansas City,AirWorld Technology Center,"GreenSoft Solutions, Inc."
"
	Polaris is located in the area Brisbane (Queensland), Australia, and the colocation data center is  carrier neutral. The data center was last updated on 30-12-2008.",Polaris,Australia,,4300,Brisbane,Polaris,Springfield Land Corporation
"
	Siminn Hostingcenter is located in the area Copenhagen (København), Denmark (Danmark), and the colocation data center is not  carrier neutral. The data center was last updated on 01-08-2007.",Siminn Hostingcenter,Denmark,,2100,Copenhagen E,Siminn Hostingcenter,Siminn Danmark A/S
"
	TTIDC Ankara is located in the area Ankara, Turkey (Türkiye), and the colocation data center is not  carrier neutral. The data center was last updated on 20-11-2008.",TTIDC Ankara,Turkey,,06530,Ankara,TTIDC Ankara,Türk Telekom IDC
"
	UNI-C is located in the area Copenhagen (København), Denmark (Danmark), and the colocation data center is  carrier neutral. The data center was last updated on 01-08-2007.",UNI-C,Denmark,,2800,Lyngby,,UNI-C
"
	SoftLayer - HOU00 is located in the area Houston, USA (America), and the colocation data center is not  carrier neutral. The data center was last updated on 02-03-2012.",SoftLayer - HOU00,USA,Texas,77002,Houston,SoftLayer - HOU00,SoftLayer
"
	SoftLayer - DAL02/06 is located in the area Dallas, USA (America), and the colocation data center is  carrier neutral. The data center was last updated on 02-03-2012.",SoftLayer - DAL02/06,USA,Texas,75207,Dallas,SoftLayer - DAL02/06,SoftLayer
"
	Vancis B.V. is located in the area Amsterdam, The Netherlands (Holland), and the colocation data center is  carrier neutral. The data center was last updated on 18-09-2014.",Vancis B.V.,The Netherlands,,1098 XH,Amsterdam,,Vancis B.V.
"
	TTC Teleport telehouse is located in the area Prague, Czech Republic, and the colocation data center is  carrier neutral. The data center was last updated on 12-03-2008.",TTC Teleport telehouse,Czech Republic,,11000,Prague,TTC Teleport telehouse,TTC Telekomunikaca Ltd.
"
	Pragonet Telehouse Prague is located in the area Prague, Czech Republic, and the colocation data center is  carrier neutral. The data center was last updated on 13-10-2007.",Pragonet Telehouse Prague,Czech Republic,,14000,Prague,Pragonet Telehouse Prague,T-Systems Enterprise Services GmbH
"
	Vancis B.V. (Almere) is located in the area Almere, The Netherlands (Holland), and the colocation data center is  carrier neutral. The data center was last updated on 18-09-2014.",Vancis B.V. (Almere),The Netherlands,,1316 BM,Almere,Vancis B.V. (Almere),Vancis B.V.
"
	Miami Data Vault is located in the area Miami, USA (America), and the colocation data center is  carrier neutral. The data center was last updated on 08-10-2007.",Miami Data Vault,USA,Florida,33138,Miami,,Miami Data Vault
"
	INTERNIC Frankfurt is located in the area Frankfurt (Frankfurt am Main), Germany (Deutschland), and the colocation data center is  carrier neutral. The data center was last updated on 13-10-2007.",INTERNIC Frankfurt,Germany,,60329,Frankfurt,INTERNIC Frankfurt,INTERNET AG Global Network
"
	Capgemini is located in the area Amsterdam, The Netherlands (Holland), and the colocation data center is  carrier neutral. The data center was last updated on 31-12-2008.",Capgemini,The Netherlands,,1013 BE,Amsterdam,Capgemini,Capgemini Service SAS
"
	Digital Crossing Networks is located in the area Knoxville, USA (America), and the colocation data center is  carrier neutral. The data center was last updated on 19-08-2010.",Digital Crossing Networks,USA,Tennessee,37902,Knoxville,Digital Crossing Networks,Digital Crossing Network
"
	55 Marietta Street is located in the area Atlanta, USA (America).",55 Marietta Street,,,,,,
"
	Briad Financial Center is located in the area New York, USA (America).",Briad Financial Center,,,,,,
"
	Intergate.West is located in the area Seattle, USA (America).",Intergate.West,,,,,,
"
	60 Hudson Street is located in the area New York, USA (America).",60 Hudson Street,,,,,,
"
	Quinby Building is located in the area Los Angeles, USA (America).",Quinby Building,,,,,,
"
	The Garland Building is located in the area Los Angeles, USA (America).",The Garland Building,,,,,,
"
	Harbour Centre Vancouver is located in the area Vancouver, Canada.",Harbour Centre Vancouver,,,,,,
"
	Allegheny Center Mall is located in the area Pittsburgh, USA (America).",Allegheny Center Mall,,,,,,
"
	Town Pavilion is located in the area Kansas City MO, USA (America).",Town Pavilion,,,,,,
"
	1301 Fannin is located in the area Houston, USA (America).",1301 Fannin,,,,,,
"
	Equinix FR5 is located in the area Frankfurt (Frankfurt am Main), Germany (Deutschland), and the colocation data center is  carrier neutral. The data center was last updated on 13-01-2014.",Equinix FR5,Germany,,60326,Frankfurt,Equinix FR5,"Equinix, Inc"
"
	Telecom Center LA is located in the area Los Angeles, USA (America).",Telecom Center LA,,,,,,
"
	Infomart Silicon Valley is located in the area San Jose, USA (America), and the colocation data center is  carrier neutral. The data center was last updated on 27-10-2016.",Infomart Silicon Valley,USA,California,95131,San Jose,Infomart Silicon Valley,Infomart Data Centers
"
	Infomart Portland is located in the area Portland, USA (America), and the colocation data center is  carrier neutral. The data center was last updated on 27-10-2016.",Infomart Portland,USA,Oregon,97124,Hillsboro,Infomart Portland,Infomart Data Centers
"
	City Center Square is located in the area Kansas City MO, USA (America).",City Center Square,,,,,,
"
	165 Halsey Street is located in the area Newark, USA (America).",165 Halsey Street,,,,,,
"
	Algar Tech is located in the area Uberlandia (Uberlândia), Brazil (Brasil), and the colocation data center is  carrier neutral. The data center was last updated on 19-03-2015.",Algar Tech,Brazil,Minas Gerais,38405184,Uberlandia,,Algar Tech
"
	Telefonica KeyCenter is located in the area Miami, USA (America), and the colocation data center is  carrier neutral. The data center was last updated on 08-10-2007.",Telefonica KeyCenter,USA,Florida,33172,Miami,Telefonica KeyCenter,Telefónica S.A.
"
	EdgeConneX Santa Clara-EDCSVC02 is located in the area Santa Clara, USA (America), and the colocation data center is  carrier neutral. The data center was last updated on 26-07-2016.",EdgeConneX Santa Clara-EDCSVC02,USA,California,95050,Santa Clara,EdgeConneX Santa Clara-EDCSVC02,EdgeConneX
"
	One Summer St. is located in the area Boston, USA (America), and the colocation data center is  carrier neutral. The data center was last updated on 19-12-2011.",One Summer St.,USA,Massachusetts,02110,Boston,One Summer St.,Markley Group LLC.
"
	The Westin Building is located in the area Seattle, USA (America).",The Westin Building,,,,,,
"
	SVCOLO Sunnyvale is located in the area San Jose, USA (America), and the colocation data center is  carrier neutral. The data center was last updated on 13-10-2007.",SVCOLO Sunnyvale,USA,California,94089,Sunnyvale,SVCOLO Sunnyvale,"Silicon Valley Colocation, Inc."
"
	75 Broad Street is located in the area New York, USA (America).",75 Broad Street,,,,,,
"
	Jersey Internet Data Center is located in the area Hudson County, USA (America), and the colocation data center is  carrier neutral. The data center was last updated on 05-10-2007.",Jersey Internet Data Center,USA,New Jersey,07310,Jersey City,Jersey Internet Data Center,Cinedigm Digital Cinema Corp.
"
	Cable & Wireless Munich is located in the area Munich (Münich), Germany (Deutschland), and the colocation data center is  carrier neutral. The data center was last updated on 06-10-2007.",Cable & Wireless Munich,Germany,,80687,München,Cable & Wireless Munich,Cable and Wireless plc.
"
	AT&T Secaucus is located in the area New York, USA (America), and the colocation data center is  carrier neutral. The data center was last updated on 13-10-2007.",AT&T Secaucus,USA,New York,07094,Secaucus,AT&T Secaucus,AT&T Inc.
"
	210 N Tucker is located in the area St. Louis, USA (America), and the colocation data center is  carrier neutral. The data center was last updated on 22-09-2011.",210 N Tucker,USA,Missouri,63101,St. Louis,210 N Tucker,Netrality Properties
"
	900 Walnut is located in the area St. Louis, USA (America), and the colocation data center is  carrier neutral. The data center was last updated on 22-09-2011.",900 Walnut,USA,Missouri,63101,St. Louis,900 Walnut,Netrality Properties
"
	Web World Ireland is located in the area Dublin, Ireland (Éire), and the colocation data center is not  carrier neutral. The data center was last updated on 30-03-2009.",Web World Ireland,Ireland,,D24,Dublin,Web World Ireland,Sternforth Limited t/a Web World
"
	iAdvantage (JUMBO-iAdvantage) is located in the area Tsuen Wan, Hong Kong (Hong Kong, SAR of China), and the colocation data center is  carrier neutral. The data center was last updated on 11-02-2015.",iAdvantage (JUMBO-iAdvantage),Hong Kong,,?,"Tsuen Wan, New Territories",iAdvantage (JUMBO-iAdvantage),iAdvantage Limited
"
	iAdvantage (MEGA-iAdvantage) is located in the area Hong Kong, Hong Kong (Hong Kong, SAR of China), and the colocation data center is  carrier neutral. The data center was last updated on 10-02-2015.",iAdvantage (MEGA-iAdvantage),Hong Kong,,?,Chai Wan,iAdvantage (MEGA-iAdvantage),iAdvantage Limited
"
	Dallas Data Center is located in the area Dallas, USA (America), and the colocation data center is not  carrier neutral. The data center was last updated on 27-04-2011.",Dallas Data Center,USA,Texas,75251,Dallas,,Dallas Data Center
"
	4u Sheffield North is located in the area Sheffield, United Kingdom (UK), and the colocation data center is not  carrier neutral. The data center was last updated on 07-11-2016.",4u Sheffield North,United Kingdom,South Yorkshire,S6 2FH,Sheffield,4u Sheffield North,4u Data Centres
"
	CtrlS Datacenters is located in the area New Delhi, India, and the colocation data center is  carrier neutral. The data center was last updated on 20-12-2016.",CtrlS Datacenters,India,New Delhi,201313,New Delhi,CtrlS Datacenters,CtrlS
"
	Citadel100 Dublin is located in the area Dublin, Ireland (Éire), and the colocation data center is  carrier neutral. The data center was last updated on 18-12-2013.",Citadel100 Dublin,Ireland,,24,Dublin,Citadel100 Dublin,Keppel Data Centres
"
	Cyber Cast Intl is located in the area Panama City, Panama, and the colocation data center is  carrier neutral. The data center was last updated on 22-09-2007.",Cyber Cast Intl,Panama,,6-3783,El Dorado,Cyber Cast Intl,"Cyber Cast International, S.A."
"
	Global Crossing Joop is located in the area Amsterdam, The Netherlands (Holland), and the colocation data center is  carrier neutral. The data center was last updated on 13-10-2007.",Global Crossing Joop,The Netherlands,,?,Amsterdam,Global Crossing Joop,Global Crossing Limited
"
	Global Crossing is located in the area Phoenix, USA (America), and the colocation data center is not  carrier neutral. The data center was last updated on 28-12-2007.",Global Crossing,USA,Arizona,85034,Phoenix,Global Crossing,Global Crossing Limited
"
	TierPoint Raleigh-Cary is located in the area Raleigh, USA (America), and the colocation data center is  carrier neutral. The data center was last updated on 23-02-2017.",TierPoint Raleigh-Cary,USA,North Carolina,27518,Cary,TierPoint Raleigh-Cary,TierPoint
"
	Global Crossing London Datacenter 1 is located in the area London, United Kingdom (UK), and the colocation data center is  carrier neutral. The data center was last updated on 19-12-2008.",Global Crossing London Datacenter 1,United Kingdom,,E14 9YY,London,Global Crossing London Datacenter 1,Global Crossing Limited
"
	TierPoint Raleigh is located in the area Raleigh, USA (America), and the colocation data center is  carrier neutral. The data center was last updated on 23-02-2017.",TierPoint Raleigh,USA,North Carolina,27615,Raleigh,TierPoint Raleigh,TierPoint
"
	TierPoint Boston-Charleston is located in the area Boston, USA (America), and the colocation data center is  carrier neutral. The data center was last updated on 23-02-2017.",TierPoint Boston-Charleston,USA,Massachusetts,02129,Boston,TierPoint Boston-Charleston,TierPoint
"
	Inflow Atlanta is located in the area Atlanta, USA (America), and the colocation data center is not  carrier neutral. The data center was last updated on 20-11-2007.",Inflow Atlanta,USA,Georgia,30309,Atlanta,Inflow Atlanta,Sungard Availability Services
"
	Peer 1 Toronto is located in the area Toronto, Canada, and the colocation data center is  carrier neutral. The data center was last updated on 05-10-2007.",Peer 1 Toronto,Canada,Ontario,M5E 1E5,Toronto,Peer 1 Toronto,Cogeco Peer 1
"
	VeriCenter Richardson is located in the area Dallas, USA (America), and the colocation data center is  carrier neutral. The data center was last updated on 08-10-2007.",VeriCenter Richardson,USA,Texas,75081,Richardson,VeriCenter Richardson,Sungard Availability Services
"
	Peer 1 Vancouver, Spencer Building is located in the area Vancouver, Canada, and the colocation data center is  carrier neutral. The data center was last updated on 05-10-2007.","Peer 1 Vancouver, Spencer Building",Canada,British Columbia,V6B 4N5,Vancouver,"Peer 1 Vancouver, Spencer Building",Cogeco Peer 1
"
	Eastgate is located in the area Bellevue, USA (America), and the colocation data center is not  carrier neutral. The data center was last updated on 17-04-2008.",Eastgate,USA,Washington,98007,Bellevue,Eastgate,"ISOMEDIA, Inc."
"
	VeriCenter Houston is located in the area Houston, USA (America), and the colocation data center is  carrier neutral. The data center was last updated on 08-10-2007.",VeriCenter Houston,USA,Texas,77060,Houston,VeriCenter Houston,Sungard Availability Services
"
	Overlake business Center is located in the area Seattle, USA (America), and the colocation data center is not  carrier neutral. The data center was last updated on 17-04-2008.",Overlake business Center,USA,Washington,98052,Redmond,Overlake business Center,"ISOMEDIA, Inc."
"
	NewColo Frankfurt is located in the area Frankfurt (Frankfurt am Main), Germany (Deutschland), and the colocation data center is  carrier neutral. The data center was last updated on 13-10-2007.",NewColo Frankfurt,Germany,,60326,Frankfurt,NewColo Frankfurt,NewColo GmbH
"
	US Signal Southfield is located in the area Detroit, USA (America), and the colocation data center is  carrier neutral. The data center was last updated on 02-12-2013.",US Signal Southfield,USA,Michigan,48075,Southfield,US Signal Southfield,"US Signal Company, LLC"
"
	Data Hotel Groningen is located in the area Groningen, The Netherlands (Holland), and the colocation data center is  carrier neutral. The data center was last updated on 12-09-2012.",Data Hotel Groningen,The Netherlands,,9747AA,Groningen,Data Hotel Groningen,TCN
"
	US Signal Oak Brook is located in the area Chicago, USA (America), and the colocation data center is  carrier neutral. The data center was last updated on 02-12-2013.",US Signal Oak Brook,USA,Illinois,60523,Oak Brook,US Signal Oak Brook,"US Signal Company, LLC"
"
	Hurricane Fremont 2 is located in the area Fremont, USA (America), and the colocation data center is  carrier neutral. The data center was last updated on 05-10-2007.",Hurricane Fremont 2,USA,California,94539,Fremont,Hurricane Fremont 2,Hurricane Electric
"
	Entanet HQ is located in the area Shropshire, United Kingdom (UK), and the colocation data center is not  carrier neutral. The data center was last updated on 24-06-2008.",Entanet HQ,United Kingdom,,TF3 3AT,Telford,Entanet HQ,Entanet International Ltd
"
	Hurricane Fremont 1 is located in the area Fremont, USA (America), and the colocation data center is  carrier neutral. The data center was last updated on 05-10-2007.",Hurricane Fremont 1,USA,California,94539,Fremont,Hurricane Fremont 1,Hurricane Electric
"
	Easynet Brick Lane is located in the area London, United Kingdom (UK), and the colocation data center is not  carrier neutral. The data center was last updated on 08-12-2014.",Easynet Brick Lane,United Kingdom,,E1 6PU,London,Easynet Brick Lane,Easynet
"
	Easynet Schiphol Rikj is located in the area Schiphol-Rijk, The Netherlands (Holland), and the colocation data center is  carrier neutral. The data center was last updated on 08-12-2014.",Easynet Schiphol Rikj,The Netherlands,,1119 NR,Schiphol-Rijk,Easynet Schiphol Rikj,Easynet
"
	SITELPOP 1 is located in the area Bratislava, Slovakia (Slovak Republic), and the colocation data center is  carrier neutral. The data center was last updated on 18-12-2007.",SITELPOP 1,Slovakia,,85101,Bratislava,SITELPOP 1,SITEL s.r.o.
"
	SITEL Prague is located in the area Prague, Czech Republic, and the colocation data center is  carrier neutral. The data center was last updated on 13-10-2007.",SITEL Prague,Czech Republic,,10600,Prague,SITEL Prague,"SITEL, spol. s r.o."
"
	SITELPOP 2 is located in the area Bratislava, Slovakia (Slovak Republic), and the colocation data center is  carrier neutral. The data center was last updated on 18-12-2007.",SITELPOP 2,Slovakia,,85101,Bratislava,SITELPOP 2,SITEL s.r.o.
"
	Cogent Antibes is located in the area Antibes, France (Française), and the colocation data center is  carrier neutral. The data center was last updated on 27-01-2012.",Cogent Antibes,France,,6560,Antibes,Cogent Antibes,"Cogent Communications, Inc."
"
	Cogent Grenoble is located in the area Grenoble, France (Française), and the colocation data center is not  carrier neutral. The data center was last updated on 27-01-2012.",Cogent Grenoble,France,,38000,Grenoble,Cogent Grenoble,"Cogent Communications, Inc."
"
	Cogent Rennes is located in the area Rennes, France (Française), and the colocation data center is not  carrier neutral. The data center was last updated on 07-10-2007.",Cogent Rennes,France,,35000,Rennes,Cogent Rennes,"Cogent Communications, Inc."
"
	Cogent Dijon is located in the area Dijon, France (Française), and the colocation data center is not  carrier neutral. The data center was last updated on 27-01-2012.",Cogent Dijon,France,,21000,Dijon,Cogent Dijon,"Cogent Communications, Inc."
"
	Cogent Columbus is located in the area Columbus, USA (America), and the colocation data center is  carrier neutral. The data center was last updated on 27-01-2012.",Cogent Columbus,USA,Ohio,43215,Columbus,Cogent Columbus,"Cogent Communications, Inc."
"
	Cogent Detroit is located in the area Detroit, USA (America), and the colocation data center is  carrier neutral. The data center was last updated on 30-07-2012.",Cogent Detroit,USA,Michigan,48084,Troy,Cogent Detroit,"Cogent Communications, Inc."
"
	Cogent Washington, DC 1 is located in the area Vienna Virginia, USA (America), and the colocation data center is not  carrier neutral. The data center was last updated on 30-07-2012.","Cogent Washington, DC 1",USA,Virginia,22182,Vienna,"Cogent Washington, DC 1","Cogent Communications, Inc."
"
	Cogent Bordeaux is located in the area Bordeaux, France (Française), and the colocation data center is not  carrier neutral. The data center was last updated on 27-01-2012.",Cogent Bordeaux,France,,33000,Bordeaux,Cogent Bordeaux,"Cogent Communications, Inc."
"
	Cogent Paris 2 is located in the area Paris, France (Française), and the colocation data center is  carrier neutral. The data center was last updated on 30-07-2012.",Cogent Paris 2,France,,92250,Le Garenne Colombes,Cogent Paris 2,"Cogent Communications, Inc."
"
	Cogent Lille is located in the area Lille, France (Française), and the colocation data center is not  carrier neutral. The data center was last updated on 27-01-2012.",Cogent Lille,France,,59000,Lille,Cogent Lille,"Cogent Communications, Inc."
"
	Cogent Herndon is located in the area Reston, USA (America), and the colocation data center is  carrier neutral. The data center was last updated on 30-07-2012.",Cogent Herndon,USA,Virginia,20170,Herndon,Cogent Herndon,"Cogent Communications, Inc."
"
	Cogent Toulouse is located in the area Toulouse, France (Française), and the colocation data center is not  carrier neutral. The data center was last updated on 27-01-2012.",Cogent Toulouse,France,,31000,Toulouse,Cogent Toulouse,"Cogent Communications, Inc."
"
	Cogent Tours is located in the area Tours, France (Française), and the colocation data center is not  carrier neutral. The data center was last updated on 27-01-2012.",Cogent Tours,France,,37000,Tours,Cogent Tours,"Cogent Communications, Inc."
"
	Cogent Strasbourg is located in the area Strasbourg, France (Française), and the colocation data center is not  carrier neutral. The data center was last updated on 27-01-2012.",Cogent Strasbourg,France,,67300,Schiltigheim,Cogent Strasbourg,"Cogent Communications, Inc."
"
	Cogent Rouen is located in the area Rouen, France (Française), and the colocation data center is not  carrier neutral. The data center was last updated on 27-01-2012.",Cogent Rouen,France,,76000,Rouen,Cogent Rouen,"Cogent Communications, Inc."
"
	Cogent Nice is located in the area Nice, France (Française), and the colocation data center is not  carrier neutral. The data center was last updated on 27-01-2012.",Cogent Nice,France,,6000,Nice,Cogent Nice,"Cogent Communications, Inc."
"
	Cogent Poitiers is located in the area Poitiers, France (Française), and the colocation data center is not  carrier neutral. The data center was last updated on 27-01-2012.",Cogent Poitiers,France,,86000,Poitiers,Cogent Poitiers,"Cogent Communications, Inc."
"
	Cogent Montpellier is located in the area Montpellier, France (Française), and the colocation data center is not  carrier neutral. The data center was last updated on 30-07-2012.",Cogent Montpellier,France,,34000,Montpellier,Cogent Montpellier,"Cogent Communications, Inc."
"
	Cogent Nantes is located in the area Nantes, France (Française), and the colocation data center is not  carrier neutral. The data center was last updated on 27-01-2012.",Cogent Nantes,France,,44000,Nantes,Cogent Nantes,"Cogent Communications, Inc."
"
	XO Austin #2 is located in the area Austin, USA (America), and the colocation data center is  carrier neutral. The data center was last updated on 07-10-2007.",XO Austin #2,USA,Texas,78758,Austin,XO Austin #2,XO Communications
"
	XO Chicago is located in the area Chicago, USA (America), and the colocation data center is  carrier neutral. The data center was last updated on 21-07-2014.",XO Chicago,USA,Illinois,60603,Chicago,XO Chicago,XO Communications
"
	XO Atlanta is located in the area Atlanta, USA (America), and the colocation data center is  carrier neutral. The data center was last updated on 18-07-2014.",XO Atlanta,USA,Georgia,30082,Smyrna,XO Atlanta,XO Communications
"
	XO Austin is located in the area Austin, USA (America), and the colocation data center is  carrier neutral. The data center was last updated on 21-07-2014.",XO Austin,USA,Texas,78704,Austin,XO Austin,XO Communications
"
	XO Baltimore is located in the area Baltimore, USA (America), and the colocation data center is  carrier neutral. The data center was last updated on 21-07-2014.",XO Baltimore,USA,Maryland,21201,Baltimore,XO Baltimore,XO Communications
"
	XO Boston is located in the area Boston, USA (America), and the colocation data center is  carrier neutral. The data center was last updated on 07-10-2007.",XO Boston,USA,Massachusetts,02210,Boston,XO Boston,XO Communications
"
	XO San Francisco #2 is located in the area San Francisco, USA (America), and the colocation data center is  carrier neutral. The data center was last updated on 21-07-2014.",XO San Francisco #2,USA,California,94107,San Francisco,XO San Francisco #2,XO Communications
"
	XO Boston #2 is located in the area Boston, USA (America), and the colocation data center is  carrier neutral. The data center was last updated on 21-07-2014.",XO Boston #2,USA,Massachusetts,02141,Cambridge,XO Boston #2,XO Communications
"
	XO Seattle is located in the area Seattle, USA (America), and the colocation data center is  carrier neutral. The data center was last updated on 21-07-2014.",XO Seattle,USA,Washington,98101,Seattle,XO Seattle,XO Communications
"
	XO Santa Ana is located in the area Santa Ana, USA (America), and the colocation data center is  carrier neutral. The data center was last updated on 21-07-2014.",XO Santa Ana,USA,California,92705,Santa Ana,XO Santa Ana,XO Communications
"
	XO Tampa is located in the area Tampa, USA (America), and the colocation data center is  carrier neutral. The data center was last updated on 22-07-2014.",XO Tampa,USA,Florida,33610,Tampa,XO Tampa,XO Communications
"
	XO St. Louis #2 is located in the area St. Louis, USA (America), and the colocation data center is  carrier neutral. The data center was last updated on 21-07-2014.",XO St. Louis #2,USA,Missouri,63146,Maryland Heights,XO St. Louis #2,XO Communications
"
	XO Washington DC #2 is located in the area Washington D.C., USA (America), and the colocation data center is  carrier neutral. The data center was last updated on 21-07-2014.",XO Washington DC #2,USA,District of Columbia,20008,Washington D.C.,XO Washington DC #2,XO Communications
"
	XO Weehawken is located in the area Hudson County, USA (America), and the colocation data center is  carrier neutral. The data center was last updated on 21-07-2014.",XO Weehawken,USA,New Jersey,7094,Secaucus,XO Weehawken,XO Communications
"
	XO Portland #2 is located in the area Portland, USA (America), and the colocation data center is  carrier neutral. The data center was last updated on 21-07-2014.",XO Portland #2,USA,Oregon,97008,Beaverton,XO Portland #2,XO Communications
"
	XO San Antonio is located in the area San Antonio, USA (America), and the colocation data center is  carrier neutral. The data center was last updated on 21-07-2014.",XO San Antonio,USA,Texas,78218,San Antonio,XO San Antonio,XO Communications
"
	XO Dallas is located in the area Dallas, USA (America), and the colocation data center is  carrier neutral. The data center was last updated on 21-07-2014.",XO Dallas,USA,Texas,75247,Dallas,XO Dallas,XO Communications
"
	XO Columbus is located in the area Columbus, USA (America), and the colocation data center is  carrier neutral. The data center was last updated on 21-07-2014.",XO Columbus,USA,Ohio,43085,Columbus,XO Columbus,XO Communications
"
	XO Detroit is located in the area Detroit, USA (America), and the colocation data center is  carrier neutral. The data center was last updated on 21-07-2014.",XO Detroit,USA,Michigan,48075,Southfield,XO Detroit,XO Communications
"
	XO Denver is located in the area Denver, USA (America), and the colocation data center is  carrier neutral. The data center was last updated on 21-07-2014.",XO Denver,USA,Colorado,80112,Englewood,XO Denver,XO Communications
"
	XO Detroit #2 is located in the area Detroit, USA (America), and the colocation data center is  carrier neutral. The data center was last updated on 21-07-2014.",XO Detroit #2,USA,Michigan,48075,Southfield,XO Detroit #2,XO Communications
"
	XO Houston is located in the area Houston, USA (America), and the colocation data center is  carrier neutral. The data center was last updated on 21-07-2014.",XO Houston,USA,Texas,77098,Houston,XO Houston,XO Communications
"
	XO Phoenix #2 is located in the area Phoenix, USA (America), and the colocation data center is  carrier neutral. The data center was last updated on 21-07-2014.",XO Phoenix #2,USA,Arizona,85034,Phoenix,XO Phoenix #2,XO Communications
"
	XO Miami is located in the area Miami, USA (America), and the colocation data center is  carrier neutral. The data center was last updated on 21-07-2014.",XO Miami,USA,Florida,33169,Miami,XO Miami,XO Communications
"
	XO Memphis is located in the area Memphis, USA (America), and the colocation data center is not  carrier neutral. The data center was last updated on 25-03-2008.",XO Memphis,USA,Tennessee,38117,Memphis,XO Memphis,XO Communications
"
	XO Portland is located in the area Portland, USA (America), and the colocation data center is  carrier neutral. The data center was last updated on 07-10-2007.",XO Portland,USA,Oregon,97223,Tigard,XO Portland,XO Communications
"
	Databarn Rivium B.V. is located in the area Rotterdam, The Netherlands (Holland), and the colocation data center is  carrier neutral. The data center was last updated on 20-01-2017.",Databarn Rivium B.V.,The Netherlands,Zuid-Holland,2909LK,Capelle aan den IJssel,Databarn Rivium B.V.,Databarn
"
	Databarn Amsterdam B.V. is located in the area Amsterdam, The Netherlands (Holland), and the colocation data center is  carrier neutral. The data center was last updated on 20-01-2017.",Databarn Amsterdam B.V.,The Netherlands,Noord-Holland,1014BV,Amsterdam,Databarn Amsterdam B.V.,Databarn
"
	Interoute Leipzig is located in the area Leipzig, Germany (Deutschland), and the colocation data center is not  carrier neutral. The data center was last updated on 24-07-2008.",Interoute Leipzig,Germany,,04103,Leipzig,Interoute Leipzig,Interoute Communications Ltd
"
	Interoute Narbonne is located in the area Narbonne, France (Française), and the colocation data center is not  carrier neutral. The data center was last updated on 24-07-2008.",Interoute Narbonne,France,,11120,St Marcel Sur Aude,Interoute Narbonne,Interoute Communications Ltd
"
	Interoute Bruges is located in the area Bruges (Brugge), Belgium, and the colocation data center is not  carrier neutral. The data center was last updated on 24-07-2008.",Interoute Bruges,Belgium,,8210,Zedelgem,Interoute Bruges,Interoute Communications Ltd
"
	Interoute Nuremberg is located in the area Nuremberg (Nürnberg), Germany (Deutschland), and the colocation data center is not  carrier neutral. The data center was last updated on 24-07-2008.",Interoute Nuremberg,Germany,,90431,Nuremberg,Interoute Nuremberg,Interoute Communications Ltd
"
	Interoute Poitiers is located in the area Poitiers, France (Française), and the colocation data center is not  carrier neutral. The data center was last updated on 24-07-2008.",Interoute Poitiers,France,,86021,Poitiers,Interoute Poitiers,Interoute Communications Ltd
"
	Interoute Nice is located in the area Nice, France (Française), and the colocation data center is not  carrier neutral. The data center was last updated on 24-07-2008.",Interoute Nice,France,,06200,Nice,Interoute Nice,Interoute Communications Ltd
"
	Interoute Toulouse is located in the area Toulouse, France (Française), and the colocation data center is not  carrier neutral. The data center was last updated on 24-07-2008.",Interoute Toulouse,France,,31000,Toulouse,Interoute Toulouse,Interoute Communications Ltd
"
	Interoute Marseille is located in the area Marseille, France (Française), and the colocation data center is not  carrier neutral. The data center was last updated on 24-07-2008.",Interoute Marseille,France,,13015,Marseille,Interoute Marseille,Interoute Communications Ltd
"
	Interoute Strasbourg is located in the area Strasbourg, France (Française), and the colocation data center is not  carrier neutral. The data center was last updated on 24-07-2008.",Interoute Strasbourg,France,,67100,Strasbourg,Interoute Strasbourg,Interoute Communications Ltd
"
	Interoute Venice is located in the area Venice (Venezia), Italy (Italia), and the colocation data center is not  carrier neutral. The data center was last updated on 24-07-2008.",Interoute Venice,Italy,,30170,Mestre,Interoute Venice,Interoute Communications Ltd
"
	Interoute Bonn is located in the area Bonn, Germany (Deutschland), and the colocation data center is not  carrier neutral. The data center was last updated on 24-07-2008.",Interoute Bonn,Germany,,53119,Bonn,Interoute Bonn,Interoute Communications Ltd
"
	Interoute Genova is located in the area Genova, Italy (Italia), and the colocation data center is not  carrier neutral. The data center was last updated on 24-07-2008.",Interoute Genova,Italy,,16153,Genova,Interoute Genova,Interoute Communications Ltd
"
	Interoute Florence is located in the area Florence (Firenze), Italy (Italia), and the colocation data center is not  carrier neutral. The data center was last updated on 24-07-2008.",Interoute Florence,Italy,,50019,Florence,Interoute Florence,Interoute Communications Ltd
"
	Interoute Utrecht is located in the area Utrecht, The Netherlands (Holland), and the colocation data center is not  carrier neutral. The data center was last updated on 24-07-2008.",Interoute Utrecht,The Netherlands,,3769,Soesterberg,Interoute Utrecht,Interoute Communications Ltd
"
	Interoute Udine is located in the area Udine, Italy (Italia), and the colocation data center is not  carrier neutral. The data center was last updated on 24-07-2008.",Interoute Udine,Italy,,33100,Udine,Interoute Udine,Interoute Communications Ltd
"
	Interoute Turin is located in the area Torino, Italy (Italia), and the colocation data center is not  carrier neutral. The data center was last updated on 24-07-2008.",Interoute Turin,Italy,,10156,Turin,Interoute Turin,Interoute Communications Ltd
"
	Interoute Pisa is located in the area Pisa, Italy (Italia), and the colocation data center is not  carrier neutral. The data center was last updated on 24-07-2008.",Interoute Pisa,Italy,,56121,Pisa,Interoute Pisa,Interoute Communications Ltd
"
	Interoute Rome is located in the area Rome (Roma), Italy (Italia), and the colocation data center is not  carrier neutral. The data center was last updated on 24-07-2008.",Interoute Rome,Italy,,00167,Rome,Interoute Rome,Interoute Communications Ltd
"
	Interoute Bari is located in the area Bari, Italy (Italia), and the colocation data center is not  carrier neutral. The data center was last updated on 24-07-2008.",Interoute Bari,Italy,,70126,Bari,Interoute Bari,Interoute Communications Ltd
"
	Interoute Bologna is located in the area Bologna, Italy (Italia), and the colocation data center is not  carrier neutral. The data center was last updated on 24-07-2008.",Interoute Bologna,Italy,,40128,Bologna,Interoute Bologna,Interoute Communications Ltd
"
	Interoute Vienna is located in the area Vienna (Wien), Austria (Österreich), and the colocation data center is not  carrier neutral. The data center was last updated on 24-07-2008.",Interoute Vienna,Austria,,1230,Vienna,Interoute Vienna,Interoute Communications Ltd
"
	Interoute Stuttgart is located in the area Stuttgart, Germany (Deutschland), and the colocation data center is not  carrier neutral. The data center was last updated on 24-07-2008.",Interoute Stuttgart,Germany,,70565,Stuttgart,Interoute Stuttgart,Interoute Communications Ltd
"
	Interoute Cologne is located in the area Cologne (Köln), Germany (Deutschland), and the colocation data center is not  carrier neutral. The data center was last updated on 24-07-2008.",Interoute Cologne,Germany,,50354,Hurth,Interoute Cologne,Interoute Communications Ltd
"
	Interoute Brussels is located in the area Brussels (Bruxelles), Belgium, and the colocation data center is not  carrier neutral. The data center was last updated on 24-07-2008.",Interoute Brussels,Belgium,,1930,Zaventem,Interoute Brussels,Interoute Communications Ltd
"
	Interoute Gent is located in the area Gent (Ghent), Belgium, and the colocation data center is  carrier neutral. The data center was last updated on 16-07-2008.",Interoute Gent,Belgium,,9820,Merelbeke,Interoute Gent,Interoute Communications Ltd
"
	Interoute Calais is located in the area Calais, France (Française), and the colocation data center is not  carrier neutral. The data center was last updated on 24-07-2008.",Interoute Calais,France,,62331,Coquelles,Interoute Calais,Interoute Communications Ltd
"
	Interoute Barcelona is located in the area Barcelona, Spain (España), and the colocation data center is not  carrier neutral. The data center was last updated on 24-07-2008.",Interoute Barcelona,Spain,,08001,Cerdanyola del Valles,Interoute Barcelona,Interoute Communications Ltd
"
	Interoute Paris is located in the area Paris, France (Française), and the colocation data center is not  carrier neutral. The data center was last updated on 11-07-2008.",Interoute Paris,France,,93300,Aubervilliers,Interoute Paris,Interoute Communications Ltd
"
	Interoute Bordeaux is located in the area Bordeaux, France (Française), and the colocation data center is not  carrier neutral. The data center was last updated on 24-07-2008.",Interoute Bordeaux,France,,33140,Villenave d'Ornon,Interoute Bordeaux,Interoute Communications Ltd
"
	Interoute Amsterdam is located in the area Amsterdam, The Netherlands (Holland), and the colocation data center is not  carrier neutral. The data center was last updated on 24-03-2008.",Interoute Amsterdam,The Netherlands,,1119 NR,Schiphol-Rijk,Interoute Amsterdam,Interoute Communications Ltd
"
	Interoute Milanese is located in the area Milan (Milano), Italy (Italia), and the colocation data center is not  carrier neutral. The data center was last updated on 24-07-2008.",Interoute Milanese,Italy,,20098,S Guiliano Milanese,Interoute Milanese,Interoute Communications Ltd
"
	Interoute Leiston is located in the area Leiston, United Kingdom (UK), and the colocation data center is not  carrier neutral. The data center was last updated on 25-07-2008.",Interoute Leiston,United Kingdom,,IP16 4L,Leiston,Interoute Leiston,Interoute Communications Ltd
"
	Interoute Munich is located in the area Munich (Münich), Germany (Deutschland), and the colocation data center is not  carrier neutral. The data center was last updated on 24-07-2008.",Interoute Munich,Germany,,80939,Munich,Interoute Munich,Interoute Communications Ltd
"
	Interoute Dortmund is located in the area Dortmund, Germany (Deutschland), and the colocation data center is not  carrier neutral. The data center was last updated on 24-07-2008.",Interoute Dortmund,Germany,,44269,Dortmund,Interoute Dortmund,Interoute Communications Ltd
"
	Interoute Lille is located in the area Lille, France (Française), and the colocation data center is not  carrier neutral. The data center was last updated on 24-07-2008.",Interoute Lille,France,,59320,Sequedin,Interoute Lille,Interoute Communications Ltd
"
	Interoute Garching is located in the area Munich (Münich), Germany (Deutschland), and the colocation data center is not  carrier neutral. The data center was last updated on 24-07-2008.",Interoute Garching,Germany,,85748,Garching,Interoute Garching,Interoute Communications Ltd
"
	Interoute Hamburg is located in the area Hamburg, Germany (Deutschland), and the colocation data center is not  carrier neutral. The data center was last updated on 24-07-2008.",Interoute Hamburg,Germany,,21079,Hamburg,Interoute Hamburg,Interoute Communications Ltd
"
	Interoute Geneva is located in the area Geneva (Genève), Switzerland (Schweiz), and the colocation data center is not  carrier neutral. The data center was last updated on 24-07-2008.",Interoute Geneva,Switzerland,,1217,Meyrin,Interoute Geneva,Interoute Communications Ltd
"
	Interoute Frankfurt is located in the area Frankfurt (Frankfurt am Main), Germany (Deutschland), and the colocation data center is not  carrier neutral. The data center was last updated on 24-07-2008.",Interoute Frankfurt,Germany,,60314,Frankfurt,Interoute Frankfurt,Interoute Communications Ltd
"
	Interoute Eschborn is located in the area Frankfurt (Frankfurt am Main), Germany (Deutschland), and the colocation data center is not  carrier neutral. The data center was last updated on 24-07-2008.",Interoute Eschborn,Germany,,65760,Eschborn,Interoute Eschborn,Interoute Communications Ltd
"
	Interoute Dusseldorf is located in the area Düsseldorf, Germany (Deutschland), and the colocation data center is not  carrier neutral. The data center was last updated on 24-07-2008.",Interoute Dusseldorf,Germany,,40721,Hilden,Interoute Dusseldorf,Interoute Communications Ltd
"
	Interoute Berlin is located in the area Berlin, Germany (Deutschland), and the colocation data center is not  carrier neutral. The data center was last updated on 24-07-2008.",Interoute Berlin,Germany,,14532,Kleinmachow,Interoute Berlin,Interoute Communications Ltd
"
	Interoute Bilbao is located in the area Bilbao, Spain (España), and the colocation data center is not  carrier neutral. The data center was last updated on 25-07-2008.",Interoute Bilbao,Spain,,48970,Basauri,Interoute Bilbao,Interoute Communications Ltd
"
	Interoute Mareuil sur Ay is located in the area Mareuil sur Ay, France (Française), and the colocation data center is not  carrier neutral. The data center was last updated on 25-07-2008.",Interoute Mareuil sur Ay,France,,51160,Mareuil sur Ay,Interoute Mareuil sur Ay,Interoute Communications Ltd
"
	Interoute Liege is located in the area Liege (Liège), Belgium, and the colocation data center is not  carrier neutral. The data center was last updated on 25-07-2008.",Interoute Liege,Belgium,,4000,Liege,Interoute Liege,Interoute Communications Ltd
"
	Interoute Stockholm is located in the area Stockholm, Sweden (Sverige), and the colocation data center is not  carrier neutral. The data center was last updated on 24-07-2008.",Interoute Stockholm,Sweden,,10451,Stockholm,Interoute Stockholm,Interoute Communications Ltd
"
	Interoute Valencia is located in the area Valencia, Spain (España), and the colocation data center is not  carrier neutral. The data center was last updated on 25-07-2008.",Interoute Valencia,Spain,,46190,Ribarroja del Turia,Interoute Valencia,Interoute Communications Ltd
