description,title,country,region,postal code,locality,extend address,name
"
	Level 3 Toronto is located in the area Toronto, Canada, and the colocation data center is  carrier neutral. The data center was last updated on 17-12-2014.",Level 3 Toronto,Canada,,M3C 1Z4,Toronto,Level 3 Toronto,Level 3 Communications
"
	Level 3 Tulsa 1 is located in the area Tulsa, USA (America), and the colocation data center is  carrier neutral. The data center was last updated on 17-12-2014.",Level 3 Tulsa 1,USA,Oklahoma,74103,Tulsa,Level 3 Tulsa 1,Level 3 Communications
"
	Level 3 Tucson is located in the area Tucson, USA (America), and the colocation data center is  carrier neutral. The data center was last updated on 17-12-2014.",Level 3 Tucson,USA,Arizona,85701,Tucson,Level 3 Tucson,Level 3 Communications
"
	Level 3 Tampa 3 is located in the area Tampa, USA (America), and the colocation data center is  carrier neutral. The data center was last updated on 17-12-2014.",Level 3 Tampa 3,USA,Florida,33605,Tampa,Level 3 Tampa 3,Level 3 Communications
"
	Interspace MK1 is located in the area Skopje, Macedonia (Republic of Macedonia), and the colocation data center is  carrier neutral. The data center was last updated on 23-12-2014.",Interspace MK1,Macedonia,,1000,Skopje,Interspace MK1,Interspace
"
	KT Mokdong 1st DC is located in the area Seoul, South Korea (Republic of Korea), and the colocation data center is not  carrier neutral. The data center was last updated on 02-01-2017.",KT Mokdong 1st DC,South Korea,,158-050,Seoul,KT Mokdong 1st DC,kt
"
	Wichita Data is located in the area Wichita, USA (America), and the colocation data center is not  carrier neutral. The data center was last updated on 24-12-2014.",Wichita Data,USA,Kansas,67202,Wichita,,Wichita Data
"
	Level 3 Stratford 1 is located in the area Stratford, USA (America), and the colocation data center is  carrier neutral. The data center was last updated on 17-12-2014.",Level 3 Stratford 1,USA,Texas,79084,Stratford,Level 3 Stratford 1,Level 3 Communications
"
	Level 3 Tallahassee is located in the area Tallahassee, USA (America), and the colocation data center is  carrier neutral. The data center was last updated on 17-12-2014.",Level 3 Tallahassee,USA,Florida,32304,Tallahassee,Level 3 Tallahassee,Level 3 Communications
"
	Level 3 Tallahassee 2 is located in the area Tallahassee, USA (America), and the colocation data center is  carrier neutral. The data center was last updated on 17-12-2014.",Level 3 Tallahassee 2,USA,Florida,32304,Tallahassee,Level 3 Tallahassee 2,Level 3 Communications
"
	Level 3 Tampa 2 is located in the area Tampa, USA (America), and the colocation data center is  carrier neutral. The data center was last updated on 17-12-2014.",Level 3 Tampa 2,USA,Florida,33610,Tampa,Level 3 Tampa 2,Level 3 Communications
"
	viLogics is located in the area Ebensburg, USA (America), and the colocation data center is  carrier neutral. The data center was last updated on 07-05-2015.",viLogics,USA,Pennsylvania,15931,Ebensburg,viLogics,viLogics Data Centers
"
	55 avenue des Champs Pierreux is located in the area paris, France (Française).",55 avenue des Champs Pierreux,,,,,,
"
	4021 Rose Lake Drive is located in the area Charlotte, USA (America).",4021 Rose Lake Drive,,,,,,
"
	194 Washington Avenue is located in the area Albany, USA (America).",194 Washington Avenue,,,,,,
"
	Lancom Athens is located in the area Athens (Athina), Greece (Hellenic Republic), and the colocation data center is not  carrier neutral. The data center was last updated on 09-01-2015.",Lancom Athens,Greece,,15125,Marousi,Lancom Athens,Lancom Ltd
"
	IndiQus-Nextra is located in the area New Delhi, India, and the colocation data center is  carrier neutral. The data center was last updated on 31-03-2015.",IndiQus-Nextra,India,Haryana,122016,Gurgaon,IndiQus-Nextra,Indiqus Technologies Pvt Ltd
"
	SYS4NET Datacenter Murcia is located in the area Murcia, Spain (España), and the colocation data center is  carrier neutral. The data center was last updated on 09-01-2015.",SYS4NET Datacenter Murcia,Spain,Region de Murcia,30820,Alcantarilla,SYS4NET Datacenter Murcia,"Grupo SYS4NET, S.L."
"
	Colohub is located in the area Chicago, USA (America).",Colohub,,,,,,
"
	KT Bundang DC is located in the area Seoul, South Korea (Republic of Korea), and the colocation data center is not  carrier neutral. The data center was last updated on 02-01-2017.",KT Bundang DC,South Korea,,463-828,Seongnam Si,KT Bundang DC,kt
"
	VAZATA NoVA I is located in the area Manassas, USA (America), and the colocation data center is  carrier neutral. The data center was last updated on 14-01-2015.",VAZATA NoVA I,USA,Virginia,20109,Manassas,VAZATA NoVA I,VAZATA
"
	ZNK HL komm is located in the area Leipzig, Germany (Deutschland), and the colocation data center is  carrier neutral. The data center was last updated on 27-01-2015.",ZNK HL komm,Germany,Sachsen,04105,Leipzig,ZNK HL komm,HL komm Telekommunikations GmbH
"
	ZNK2 HL komm is located in the area Leipzig, Germany (Deutschland), and the colocation data center is  carrier neutral. The data center was last updated on 27-01-2015.",ZNK2 HL komm,Germany,Sachsen,04103,Leipzig,ZNK2 HL komm,HL komm Telekommunikations GmbH
"
	EdgeConneX Denver - EDCDEN01 is located in the area Denver, USA (America), and the colocation data center is  carrier neutral. The data center was last updated on 26-07-2016.",EdgeConneX Denver - EDCDEN01,USA,Colorado,80112,Englewood,EdgeConneX Denver - EDCDEN01,EdgeConneX
"
	InfoQB is located in the area Vilhelmina, Sweden (Sverige), and the colocation data center is  carrier neutral. The data center was last updated on 27-01-2015.",InfoQB,Sweden,,91232,Vilhelmina,,InfoQB
"
	Puahale is located in the area Honolulu, USA (America), and the colocation data center is not  carrier neutral. The data center was last updated on 19-01-2015.",Puahale,USA,Hawaii,96819,Honolulu,Puahale,Servpac Inc.
"
	IPXON [Colombia-Bogota] is located in the area Bogota, Colombia, and the colocation data center is not  carrier neutral. The data center was last updated on 18-06-2015.",IPXON [Colombia-Bogota],Colombia,Bogota,B1640DLY,Bogota,IPXON [Colombia-Bogota],IPXON Networks
"
	IPXON [Bolivia-Santa Cruz] is located in the area Santa Cruz de la Sierra, Bolivia, and the colocation data center is not  carrier neutral. The data center was last updated on 18-06-2015.",IPXON [Bolivia-Santa Cruz],Bolivia,Santa Cruz de la Sierra,2489,Santa Cruz de la Sierra,IPXON [Bolivia-Santa Cruz],IPXON Networks
"
	Syptec - Bluffdale is located in the area Salt Lake City, USA (America), and the colocation data center is not  carrier neutral. The data center was last updated on 23-04-2015.",Syptec - Bluffdale,USA,Utah,84065,Bluffdale,Syptec - Bluffdale,Syptec
"
	Syptec - Chicago is located in the area Chicago, USA (America), and the colocation data center is not  carrier neutral. The data center was last updated on 23-04-2015.",Syptec - Chicago,USA,Illinois,46619,South Bend,Syptec - Chicago,Syptec
"
	Green House Data is located in the area Cheyenne, USA (America).",Green House Data,,,,,,
"
	Thin-nology is located in the area Austin, USA (America), and the colocation data center is not  carrier neutral. The data center was last updated on 23-01-2015.",Thin-nology,USA,Texas,78660,Pflugerville,Thin-nology,Thin-nology LLC
"
	LuxConnect Data Center DC2 is located in the area Bissen, Luxembourg (Luxemburg), and the colocation data center is  carrier neutral. The data center was last updated on 06-02-2015.",LuxConnect Data Center DC2,Luxembourg,,7795,Bissen / Roost,LuxConnect Data Center DC2,Luxconnect S.A.
"
	HL Komm Grenzstr. Halle is located in the area Halle Saale, Germany (Deutschland), and the colocation data center is  carrier neutral. The data center was last updated on 27-01-2015.",HL Komm Grenzstr. Halle,Germany,Sachsen-Anhalt,06112,Halle/Saale,HL Komm Grenzstr. Halle,HL komm Telekommunikations GmbH
"
	StoreSpeed is located in the area Fredrikstad, Norway (Norge), and the colocation data center is  carrier neutral. The data center was last updated on 26-01-2015.",StoreSpeed,Norway,,1671,Fredrikstad,StoreSpeed,StoreSpeed AS
"
	Nexanet GmbH is located in the area Lucerne, Switzerland (Schweiz), and the colocation data center is  carrier neutral. The data center was last updated on 17-03-2017.",Nexanet GmbH,Switzerland,Lucerne,6039,Root D4,,Nexanet GmbH
"
	EdgeConneX Seattle - EDCSEA01 is located in the area Seattle, USA (America), and the colocation data center is not  carrier neutral. The data center was last updated on 26-07-2016.",EdgeConneX Seattle - EDCSEA01,USA,Washington,98168,Seattle,EdgeConneX Seattle - EDCSEA01,EdgeConneX
"
	EdgeConneX Portland - EDCPOR01 is located in the area Portland, USA (America), and the colocation data center is not  carrier neutral. The data center was last updated on 26-07-2016.",EdgeConneX Portland - EDCPOR01,USA,Oregon,97124,Hillsboro,EdgeConneX Portland - EDCPOR01,EdgeConneX
"
	EdgeConneX Sacramento - EDCSAC01 is located in the area Sacramento, USA (America), and the colocation data center is not  carrier neutral. The data center was last updated on 26-07-2016.",EdgeConneX Sacramento - EDCSAC01,USA,California,95670,Rancho Cordova,EdgeConneX Sacramento - EDCSAC01,EdgeConneX
"
	EdgeConneX Pittsburgh - EDCPIT01 is located in the area Pittsburgh, USA (America), and the colocation data center is not  carrier neutral. The data center was last updated on 26-07-2016.",EdgeConneX Pittsburgh - EDCPIT01,USA,Pennsylvania,15220,Pittsburgh,EdgeConneX Pittsburgh - EDCPIT01,EdgeConneX
"
	EdgeConneX Nashville - EDCNAS01 is located in the area Nashville, USA (America), and the colocation data center is not  carrier neutral. The data center was last updated on 26-07-2016.",EdgeConneX Nashville - EDCNAS01,USA,Tennessee,37210,Nashville,EdgeConneX Nashville - EDCNAS01,EdgeConneX
"
	EdgeConneX Miami - EDCMIA01 is located in the area Miami, USA (America), and the colocation data center is not  carrier neutral. The data center was last updated on 26-07-2016.",EdgeConneX Miami - EDCMIA01,USA,Florida,33172,Miami,EdgeConneX Miami - EDCMIA01,EdgeConneX
"
	EdgeConneX Phoenix - EDCPHX01 is located in the area Phoenix, USA (America), and the colocation data center is not  carrier neutral. The data center was last updated on 26-07-2016.",EdgeConneX Phoenix - EDCPHX01,USA,Arizona,85282,Tempe,EdgeConneX Phoenix - EDCPHX01,EdgeConneX
"
	EdgeConneX Las Vegas - EDCLAS01 is located in the area Las Vegas, USA (America), and the colocation data center is not  carrier neutral. The data center was last updated on 26-07-2016.",EdgeConneX Las Vegas - EDCLAS01,USA,Nevada,89119,Las Vegas,EdgeConneX Las Vegas - EDCLAS01,EdgeConneX
"
	EdgeConneX San Diego - EDCSDG01 is located in the area San Diego, USA (America), and the colocation data center is not  carrier neutral. The data center was last updated on 26-07-2016.",EdgeConneX San Diego - EDCSDG01,USA,California,92111,San Diego,EdgeConneX San Diego - EDCSDG01,EdgeConneX
"
	EdgeConneX Norfolk - EDCNOR01 is located in the area Norfolk, USA (America), and the colocation data center is not  carrier neutral. The data center was last updated on 26-07-2016.",EdgeConneX Norfolk - EDCNOR01,USA,Virginia,23502,Norfolk,EdgeConneX Norfolk - EDCNOR01,EdgeConneX
"
	Epic Servers is located in the area Dallas, USA (America), and the colocation data center is  carrier neutral. The data center was last updated on 30-01-2015.",Epic Servers,USA,Texas,75235,Dallas,,Epic Servers
"
	Cogent Denver is located in the area Denver, USA (America), and the colocation data center is  carrier neutral. The data center was last updated on 04-02-2015.",Cogent Denver,USA,Colorado,80237,Denver,Cogent Denver,"Cogent Communications, Inc."
"
	Cogent Miami 2 is located in the area Miami, USA (America), and the colocation data center is  carrier neutral. The data center was last updated on 04-02-2015.",Cogent Miami 2,USA,Florida,33166,Doral,Cogent Miami 2,"Cogent Communications, Inc."
"
	Cogent Amsterdam is located in the area Amsterdam, The Netherlands (Holland), and the colocation data center is  carrier neutral. The data center was last updated on 04-02-2015.",Cogent Amsterdam,The Netherlands,,1165 MK,Halfweg,Cogent Amsterdam,"Cogent Communications, Inc."
"
	Cogent New York 2 is located in the area New York, USA (America), and the colocation data center is  carrier neutral. The data center was last updated on 04-02-2015.",Cogent New York 2,USA,New York,10004,New York,Cogent New York 2,"Cogent Communications, Inc."
"
	Cogent San Diego is located in the area San Diego, USA (America), and the colocation data center is  carrier neutral. The data center was last updated on 04-02-2015.",Cogent San Diego,USA,California,92101,San Diego,Cogent San Diego,"Cogent Communications, Inc."
"
	Cogent Toronto is located in the area Toronto, Canada, and the colocation data center is  carrier neutral. The data center was last updated on 04-02-2015.",Cogent Toronto,Canada,Ontario,M2J 1R3,Toronto,Cogent Toronto,"Cogent Communications, Inc."
"
	RackOne is located in the area Venice (Venezia), Italy (Italia), and the colocation data center is  carrier neutral. The data center was last updated on 11-02-2015.",RackOne,Italy,Venice,30020,Noventa di Piave,RackOne,Rack One srl
"
	OneNeck IT Solutions, A TDS Company is located in the area Phoenix, USA (America), and the colocation data center is  carrier neutral. The data center was last updated on 28-09-2015.","OneNeck IT Solutions, A TDS Company",USA,Arizona,85233,Gilbert,"OneNeck IT Solutions, A TDS Company",OneNeck IT Solutions
"
	Net.Bit Datacenter is located in the area Skopje, Macedonia (Republic of Macedonia), and the colocation data center is not  carrier neutral. The data center was last updated on 29-09-2015.",Net.Bit Datacenter,Macedonia,,1000,Skopje,Net.Bit Datacenter,Net.Bit
"
	OneNeck IT Solutions, A TDS Company is located in the area Phoenix, USA (America), and the colocation data center is  carrier neutral. The data center was last updated on 06-02-2015.","OneNeck IT Solutions, A TDS Company",USA,Arizona,85282,Tempe,"OneNeck IT Solutions, A TDS Company",OneNeck IT Solutions
"
	SAY DATA Solutions is located in the area Pune, India, and the colocation data center is  carrier neutral. The data center was last updated on 07-02-2015.",SAY DATA Solutions,India,Maharashtra,411045,Baner Pune,,SAY DATA Solutions
"
	HOTlink Internet is located in the area Recife, Brazil (Brasil), and the colocation data center is not  carrier neutral. The data center was last updated on 08-02-2015.",HOTlink Internet,Brazil,Pernambuco,50610250,Madalena,HOTlink Internet,hotlink internet ltda
"
	Oper8@Polaris is located in the area Brisbane (Queensland), Australia, and the colocation data center is  carrier neutral. The data center was last updated on 09-02-2015.",Oper8@Polaris,Australia,Queensland,4300,Springfield,Oper8@Polaris,Oper8 Pty Ltd
"
	FirstLight Manchester NH is located in the area Manchester NH, USA (America), and the colocation data center is  carrier neutral. The data center was last updated on 27-02-2015.",FirstLight Manchester NH,USA,New Hampshire,03103,Manchester,FirstLight Manchester NH,Firstlight Fiber
"
	ColoCo is located in the area The Lizard, United Kingdom (UK), and the colocation data center is  carrier neutral. The data center was last updated on 14-05-2015.",ColoCo,United Kingdom,Cornwall,TR12 6lq,Helston,ColoCo,ColoCo Ltd
"
	Voxility IRD is located in the area Bucharest, Romania, and the colocation data center is  carrier neutral. The data center was last updated on 09-06-2015.",Voxility IRD,Romania,,020335,Bucharest,Voxility IRD,Voxility
"
	IDMS-BAL01 is located in the area Baltimore, USA (America), and the colocation data center is  carrier neutral. The data center was last updated on 16-02-2015.",IDMS-BAL01,USA,Maryland,21202,Baltimore,IDMS-BAL01,InfraDMS
"
	OneNeck IT Solutions, A TDS Company is located in the area Bend, USA (America), and the colocation data center is  carrier neutral. The data center was last updated on 17-02-2015.","OneNeck IT Solutions, A TDS Company",USA,Oregon,97701,Bend,"OneNeck IT Solutions, A TDS Company",OneNeck IT Solutions
"
	EUSDC is located in the area Brasov, Romania, and the colocation data center is  carrier neutral. The data center was last updated on 19-03-2015.",EUSDC,Romania,,500091,Brasov,EUSDC,Euro Strada
"
	Getronics Services (UK) Ltd is located in the area Manchester, United Kingdom (UK), and the colocation data center is  carrier neutral. The data center was last updated on 20-05-2015.",Getronics Services (UK) Ltd,United Kingdom,,WA7 4QX,Runcorn,,Getronics Services (UK) Ltd
"
	Shabakah Net is located in the area Riyadh (ar-Riya?), Saudi Arabia (Kingdom of Saudi Arabia (KSA)), and the colocation data center is not  carrier neutral. The data center was last updated on 23-02-2015.",Shabakah Net,Saudi Arabia,,11187,Riyadh,,Shabakah Net
"
	2302 South Presidents Drive is located in the area Salt Lake City, USA (America).",2302 South Presidents Drive,,,,,,
"
	FirstLight Keene NH is located in the area Keene, USA (America), and the colocation data center is  carrier neutral. The data center was last updated on 27-02-2015.",FirstLight Keene NH,USA,New Hampshire,03431,Keene,FirstLight Keene NH,Firstlight Fiber
"
	Gigacenter is located in the area Kiev, Ukraine (Ukrayina), and the colocation data center is not  carrier neutral. The data center was last updated on 22-04-2016.",Gigacenter,Ukraine,,03022,Kiev,,Gigacenter
"
	Spacetel London is located in the area London, United Kingdom (UK), and the colocation data center is  carrier neutral. The data center was last updated on 06-03-2015.",Spacetel London,United Kingdom,,EC1R 0BD,London,Spacetel London,Spacetel Managed Services Ltd
"
	Broadnet Colocation Bergen is located in the area Bergen, Norway (Norge), and the colocation data center is not  carrier neutral. The data center was last updated on 23-03-2015.",Broadnet Colocation Bergen,Norway,,5008,Bergen,Broadnet Colocation Bergen,Broadnet AS
"
	Kattare CVO is located in the area Corvallis, USA (America), and the colocation data center is  carrier neutral. The data center was last updated on 12-03-2015.",Kattare CVO,USA,Oregon,97333,Corvallis,Kattare CVO,Kattare Inc.
"
	KT Gimhae DC is located in the area Busan, South Korea (Republic of Korea), and the colocation data center is  carrier neutral. The data center was last updated on 02-01-2017.",KT Gimhae DC,South Korea,,0000,Gimhae-si,KT Gimhae DC,kt
"
	DATACENTER ""PARKOVYI"" is located in the area Kiev, Ukraine (Ukrayina), and the colocation data center is  carrier neutral. The data center was last updated on 19-03-2015.","DATACENTER ""PARKOVYI""",Ukraine,,01601,Kyiv,"DATACENTER ""PARKOVYI""",LLC ANTE MEDIAM
"
	ITnet - Milano Rozzano is located in the area Milan (Milano), Italy (Italia), and the colocation data center is  carrier neutral. The data center was last updated on 27-03-2015.",ITnet - Milano Rozzano,Italy,,20089,Rozzano (MI),ITnet - Milano Rozzano,IT.net
"
	ITnet - Roma Tor Cervara is located in the area Rome (Roma), Italy (Italia), and the colocation data center is not  carrier neutral. The data center was last updated on 27-03-2015.",ITnet - Roma Tor Cervara,Italy,,00155,Rome,ITnet - Roma Tor Cervara,IT.net
"
	DataHub is located in the area kathmandu, Nepal (Federal Democratic Republic of Nepal), and the colocation data center is  carrier neutral. The data center was last updated on 19-03-2015.",DataHub,Nepal,Bagmati,12345,BUTWAL,DataHub,DataHub Pvt. Ltd.
"
	M247 Data Center is located in the area Bucharest, Romania, and the colocation data center is  carrier neutral. The data center was last updated on 25-03-2015.",M247 Data Center,Romania,Romania,20331,Bucharest,,M247 Data Center
"
	CARI.net is located in the area San Diego, USA (America), and the colocation data center is  carrier neutral. The data center was last updated on 18-03-2015.",CARI.net,USA,California,92123,Kearney Mesa,,CARI.net
"
	Algar Tech is located in the area Campinas, Brazil (Brasil), and the colocation data center is  carrier neutral. The data center was last updated on 19-03-2015.",Algar Tech,Brazil,SP,13082800,Campinas,,Algar Tech
"
	Algar Tech is located in the area Uberlandia (Uberlândia), Brazil (Brasil), and the colocation data center is  carrier neutral. The data center was last updated on 19-03-2015.",Algar Tech,Brazil,MG,38413102,Uberlandia,,Algar Tech
"
	Nettlinx is located in the area Hyderabad, India, and the colocation data center is not  carrier neutral. The data center was last updated on 20-03-2015.",Nettlinx,India,Telangana,500 063,Hyderabad,Nettlinx,Nettlinx Limited
"
	LDeX2 is located in the area Manchester, United Kingdom (UK), and the colocation data center is  carrier neutral. The data center was last updated on 01-03-2017.",LDeX2,United Kingdom,,M17 1WD,Manchester,LDeX2,LDeX Group
"
	DartPoints - LOU.01 is located in the area Shreveport, USA (America), and the colocation data center is  carrier neutral. The data center was last updated on 25-03-2015.",DartPoints - LOU.01,USA,Louisiana,71101,Shreveport,DartPoints - LOU.01,DartPoints
"
	DartPoints - CYP.01 is located in the area Dallas, USA (America), and the colocation data center is  carrier neutral. The data center was last updated on 25-03-2015.",DartPoints - CYP.01,USA,Texas,75063,Irving,DartPoints - CYP.01,DartPoints
"
	Bulk NO1 is located in the area Kristiansand, Norway (Norge).",Bulk NO1,,,,,,
"
	Data Inn is located in the area Vilnius, Lithuania (Republic of Lithuania), and the colocation data center is not  carrier neutral. The data center was last updated on 31-03-2015.",Data Inn,Lithuania,,02238,Vilnius,Data Inn,Data Logistics Center
"
	Secant Tier 3 DC is located in the area Kalamazoo, USA (America), and the colocation data center is  carrier neutral. The data center was last updated on 31-03-2015.",Secant Tier 3 DC,USA,Michigan,49009,Kalamazoo,Secant Tier 3 DC,Secant Technologies
"
	Pittsburgh Tech Center is located in the area Pittsburgh, USA (America).",Pittsburgh Tech Center,,,,,,
"
	ISCorp North MQN is located in the area Milwaukee, USA (America), and the colocation data center is not  carrier neutral. The data center was last updated on 02-04-2015.",ISCorp North MQN,USA,Wisconsin,53092,Mequon,ISCorp North MQN,ISCorp
"
	ISCorp South MQN is located in the area Milwaukee, USA (America), and the colocation data center is not  carrier neutral. The data center was last updated on 02-04-2015.",ISCorp South MQN,USA,Wisconsin,53092,mequon,ISCorp South MQN,ISCorp
"
	Radijus Vektor Sava Centar is located in the area Belgrade, Serbia (Republic of Serbia), and the colocation data center is  carrier neutral. The data center was last updated on 02-04-2015.",Radijus Vektor Sava Centar,Serbia,,11070,Belgrade / Beograd,Radijus Vektor Sava Centar,Radijus Vektor
"
	VelocityDC is located in the area London, United Kingdom (UK), and the colocation data center is  carrier neutral. The data center was last updated on 02-04-2015.",VelocityDC,United Kingdom,,SE1 4YB,London,VelocityDC,Velocity Datacentre
"
	LINKDATACENTER is located in the area Cairo (Al Qahirah), Egypt, and the colocation data center is  carrier neutral. The data center was last updated on 16-12-2015.",LINKDATACENTER,Egypt,Giza,11431,Giza,,LINKDATACENTER
"
	LuxConnect Data Center DC1.2 is located in the area Bettembourg, Luxembourg (Luxemburg), and the colocation data center is  carrier neutral. The data center was last updated on 02-11-2016.",LuxConnect Data Center DC1.2,Luxembourg,,3235,Bettembourg,LuxConnect Data Center DC1.2,Luxconnect S.A.
"
	DC1 is located in the area Sandefjord, Norway (Norge), and the colocation data center is not  carrier neutral. The data center was last updated on 07-04-2015.",DC1,Norway,,3241,Sandefjord,DC1,TerraHost AS
"
	dBT Data Center is located in the area Istanbul, Turkey (Türkiye), and the colocation data center is not  carrier neutral. The data center was last updated on 25-12-2015.",dBT Data Center,Turkey,,34394,Istanbul,dBT Data Center,Doga Bilgi Teknolojileri AS
"
	EdgeConneX Memphis - EDCMEM01 is located in the area Memphis, USA (America), and the colocation data center is  carrier neutral. The data center was last updated on 26-07-2016.",EdgeConneX Memphis - EDCMEM01,USA,Tennessee,38115,Memphis,EdgeConneX Memphis - EDCMEM01,EdgeConneX
"
	EdgeConneX Jacksonville - EDCJAX01 is located in the area Jacksonville, USA (America), and the colocation data center is  carrier neutral. The data center was last updated on 26-07-2016.",EdgeConneX Jacksonville - EDCJAX01,USA,Florida,32216,Jacksonville,EdgeConneX Jacksonville - EDCJAX01,EdgeConneX
"
	EdgeConneX Boston - EDCBOS01 is located in the area Boston, USA (America), and the colocation data center is  carrier neutral. The data center was last updated on 26-07-2016.",EdgeConneX Boston - EDCBOS01,USA,Massachusetts,01821,Billerica,EdgeConneX Boston - EDCBOS01,EdgeConneX
"
	EdgeConneX Tallahassee-EDCTAL01 is located in the area Tallahassee, USA (America), and the colocation data center is  carrier neutral. The data center was last updated on 26-07-2016.",EdgeConneX Tallahassee-EDCTAL01,USA,Florida,32303,Tallahassee,EdgeConneX Tallahassee-EDCTAL01,EdgeConneX
"
	EdgeConneX Atlanta - EDCATL01 is located in the area Atlanta, USA (America), and the colocation data center is  carrier neutral. The data center was last updated on 26-07-2016.",EdgeConneX Atlanta - EDCATL01,USA,Georgia,30310,Atlanta,EdgeConneX Atlanta - EDCATL01,EdgeConneX
"
	EdgeConneX Richmond - EDCRIC01 is located in the area Richmond, USA (America), and the colocation data center is  carrier neutral. The data center was last updated on 26-07-2016.",EdgeConneX Richmond - EDCRIC01,USA,Virginia,23228,Richmond,EdgeConneX Richmond - EDCRIC01,EdgeConneX
"
	LES.NET YWG1 is located in the area Winnipeg, Canada, and the colocation data center is  carrier neutral. The data center was last updated on 12-04-2015.",LES.NET YWG1,Canada,Manitoba,R3C0A1,Winnipeg,LES.NET YWG1,LES.NET (1996) INC.
"
	LES.NET YWG2 is located in the area Winnipeg, Canada, and the colocation data center is  carrier neutral. The data center was last updated on 12-04-2015.",LES.NET YWG2,Canada,Manitoba,R3C 0B9,Winnipeg,LES.NET YWG2,LES.NET (1996) INC.
"
	Recall - Schaumburg Facility is located in the area Chicago, USA (America), and the colocation data center is not  carrier neutral. The data center was last updated on 05-04-2016.",Recall - Schaumburg Facility,USA,Illinois,60173,Schauburg,Recall - Schaumburg Facility,Recall
"
	Rockville Datacenter is located in the area Rockville, USA (America), and the colocation data center is  carrier neutral. The data center was last updated on 21-04-2015.",Rockville Datacenter,USA,Maryland,20854,Rockville,Rockville Datacenter,"Atlantech Online, Inc."
"
	aspStation is located in the area Pittsburgh, USA (America), and the colocation data center is not  carrier neutral. The data center was last updated on 14-04-2015.",aspStation,USA,Pennsylvania,15224,Pittsburgh,aspStation,"aspStation, Inc"
"
	Fjellhallen is located in the area Stavanger, Norway (Norge), and the colocation data center is not  carrier neutral. The data center was last updated on 15-04-2015.",Fjellhallen,Norway,Rogaland,5578,Nedre Vats,Fjellhallen,Hatteland
"
	Fjellhallen Bergen is located in the area Bergen, Norway (Norge), and the colocation data center is not  carrier neutral. The data center was last updated on 15-04-2015.",Fjellhallen Bergen,Norway,Hordaland,5224,Bergen,Fjellhallen Bergen,Hatteland
"
	GetCard Data Center is located in the area Maringa, Brazil (Brasil), and the colocation data center is not  carrier neutral. The data center was last updated on 03-01-2017.",GetCard Data Center,Brazil,Parana,87020-035,Maringa,GetCard Data Center,GetCard Provedora de Transações Eletrônicas
"
	BAEHOST Web Hosting & Cloud is located in the area Buenos Aires, Argentina (Argentine Republic), and the colocation data center is not  carrier neutral. The data center was last updated on 21-04-2015.",BAEHOST Web Hosting & Cloud,Argentina,,1428,Capital Federal,,BAEHOST Web Hosting & Cloud
"
	PLANET IC Schwerin 1 is located in the area Schwerin, Germany (Deutschland), and the colocation data center is not  carrier neutral. The data center was last updated on 04-06-2016.",PLANET IC Schwerin 1,Germany,MV,19061,Schwerin,PLANET IC Schwerin 1,PLANET IC GmbH
"
	Bay Pointe is located in the area Cleveland, USA (America), and the colocation data center is not  carrier neutral. The data center was last updated on 16-04-2015.",Bay Pointe,USA,Ohio,44286,Richfield,,Bay Pointe
"
	CitySystems is located in the area Moscow, Russia, and the colocation data center is not  carrier neutral. The data center was last updated on 17-04-2015.",CitySystems,Russia,,119333,Moscow,CitySystems,Unknown Company
"
	DataHub Ltd. is located in the area Winterthur, Switzerland (Schweiz), and the colocation data center is  carrier neutral. The data center was last updated on 10-05-2016.",DataHub Ltd.,Switzerland,Zurich,8406,Winterthur,,DataHub Ltd.
"
	nexellent Glattbrugg is located in the area Zürich, Switzerland (Schweiz), and the colocation data center is not  carrier neutral. The data center was last updated on 24-04-2015.",nexellent Glattbrugg,Switzerland,,8152,Glattbrugg,nexellent Glattbrugg,nexellent ag
"
	nexellent Zürich is located in the area Zürich, Switzerland (Schweiz), and the colocation data center is not  carrier neutral. The data center was last updated on 24-04-2015.",nexellent Zürich,Switzerland,,8004,Zürich,nexellent Zürich,nexellent ag
"
	Adam PTV is located in the area Barcelona, Spain (España), and the colocation data center is  carrier neutral. The data center was last updated on 20-05-2015.",Adam PTV,Spain,Barcelona,08290,Cerdanyola,Adam PTV,Adam
"
	DIGITAL VALUE is located in the area Valencia, Spain (España), and the colocation data center is not  carrier neutral. The data center was last updated on 24-04-2015.",DIGITAL VALUE,Spain,Comunidad Valenciana,46026,Valencia,,DIGITAL VALUE
"
	Netdirekt A.S. is located in the area Izmir, Turkey (Türkiye), and the colocation data center is not  carrier neutral. The data center was last updated on 27-04-2015.",Netdirekt A.S.,Turkey,Bornova,35070,Izmir,,Netdirekt A.S.
"
	VBDC is located in the area Stockholm, Sweden (Sverige), and the colocation data center is  carrier neutral. The data center was last updated on 28-04-2015.",VBDC,Sweden,,12630,Hägersten,VBDC,Portlane AB
"
	WireNet Chile is located in the area Santiago, Chile (República de Chile), and the colocation data center is not  carrier neutral. The data center was last updated on 30-04-2015.",WireNet Chile,Chile,RM,7941292,Peñalolen,WireNet Chile,WireNet Chile Ltda.
"
	Stack Data Network is located in the area Saint Petersburg (Sankt-Peterburg), Russia, and the colocation data center is  carrier neutral. The data center was last updated on 20-05-2015.",Stack Data Network,Russia,,194362,St Petersburg,,Stack Data Network
"
	Gewerbezentrum Sigmundstrasse is located in the area Nuremberg (Nürnberg), Germany (Deutschland).",Gewerbezentrum Sigmundstrasse,,,,,,
"
	ISL HK1 is located in the area Hong Kong, Hong Kong (Hong Kong, SAR of China), and the colocation data center is not  carrier neutral. The data center was last updated on 12-05-2015.",ISL HK1,Hong Kong,,000,Kwai Chung,ISL HK1,ISL HK Limited
"
	Croatian Web Hosting is located in the area Zagreb, Croatia (Republika Hrvatska), and the colocation data center is  carrier neutral. The data center was last updated on 25-01-2017.",Croatian Web Hosting,Croatia,City of Zagreb,10040,Zagreb,Croatian Web Hosting,Control Engineering d.o.o.
"
	DataCenter PPNT is located in the area Poznan, Poland (Polska), and the colocation data center is not  carrier neutral. The data center was last updated on 14-05-2015.",DataCenter PPNT,Poland,,61-612,Poznan,,DataCenter PPNT
"
	Redestel is located in the area Zaragoza (Aragon), Spain (España), and the colocation data center is not  carrier neutral. The data center was last updated on 18-05-2015.",Redestel,Spain,,50014,Zaragoza,Redestel,"Redestel, SL"
"
	FCCN SE02/GigaPix Porto is located in the area Porto, Portugal, and the colocation data center is  carrier neutral. The data center was last updated on 19-05-2015.",FCCN SE02/GigaPix Porto,Portugal,,4200-465 Porto,Porto,FCCN SE02/GigaPix Porto,FCT-FCCN
"
	Bangalore DC is located in the area Bangalore (Bengaluru), India, and the colocation data center is  carrier neutral. The data center was last updated on 22-06-2015.",Bangalore DC,India,Karnataka,560066,Bangalore,Bangalore DC,NxtGen Datacenter and Cloud Technologies
"
	SAGLAYICI ISTANBUL 1 is located in the area Istanbul, Turkey (Türkiye), and the colocation data center is  carrier neutral. The data center was last updated on 05-04-2017.",SAGLAYICI ISTANBUL 1,Turkey,,34330,Istanbul,SAGLAYICI ISTANBUL 1,SAGLAYICI
"
	CK ZETO S.A. is located in the area Lodz, Poland (Polska), and the colocation data center is not  carrier neutral. The data center was last updated on 28-05-2015.",CK ZETO S.A.,Poland,,90-146,Lódz,,CK ZETO S.A.
"
	GridWay - Hazeldean RD is located in the area Ottawa, Canada, and the colocation data center is  carrier neutral. The data center was last updated on 28-05-2015.",GridWay - Hazeldean RD,Canada,Ontario,K2L 1T9,Ottawa,GridWay - Hazeldean RD,GridWay Computing Corporation
"
	IPXON [Peru-Lima] is located in the area Lima, Peru (República del Perú), and the colocation data center is not  carrier neutral. The data center was last updated on 18-06-2015.",IPXON [Peru-Lima],Peru,,1111,Lima,IPXON [Peru-Lima],IPXON Networks
"
	IPXON [Chile-Santiago] is located in the area Santiago, Chile (República de Chile), and the colocation data center is not  carrier neutral. The data center was last updated on 18-06-2015.",IPXON [Chile-Santiago],Chile,,1111,Santiago de Chile,IPXON [Chile-Santiago],IPXON Networks
"
	The Cloud Data Center - Bangkok is located in the area Bangkok, Thailand (Ratcha Anachak Thai), and the colocation data center is  carrier neutral. The data center was last updated on 03-06-2015.",The Cloud Data Center - Bangkok,Thailand,,10240,Bangkok,The Cloud Data Center - Bangkok,CS LOXINFO PUBLIC COMPANY LIMITED
"
	CS LOXINFO Data Center - CyberWorld is located in the area Bangkok, Thailand (Ratcha Anachak Thai), and the colocation data center is  carrier neutral. The data center was last updated on 18-06-2015.",CS LOXINFO Data Center - CyberWorld,Thailand,,10310,Bangkok,CS LOXINFO Data Center - CyberWorld,CS LOXINFO PUBLIC COMPANY LIMITED
"
	DC02 is located in the area Stockholm, Sweden (Sverige), and the colocation data center is  carrier neutral. The data center was last updated on 03-06-2015.",DC02,Sweden,,17144,Solna,DC02,Nordiska Servercentralen AB
"
	Medallion Communication Ltd is located in the area Lagos (Logos), Nigeria (Nijeriya), and the colocation data center is  carrier neutral. The data center was last updated on 06-06-2015.",Medallion Communication Ltd,Nigeria,Lagos State,101241,Lagos,Medallion Communication Ltd,Medallion Communication limited
"
	TELEHOUSE Hong Kong CCC - 2 is located in the area Hong Kong, Hong Kong (Hong Kong, SAR of China), and the colocation data center is  carrier neutral. The data center was last updated on 09-06-2015.",TELEHOUSE Hong Kong CCC - 2,Hong Kong,,Tseung kWan O Industrial Estate,Hong Kong,TELEHOUSE Hong Kong CCC - 2,KDDI Corporation
"
	Roobinaserver is located in the area Tehran, Iran, and the colocation data center is not  carrier neutral. The data center was last updated on 10-06-2015.",Roobinaserver,Iran,,1236549523,Tehran,,Roobinaserver
"
	Hispaweb Network is located in the area Madrid, Spain (España), and the colocation data center is  carrier neutral. The data center was last updated on 09-06-2015.",Hispaweb Network,Spain,Madrid,28037,Madrid,,Hispaweb Network
"
	Queensway 1 is located in the area Glenrothes, United Kingdom (UK).",Queensway 1,,,,,,
"
	Vodafone Datacenter is located in the area Istanbul, Turkey (Türkiye), and the colocation data center is  carrier neutral. The data center was last updated on 27-02-2017.",Vodafone Datacenter,Turkey,,34510,Istanbul,Vodafone Datacenter,Vodafone
"
	875 STA is located in the area montreal, Canada, and the colocation data center is  carrier neutral. The data center was last updated on 16-06-2015.",875 STA,Canada,Québec,H3C 1A6,montreal,875 STA,Metro Optic
"
	Canada151 Data Centers is located in the area Toronto, Canada, and the colocation data center is  carrier neutral. The data center was last updated on 09-03-2017.",Canada151 Data Centers,Canada,,M8Z 4X5,Toronto,,Canada151 Data Centers
"
	Verne Global is located in the area Keflavik, Iceland (Island), and the colocation data center is  carrier neutral. The data center was last updated on 08-07-2015.",Verne Global,Iceland,,235,Reykjanesbær,,Verne Global
"
	LightEdge Data Center - Kansas City is located in the area Kansas City MO, USA (America), and the colocation data center is  carrier neutral. The data center was last updated on 18-06-2015.",LightEdge Data Center - Kansas City,USA,Missouri,64161,Kansas City,LightEdge Data Center - Kansas City,LightEdge Solutions
"
	CloudDC Moscow 1 is located in the area Zelenograd, Russia, and the colocation data center is  carrier neutral. The data center was last updated on 16-06-2015.",CloudDC Moscow 1,Russia,,124683,Moscow,CloudDC Moscow 1,CloudDC
"
	IPXON [Ecuador-Quito] is located in the area Quito, Ecuador (República del Ecuador), and the colocation data center is not  carrier neutral. The data center was last updated on 18-06-2015.",IPXON [Ecuador-Quito],Ecuador,,1000,Quito,IPXON [Ecuador-Quito],IPXON Networks
"
	IPXON [Nicaragua-Managua] is located in the area Managua , Nicaragua (República de Nicaragua), and the colocation data center is not  carrier neutral. The data center was last updated on 18-06-2015.",IPXON [Nicaragua-Managua],Nicaragua,,1000,Managua ,IPXON [Nicaragua-Managua],IPXON Networks
"
	IPXON Networks is located in the area Asuncion, Paraguay (República del Paraguay).",IPXON Networks,,,,,,
"
	IPXON [Paraguay-Asuncion] is located in the area Asuncion, Paraguay (República del Paraguay), and the colocation data center is not  carrier neutral. The data center was last updated on 18-06-2015.",IPXON [Paraguay-Asuncion],Paraguay,,1000,Asuncion,IPXON [Paraguay-Asuncion],IPXON Networks
"
	DC01-MAL-SE-CYGRIDS is located in the area Malmö (Malmø), Sweden (Sverige), and the colocation data center is not  carrier neutral. The data center was last updated on 17-06-2015.",DC01-MAL-SE-CYGRIDS,Sweden,,213 76,Malmö,DC01-MAL-SE-CYGRIDS,CYGRIDS
"
	Ovnicom is located in the area Panama City, Panama, and the colocation data center is not  carrier neutral. The data center was last updated on 17-06-2015.",Ovnicom,Panama,Panama,0832-2657 WTC,Ciudad de Panamá,,Ovnicom
"
	CTM Data Center is located in the area taipa, Macau, and the colocation data center is  carrier neutral. The data center was last updated on 04-08-2015.",CTM Data Center,Macau,,999078,Taipa,CTM Data Center,CTM
"
	Jacksonville is located in the area Montevideo, Uruguay (Oriental Republic of Uruguay), and the colocation data center is not  carrier neutral. The data center was last updated on 20-07-2015.",Jacksonville,Uruguay,,12200,Montevideo,,Jacksonville
"
	Vancouver Waterfront Centre is located in the area Vancouver, Canada, and the colocation data center is  carrier neutral. The data center was last updated on 22-06-2015.",Vancouver Waterfront Centre,Canada,BC,V6C 3L6,Vancouver,Vancouver Waterfront Centre,Teliphone Navigata-Westel Communications Inc.
"
	Calgary Watermark Tower is located in the area Calgary, Canada, and the colocation data center is  carrier neutral. The data center was last updated on 22-06-2015.",Calgary Watermark Tower,Canada,AB,T2P 3S8,Calgary,Calgary Watermark Tower,Teliphone Navigata-Westel Communications Inc.
"
	Toronto Colocation Facility is located in the area Toronto, Canada, and the colocation data center is  carrier neutral. The data center was last updated on 22-06-2015.",Toronto Colocation Facility,Canada,ON,M5H 2S8,Toronto,Toronto Colocation Facility,Teliphone Navigata-Westel Communications Inc.
"
	3samnet is located in the area Jerusalem, Israel, and the colocation data center is not  carrier neutral. The data center was last updated on 21-12-2015.",3samnet,Israel,,97800,Jerusalem,,3samnet
"
	CentriLogic is located in the area Charlotte, USA (America), and the colocation data center is  carrier neutral. The data center was last updated on 29-06-2015.",CentriLogic,USA,North Carolina,28645,Lenoir,CentriLogic,Centrilogic
"
	CentriLogic is located in the area Mississauga, Canada, and the colocation data center is  carrier neutral. The data center was last updated on 29-06-2015.",CentriLogic,Canada,Ontario,L4Z 3K5,Mississauga,CentriLogic,Centrilogic
"
	ICODIA NETWORK INTEGRITY is located in the area Rennes, France (Française), and the colocation data center is not  carrier neutral. The data center was last updated on 17-06-2016.",ICODIA NETWORK INTEGRITY,France,Bretagne,35510,Cesson Sevigne,ICODIA NETWORK INTEGRITY,ICODIA
"
	geturweb.com is located in the area Lucknow, India, and the colocation data center is not  carrier neutral. The data center was last updated on 08-07-2015.",geturweb.com,India,uttar pradesh,226010,Lucknow,geturweb.com,Geturweb Private Limited
"
	Level 3 Herndon 3 is located in the area Ashburn, USA (America), and the colocation data center is  carrier neutral. The data center was last updated on 15-07-2015.",Level 3 Herndon 3,USA,Virginia,20170,Herndon,Level 3 Herndon 3,Level 3 Communications
"
	Vozelia Data Center Panamá is located in the area Panama City, Panama, and the colocation data center is not  carrier neutral. The data center was last updated on 20-07-2015.",Vozelia Data Center Panamá,Panama,Panama,0819,Panama City,Vozelia Data Center Panamá,Vozelia Telecom
"
	Green House Data - Everett, WA is located in the area Seattle, USA (America), and the colocation data center is  carrier neutral. The data center was last updated on 20-07-2015.","Green House Data - Everett, WA",USA,Washington,98201,Everett,"Green House Data - Everett, WA",Green House Data
"
	Green House Data - Bellingham, WA is located in the area Vancouver, Canada, and the colocation data center is  carrier neutral. The data center was last updated on 20-07-2015.","Green House Data - Bellingham, WA",Canada,,98225,Bellingham,"Green House Data - Bellingham, WA",Green House Data
"
	Data-center MCN Telecom is located in the area Moscow, Russia, and the colocation data center is not  carrier neutral. The data center was last updated on 21-11-2016.",Data-center MCN Telecom,Russia,,115487,Moscow,Data-center MCN Telecom,MCN telecom
"
	Space Data Centres - Nottingham is located in the area Nottingham, United Kingdom (UK), and the colocation data center is  carrier neutral. The data center was last updated on 17-06-2016.",Space Data Centres - Nottingham,United Kingdom,,NG5 1RF,Nottingham,Space Data Centres - Nottingham,Space Data Centres Limited
"
	JCHost.net Kansas City Datacenter is located in the area Kansas City MO, USA (America), and the colocation data center is  carrier neutral. The data center was last updated on 30-07-2015.",JCHost.net Kansas City Datacenter,USA,Missouri,64112,North Kansas City,JCHost.net Kansas City Datacenter,JCHost.net Internet Services
"
	325 Delware Avenue is located in the area Buffalo, USA (America).",325 Delware Avenue,,,,,,
"
	Angel House is located in the area Durham, United Kingdom (UK), and the colocation data center is  carrier neutral. The data center was last updated on 05-08-2015.",Angel House,United Kingdom,,DH2 1AQ,Chester Le Street,Angel House,ITPS
"
	Razormind Actual is located in the area London, United Kingdom (UK), and the colocation data center is not  carrier neutral. The data center was last updated on 05-08-2015.",Razormind Actual,United Kingdom,GREATER LONDON,ec14 9nz,London,Razormind Actual,Razormind
"
	Partnership House is located in the area Newcastle (Newcastle upon Tyne), United Kingdom (UK), and the colocation data center is not  carrier neutral. The data center was last updated on 07-08-2015.",Partnership House,United Kingdom,,NE3 3AF,Newcastle upon Tyne,Partnership House,ITPS
"
	Batelco DataCentre is located in the area Manama (al-Manama), Bahrain (Mamlakat al-Ba?rayn), and the colocation data center is  carrier neutral. The data center was last updated on 03-09-2015.",Batelco DataCentre,Bahrain,,973,Manama,Batelco DataCentre,Batelco
"
	Cloudhosting.lv is located in the area Riga, Latvia (Latvija), and the colocation data center is not  carrier neutral. The data center was last updated on 10-08-2015.",Cloudhosting.lv,Latvia,,LV-1039,Riga,Cloudhosting.lv,EnergyIT
"
	Nucleus Information Service Inc is located in the area Calgary, Canada, and the colocation data center is not  carrier neutral. The data center was last updated on 12-08-2015.",Nucleus Information Service Inc,Canada,,T3C0K2,Calgary,,Nucleus Information Service Inc
"
	Comarch Data Center Dresden is located in the area Dresden, Germany (Deutschland), and the colocation data center is not  carrier neutral. The data center was last updated on 14-08-2015.",Comarch Data Center Dresden,Germany,,01187,Dresden,Comarch Data Center Dresden,Comarch
"
	Comarch Data Center Lille is located in the area Lille, France (Française), and the colocation data center is not  carrier neutral. The data center was last updated on 14-08-2015.",Comarch Data Center Lille,France,,500 252 606,Lezennes 17,Comarch Data Center Lille,Comarch
"
	TerraCom Direct is located in the area Melbourne FL, USA (America), and the colocation data center is  carrier neutral. The data center was last updated on 17-08-2015.",TerraCom Direct,USA,Florida,32940,Melbourne,TerraCom Direct,"TerraCom Direct, LLC"
"
	DDSNet Europe is located in the area Timisoara, Romania, and the colocation data center is not  carrier neutral. The data center was last updated on 20-08-2015.",DDSNet Europe,Romania,Timis,300264,Timisoara,DDSNet Europe,DDSNet Europe SRL
"
	Immedion is located in the area Rock Hill, USA (America), and the colocation data center is  carrier neutral. The data center was last updated on 04-08-2016.",Immedion,USA,South Carolina,29730,Rock Hill,,Immedion
"
	The Pinnacle is located in the area Brisbane (Queensland), Australia, and the colocation data center is  carrier neutral. The data center was last updated on 24-08-2015.",The Pinnacle,Australia,Queensland,4509,North Lakes,The Pinnacle,edgeDC
"
	NocRoom Dallas Colocation and VPS is located in the area Dallas, USA (America), and the colocation data center is not  carrier neutral. The data center was last updated on 19-01-2017.",NocRoom Dallas Colocation and VPS,USA,Texas,75247,Dallas,NocRoom Dallas Colocation and VPS,NocRoom Miami Colocation VPS
"
	Lancom Athens is located in the area Athens (Athina), Greece (Hellenic Republic), and the colocation data center is not  carrier neutral. The data center was last updated on 27-08-2015.",Lancom Athens,Greece,,151 25,Marousi,Lancom Athens,Lancom
"
	SK broadband is located in the area Seoul, South Korea (Republic of Korea), and the colocation data center is not  carrier neutral. The data center was last updated on 12-09-2015.",SK broadband,South Korea,,06595,Kang nam,SK broadband,Internet Brothers South Korea
"
	EdgeConneX Madison - EDCMAD01 is located in the area Madison, USA (America), and the colocation data center is  carrier neutral. The data center was last updated on 26-07-2016.",EdgeConneX Madison - EDCMAD01,USA,Wisconsin,53716,Madison,EdgeConneX Madison - EDCMAD01,EdgeConneX
"
	EdgeConneX Minneapolis - EDCMSP01 is located in the area Minneapolis, USA (America), and the colocation data center is  carrier neutral. The data center was last updated on 26-07-2016.",EdgeConneX Minneapolis - EDCMSP01,USA,Minnesota,55344,Eden Prairie,EdgeConneX Minneapolis - EDCMSP01,EdgeConneX
"
	Zenium Istanbul One is located in the area Istanbul, Turkey (Türkiye).",Zenium Istanbul One,,,,,,
"
	Zenium Frankfurt One is located in the area Frankfurt (Frankfurt am Main), Germany (Deutschland).",Zenium Frankfurt One,,,,,,
"
	CeraNet DC3 is located in the area Columbus, USA (America), and the colocation data center is  carrier neutral. The data center was last updated on 17-09-2015.",CeraNet DC3,USA,Ohio,43081,Westerville,CeraNet DC3,"CeraNet, Inc."
"
	ACR1 is located in the area Poole, United Kingdom (UK), and the colocation data center is not  carrier neutral. The data center was last updated on 18-09-2015.",ACR1,United Kingdom,DORSET,BH16 6FA,Poole,ACR1,ACROPOLIS ONLINE LTD
"
	Atmosera Data Center 2 is located in the area Portland, USA (America), and the colocation data center is  carrier neutral. The data center was last updated on 21-09-2015.",Atmosera Data Center 2,USA,Oregon,97005,Beaverton,Atmosera Data Center 2,Atmosera
"
	ITENOS Frankfurt is located in the area Frankfurt (Frankfurt am Main), Germany (Deutschland), and the colocation data center is  carrier neutral. The data center was last updated on 13-10-2015.",ITENOS Frankfurt,Germany,,60326,Frankfurt,ITENOS Frankfurt,ITENOS GmbH
"
	Railtel Corporation of India Ltd. is located in the area Hyderabad, india, and the colocation data center is not  carrier neutral. The data center was last updated on 30-09-2015.",Railtel Corporation of India Ltd.,india,Telengana,500071,Secunderabad,,Railtel Corporation of India Ltd.
"
	ITENOS Dusseldorf is located in the area Düsseldorf, Germany (Deutschland), and the colocation data center is  carrier neutral. The data center was last updated on 13-10-2015.",ITENOS Dusseldorf,Germany,,40470,Dusseldorf,ITENOS Dusseldorf,ITENOS GmbH
"
	ITENOS Stuttgart is located in the area Stuttgart, Germany (Deutschland), and the colocation data center is  carrier neutral. The data center was last updated on 13-10-2015.",ITENOS Stuttgart,Germany,,70565,Stuttgart,ITENOS Stuttgart,ITENOS GmbH
"
	ITENOS Hamburg is located in the area Hamburg, Germany (Deutschland), and the colocation data center is  carrier neutral. The data center was last updated on 13-10-2015.",ITENOS Hamburg,Germany,,22111,Hamburg,ITENOS Hamburg,ITENOS GmbH
"
	MCA corporate is located in the area Chattanooga, USA (America), and the colocation data center is not  carrier neutral. The data center was last updated on 06-10-2015.",MCA corporate,USA,Tennessee,37416,Chattanooga,MCA corporate,MCA
"
	Data House is located in the area Almaty, Kazakhstan, and the colocation data center is  carrier neutral. The data center was last updated on 08-10-2015.",Data House,Kazakhstan,,050011,Almaty,Data House,"""Data House LTD"" LLC"
"
	Ukrainian Data Network is located in the area Kiev, Ukraine (Ukrayina), and the colocation data center is not  carrier neutral. The data center was last updated on 10-10-2015.",Ukrainian Data Network,Ukraine,,04080,Kiev,Ukrainian Data Network,Ukrainian Resilient Data Network
"
	DataVita Fortis is located in the area Glasgow, United Kingdom (UK), and the colocation data center is  carrier neutral. The data center was last updated on 12-10-2015.",DataVita Fortis,United Kingdom,,ML6 8NW,Chapelhall,DataVita Fortis,DataVita Ltd
"
	COOLHOUSING Datacenter is located in the area Prague, Czech Republic, and the colocation data center is  carrier neutral. The data center was last updated on 12-04-2017.",COOLHOUSING Datacenter,Czech Republic,,130 00,Prague,COOLHOUSING Datacenter,COOLHOUSING s.r.o.
"
	Hosting Yorkshire is located in the area York, United Kingdom (UK), and the colocation data center is not  carrier neutral. The data center was last updated on 29-08-2016.",Hosting Yorkshire,United Kingdom,North Yorkshire,YO1 8SU,York,Hosting Yorkshire,Hosting Yorkshire Ltd
"
	Area X is located in the area Gavle, Sweden (Sverige), and the colocation data center is not  carrier neutral. The data center was last updated on 19-10-2015.",Area X,Sweden,,82292,Gävle,Area X,Fiberdata AB - Area X
"
	Data Center Pocitos TIER III is located in the area Montevideo, Uruguay (Oriental Republic of Uruguay), and the colocation data center is not  carrier neutral. The data center was last updated on 20-10-2015.",Data Center Pocitos TIER III,Uruguay,Montevideo,11800,Pocitos,Data Center Pocitos TIER III,ANTEL
"
	DC TOWER is located in the area Prague, Czech Republic, and the colocation data center is  carrier neutral. The data center was last updated on 22-10-2015.",DC TOWER,Czech Republic,,130 00,Praha Zizkov,DC TOWER,Ceske Radiokomunikace
"
	Angonap is located in the area Luanda, Angola (Republic of Angola), and the colocation data center is  carrier neutral. The data center was last updated on 30-11-2015.",Angonap,Angola,,0000,Luanda,Angonap,Angola Cables
"
	The Computer Company Inc. is located in the area Hartford, USA (America), and the colocation data center is not  carrier neutral. The data center was last updated on 28-10-2015.",The Computer Company Inc.,USA,Connecticut,06416,Cromwell,,The Computer Company Inc.
"
	Safaricom Thika Data Centre is located in the area Nairobi, Kenya (Republic of Kenya), and the colocation data center is  carrier neutral. The data center was last updated on 16-11-2015.",Safaricom Thika Data Centre,Kenya,,00800,Nairobi,Safaricom Thika Data Centre,Safaricom
"
	Air Link DC is located in the area Princes Town, Trinidad and Tobago, and the colocation data center is  carrier neutral. The data center was last updated on 10-11-2016.",Air Link DC,Trinidad and Tobago,,00000,Princes Town,Air Link DC,Air Link Communications
"
	R4C Networks is located in the area Rio de Janeiro, Brazil (Brasil), and the colocation data center is not  carrier neutral. The data center was last updated on 03-11-2015.",R4C Networks,Brazil,RJ,22640100,Barra da Tijuca,R4C Networks,R4C
"
	Synergy Data Center & Services is located in the area Baker City, USA (America), and the colocation data center is not  carrier neutral. The data center was last updated on 02-11-2015.",Synergy Data Center & Services,USA,Oregon,97814,Baker City,,Synergy Data Center & Services
"
	Multinet KDC02 is located in the area Karachi, Pakistan (Islamic Republic of Pakistan), and the colocation data center is  carrier neutral. The data center was last updated on 03-11-2015.",Multinet KDC02,Pakistan,,74900,Korangi,Multinet KDC02,Multinet Pakistan
"
	Multinet KDC01 is located in the area Karachi, Pakistan (Islamic Republic of Pakistan), and the colocation data center is  carrier neutral. The data center was last updated on 27-11-2015.",Multinet KDC01,Pakistan,,74900,Korangi,Multinet KDC01,Multinet Pakistan
"
	Multinet LDC is located in the area Lahore, Pakistan (Islamic Republic of Pakistan), and the colocation data center is  carrier neutral. The data center was last updated on 03-11-2015.",Multinet LDC,Pakistan,,54880,Lahore,Multinet LDC,Multinet Pakistan
"
	Multinet IDC02 is located in the area Islamabad, Pakistan (Islamic Republic of Pakistan), and the colocation data center is  carrier neutral. The data center was last updated on 03-11-2015.",Multinet IDC02,Pakistan,,44000,Islamabad,Multinet IDC02,Multinet Pakistan
"
	DSC is located in the area Buford, USA (America), and the colocation data center is  carrier neutral. The data center was last updated on 03-11-2015.",DSC,USA,Georgia,30518,Buford,DSC,Digital Service Consultants Inc
"
	NDC01 is located in the area Vienna Virginia, USA (America), and the colocation data center is  carrier neutral. The data center was last updated on 04-11-2015.",NDC01,USA,Virginia,22182,Vienna,NDC01,NetEx Inc.
"
	Volico 2.0 is located in the area Fort Lauderdale, USA (America), and the colocation data center is  carrier neutral. The data center was last updated on 04-11-2015.",Volico 2.0,USA,Florida,33064,Deerfield,Volico 2.0,Volico Data Center
"
	Pier DC is located in the area Perth (Western Australia), Australia, and the colocation data center is  carrier neutral. The data center was last updated on 27-10-2016.",Pier DC,Australia,WA,6155,Canning Vale,,Pier DC
"
	bitNap Barcelona 01 is located in the area Barcelona, Spain (España), and the colocation data center is  carrier neutral. The data center was last updated on 26-01-2016.",bitNap Barcelona 01,Spain,Barcelona,08908,LHospitalet de LLobregat,bitNap Barcelona 01,Bitnap
"
	Faraso Samaneh Pasargad is located in the area Tehran, Iran, and the colocation data center is not  carrier neutral. The data center was last updated on 11-11-2015.",Faraso Samaneh Pasargad,Iran,,1611799577,Tehran,,Faraso Samaneh Pasargad
"
	Rechenzentrum Berlin is located in the area Berlin, Germany (Deutschland).",Rechenzentrum Berlin,,,,,,
"
	Wangfujing Data Center is located in the area Beijing, China, and the colocation data center is not  carrier neutral. The data center was last updated on 17-11-2015.",Wangfujing Data Center,China,,100738,Wangfujing,Wangfujing Data Center,"Beijing Internet Harbour Co., Ltd."
"
	Itconic Data Center Sevilla is located in the area Sevilla, Spain (España), and the colocation data center is  carrier neutral. The data center was last updated on 01-12-2016.",Itconic Data Center Sevilla,Spain,,41007,Seville,Itconic Data Center Sevilla,Itconic S.A
"
	Excelsimo Networks Ltd is located in the area Lagos (Logos), Nigeria (Nijeriya), and the colocation data center is not  carrier neutral. The data center was last updated on 07-12-2015.",Excelsimo Networks Ltd,Nigeria,Lagos State,45367,Lagos Mainland,,Excelsimo Networks Ltd
"
	ABcom is located in the area Minneapolis, USA (America), and the colocation data center is not  carrier neutral. The data center was last updated on 30-11-2015.",ABcom,USA,Minnesota,55112,New Brighton,,ABcom
"
	DC5 is located in the area Leeds, United Kingdom (UK), and the colocation data center is  carrier neutral. The data center was last updated on 23-11-2015.",DC5,United Kingdom,West Yorkshire,LS11 5LN,Leeds,DC5,aql
"
	Mizban Paytakht IDC is located in the area Tehran, Iran, and the colocation data center is not  carrier neutral. The data center was last updated on 18-11-2015.",Mizban Paytakht IDC,Iran,Tehran,19587,Tehran,Mizban Paytakht IDC,Mizban Paytakht
"
	TelecityGroup Stockholm3 is located in the area Stockholm, Sweden (Sverige), and the colocation data center is  carrier neutral. The data center was last updated on 23-11-2015.",TelecityGroup Stockholm3,Sweden,,16353,Spanga,TelecityGroup Stockholm3,TelecityGroup
"
	DC3 is located in the area Leeds, United Kingdom (UK), and the colocation data center is  carrier neutral. The data center was last updated on 23-11-2015.",DC3,United Kingdom,West Yorkshire,LS10 1JQ,Leeds,DC3,aql
"
	TTC DC2 is located in the area Prague, Czech republic, and the colocation data center is  carrier neutral. The data center was last updated on 02-12-2015.",TTC DC2,Czech republic,,10800,Malesice,TTC DC2,"TTC TELEPORT, s.r.o"
"
	Brisbane B1 is located in the area Brisbane (Queensland), Australia, and the colocation data center is not  carrier neutral. The data center was last updated on 02-12-2015.",Brisbane B1,Australia,QLD,4064,Milton,Brisbane B1,Syncom Australia Pty Ltd
"
	Datacenter Vault is located in the area Abu Dhabi, United Arab Emirates (UAE), and the colocation data center is  carrier neutral. The data center was last updated on 14-12-2015.",Datacenter Vault,United Arab Emirates,,54661,Al Dhafra,Datacenter Vault,Telelogix IT Services
"
	24DC is located in the area Krasnoyarsk, Russia, and the colocation data center is  carrier neutral. The data center was last updated on 09-12-2015.",24DC,Russia,,660100,Krasnoyarsk,24DC,System Projects LLC
"
	Polcom Data Center Skawina is located in the area Krakow, Poland (Polska), and the colocation data center is not  carrier neutral. The data center was last updated on 10-04-2017.",Polcom Data Center Skawina,Poland,,32-050,Skawina,Polcom Data Center Skawina,Polcom
"
	High Speed Web is located in the area Rock Hill, USA (America), and the colocation data center is  carrier neutral. The data center was last updated on 09-12-2015.",High Speed Web,USA,South Carolina,29730,Rock Hill,High Speed Web,High Speed Web Inc
"
	St Leonards Corporate Centre is located in the area Sydney (New South Wales), Australia.",St Leonards Corporate Centre,,,,,,
"
	Fortress Data Centers is located in the area San Francisco, USA (America), and the colocation data center is  carrier neutral. The data center was last updated on 15-12-2015.",Fortress Data Centers,USA,CALIFORNIA,94107,San Francisco,,Fortress Data Centers
"
	ctrls datacenters pvt ltd is located in the area Dubai (Dubai Internet City), United Arab Emirates (UAE), and the colocation data center is not  carrier neutral. The data center was last updated on 24-10-2014.",ctrls datacenters pvt ltd,United Arab Emirates,Dubai,500471,Dubai Internet City,ctrls datacenters pvt ltd,CtrlS Datacenters Pvt Ltd
"
	Komplex-Host is located in the area Nighny Novgorod, Russia, and the colocation data center is not  carrier neutral. The data center was last updated on 15-12-2015.",Komplex-Host,Russia,,603097,Nizhniy Novgorod,,Komplex-Host
"
	Backbone DataVault is located in the area Vancouver, Canada, and the colocation data center is  carrier neutral. The data center was last updated on 27-01-2017.",Backbone DataVault,Canada,British Columbia,V5T 1M4,Vancouver,Backbone DataVault,Astute Hosting Incorporated
"
	Stratford - Here East is located in the area London, United Kingdom (UK), and the colocation data center is  carrier neutral. The data center was last updated on 22-03-2016.",Stratford - Here East,United Kingdom,,E20 3BS,London,Stratford - Here East,Infinity SDC
"
	Polcom Data Center Alwernia is located in the area Katowice, Poland (Polska), and the colocation data center is not  carrier neutral. The data center was last updated on 10-04-2017.",Polcom Data Center Alwernia,Poland,,32-615,Grojec,Polcom Data Center Alwernia,Polcom
"
	Reliance IDC is located in the area Mumbai, India, and the colocation data center is  carrier neutral. The data center was last updated on 28-01-2016.",Reliance IDC,India,Maharashtra,400710,Navi Mumbai,Reliance IDC,Reliance Data Center
"
	AdNet - DataCity is located in the area Bucharest, Romania, and the colocation data center is  carrier neutral. The data center was last updated on 13-04-2017.",AdNet - DataCity,Romania,Ilfov,077190,Voluntari,AdNet - DataCity,AdNet Telecom
"
	Veolia Data Center is located in the area Milwaukee, USA (America), and the colocation data center is not  carrier neutral. The data center was last updated on 25-01-2016.",Veolia Data Center,USA,Wisconsin,53228,Greenfield,Veolia Data Center,Veolia North America
"
	Ringo DCI is located in the area Buenos Aires, Argentina (Argentine Republic), and the colocation data center is not  carrier neutral. The data center was last updated on 27-01-2016.",Ringo DCI,Argentina,CABA,1414,Buenos Aires,Ringo DCI,Ultrasitios
"
	Serverinsys is located in the area Kirov, Russia, and the colocation data center is not  carrier neutral. The data center was last updated on 25-01-2016.",Serverinsys,Russia,,610033,Kirov,Serverinsys,InSys
"
	Reliance IDC Hyderabad is located in the area Hyderabad, India, and the colocation data center is  carrier neutral. The data center was last updated on 28-01-2016.",Reliance IDC Hyderabad,India,Telangana,500081,Telangana,Reliance IDC Hyderabad,Reliance Data Center
"
	Reliance IDC Chennai is located in the area Chennai, India, and the colocation data center is  carrier neutral. The data center was last updated on 28-01-2016.",Reliance IDC Chennai,India,Tamilnadu,600006,Chennai,Reliance IDC Chennai,Reliance Data Center
"
	Reliance IDC Bengaluru #1 is located in the area Bangalore (Bengaluru), India, and the colocation data center is  carrier neutral. The data center was last updated on 28-01-2016.",Reliance IDC Bengaluru #1,India,Karnataka,560001,Bengaluru,Reliance IDC Bengaluru #1,Reliance Data Center
"
	Reliance IDC Bengaluru #2 is located in the area Bangalore (Bengaluru), India, and the colocation data center is  carrier neutral. The data center was last updated on 28-01-2016.",Reliance IDC Bengaluru #2,India,Karnataka,560022,Bengaluru,Reliance IDC Bengaluru #2,Reliance Data Center
"
	YourDC Hawthorn is located in the area Adelaide (South Australia), Australia, and the colocation data center is  carrier neutral. The data center was last updated on 31-03-2017.",YourDC Hawthorn,Australia,SA,5062,Hawthorn,YourDC Hawthorn,YourDC
"
	Reliance IDC Bengaluru #3 is located in the area Bangalore (Bengaluru), India, and the colocation data center is  carrier neutral. The data center was last updated on 28-01-2016.",Reliance IDC Bengaluru #3,India,Karnataka,560048,Bengaluru,Reliance IDC Bengaluru #3,Reliance Data Center
"
	AccessWorld is located in the area Kathmandu, Nepal (Federal Democratic Republic of Nepal), and the colocation data center is  carrier neutral. The data center was last updated on 01-02-2016.",AccessWorld,Nepal,Bagmati,NP,Kathmandu,AccessWorld,AccessWorld Tech Pvt. Ltd
"
	YourDC Edinburgh is located in the area Adelaide (South Australia), Australia, and the colocation data center is  carrier neutral. The data center was last updated on 31-03-2017.",YourDC Edinburgh,Australia,SA,5111,Edinburgh,YourDC Edinburgh,YourDC
"
	HostRocket is located in the area Albany, USA (America), and the colocation data center is not  carrier neutral. The data center was last updated on 01-02-2016.",HostRocket,USA,New York,12065,Clifton Park,,HostRocket
"
	Princeton Data Site is located in the area Princeton, USA (America), and the colocation data center is  carrier neutral. The data center was last updated on 08-03-2016.",Princeton Data Site,USA,New Jersey,08852,Monmouth Junction,Princeton Data Site,Agile Data Sites LLC
"
	CAPS is located in the area Fairfield County, USA (America), and the colocation data center is  carrier neutral. The data center was last updated on 17-02-2016.",CAPS,USA,Connecticut,06484,Shelton,CAPS,CAPS (Computer Alternative Processing Sites)
"
	ATCDC is located in the area Ashland, USA (America), and the colocation data center is  carrier neutral. The data center was last updated on 03-02-2016.",ATCDC,USA,Kentucky,41169,Russell,ATCDC,Ashland Technology Complex and Data Center
"
	24 Hour Data is located in the area Houston, USA (America), and the colocation data center is not  carrier neutral. The data center was last updated on 10-03-2016.",24 Hour Data,USA,Texas,77002,Houston,,24 Hour Data
"
	24 Hour Data is located in the area Dallas, USA (America), and the colocation data center is not  carrier neutral. The data center was last updated on 10-03-2016.",24 Hour Data,USA,Texas,75074,Plano,,24 Hour Data
"
	200 Avenue B NW is located in the area Orlando, USA (America).",200 Avenue B NW,,,,,,
"
	SUBTAC is located in the area Lexington, USA (America), and the colocation data center is  carrier neutral. The data center was last updated on 15-02-2016.",SUBTAC,USA,Kentucky,40390,Wilmore,SUBTAC,Kentucky Underground Storage
"
	BBU/Graha Bumiputera   is located in the area Bandung, Indonesia.",BBU/Graha Bumiputera  ,,,,,,
"
	Cyres Datacenter is located in the area Tours, France (Française), and the colocation data center is not  carrier neutral. The data center was last updated on 03-05-2016.",Cyres Datacenter,France,Region Centre,37100,Tours,Cyres Datacenter,CYRES GROUPE
"
	Signal Hill Telecom Center is located in the area Orlando, USA (America).",Signal Hill Telecom Center,,,,,,
"
	Datacenter Groningen is located in the area Groningen, The Netherlands (Holland), and the colocation data center is  carrier neutral. The data center was last updated on 23-02-2016.",Datacenter Groningen,The Netherlands,Groningen,9636 HV,Zuidbroek,Datacenter Groningen,Datacenter Groningen B.V.
"
	Experis Data Center is located in the area Middletown, USA (America), and the colocation data center is  carrier neutral. The data center was last updated on 26-02-2016.",Experis Data Center,USA,Virginia,22645,Middletown,Experis Data Center,Experis
"
	Cubeglobalstorage is located in the area Victoria, Canada, and the colocation data center is not  carrier neutral. The data center was last updated on 27-02-2016.",Cubeglobalstorage,Canada,,V8Z 6N6,Victoria,Cubeglobalstorage,Cube Global Storage
"
	High Sec Hosting is located in the area Stockholm, Sweden (Sverige), and the colocation data center is  carrier neutral. The data center was last updated on 10-03-2016.",High Sec Hosting,Sweden,,13135,Nacka,,High Sec Hosting
"
	New Albany, Ohio Data Center is located in the area Columbus, USA (America), and the colocation data center is  carrier neutral. The data center was last updated on 28-02-2016.","New Albany, Ohio Data Center",USA,Ohio,43054,New Albany,"New Albany, Ohio Data Center",PCM
"
	Tech Futures Vancouver YVR1 is located in the area Vancouver, Canada, and the colocation data center is  carrier neutral. The data center was last updated on 08-03-2016.",Tech Futures Vancouver YVR1,Canada,BC,V5H 4V8,Burnaby,Tech Futures Vancouver YVR1,Tech Futures Interactive Inc.
"
	DSM Myfloridacloud.com Data Center is located in the area Winter Haven, USA (America), and the colocation data center is  carrier neutral. The data center was last updated on 03-03-2016.",DSM Myfloridacloud.com Data Center,USA,Florida,33881,Winter Haven,DSM Myfloridacloud.com Data Center,DSM Technology Consultants
"
	Maksab-PNU DC is located in the area Riyadh (ar-Riya?), Saudi Arabia (Kingdom of Saudi Arabia (KSA)), and the colocation data center is not  carrier neutral. The data center was last updated on 07-03-2016.",Maksab-PNU DC,Saudi Arabia,,12484,Riyadh,Maksab-PNU DC,Saudi Maksab Holdings
"
	SolidSpace is located in the area Winston Salem, USA (America), and the colocation data center is  carrier neutral. The data center was last updated on 29-03-2016.",SolidSpace,USA,North Carolina,27105,Winston-Salem,,SolidSpace
"
	Gerrys Data Center is located in the area Karachi, Pakistan (Islamic Republic of Pakistan), and the colocation data center is not  carrier neutral. The data center was last updated on 11-03-2016.",Gerrys Data Center,Pakistan,Sindh,74400,Karachi,Gerrys Data Center,Gerry's Information Technology
"
	CenterGrid - Hamilton is located in the area Cincinnati, USA (America), and the colocation data center is not  carrier neutral. The data center was last updated on 14-03-2016.",CenterGrid - Hamilton,USA,Ohio,45011,Hamilton,CenterGrid - Hamilton,CenterGrid
"
	Onyx Group Newcastle East is located in the area Newcastle (Newcastle upon Tyne), United Kingdom (UK), and the colocation data center is not  carrier neutral. The data center was last updated on 21-03-2016.",Onyx Group Newcastle East,United Kingdom,,NE27 0QF,Newcastle,Onyx Group Newcastle East,Onyx Group
"
	GTS Telecom DC Cluj-Napoca is located in the area Cluj Napoca, Romania, and the colocation data center is not  carrier neutral. The data center was last updated on 13-10-2016.",GTS Telecom DC Cluj-Napoca,Romania,Cluj,400267,Cluj-Napoca,GTS Telecom DC Cluj-Napoca,GTS Telecom
"
	DC1 is located in the area Paramaribo, Suriname, and the colocation data center is not  carrier neutral. The data center was last updated on 24-03-2016.",DC1,Suriname,,0000,Wanica,DC1,Datasur
"
	CentriLogic GTA is located in the area Mississauga, Canada, and the colocation data center is  carrier neutral. The data center was last updated on 22-03-2016.",CentriLogic GTA,Canada,,L5S 1L4,Mississauga,CentriLogic GTA,Centrilogic
"
	DC2 is located in the area Paramaribo, Suriname, and the colocation data center is not  carrier neutral. The data center was last updated on 24-03-2016.",DC2,Suriname,,0000,Paramaribo,DC2,Datasur
"
	450 West Hanes Mill Road is located in the area Charlotte, USA (America), and the colocation data center is not  carrier neutral. The data center was last updated on 29-03-2016.",450 West Hanes Mill Road,USA,North Carolina,27105,Winston-Salem,450 West Hanes Mill Road,SolidSpace
"
	DediHouse Networks is located in the area Singapore, Singapore, and the colocation data center is not  carrier neutral. The data center was last updated on 29-03-2016.",DediHouse Networks,Singapore,Singapore,408830,Singapore,DediHouse Networks,"DediHouse Networks, LLC"
"
	DCBurcht is located in the area Antwerp (Antwerpen), Belgium, and the colocation data center is  carrier neutral. The data center was last updated on 21-09-2016.",DCBurcht,Belgium,,2070,Burcht,DCBurcht,DCSTAR DATACENTERS
"
	Nuday TOR1 is located in the area Toronto, Canada, and the colocation data center is  carrier neutral. The data center was last updated on 07-03-2017.",Nuday TOR1,Canada,Ontario,L3R 3J7,Markham,Nuday TOR1,Nüday Networks Inc.
"
	NetAccess Systems Inc is located in the area Hamilton, Canada, and the colocation data center is not  carrier neutral. The data center was last updated on 09-05-2016.",NetAccess Systems Inc,Canada,Ontario,L8P4W7,Hamilton,,NetAccess Systems Inc
"
	Elitery is located in the area Jakarta (Djakarta), Indonesia, and the colocation data center is  carrier neutral. The data center was last updated on 02-04-2016.",Elitery,Indonesia,Cilandak,12430,Jakarta Selatan,Elitery,Elitery Data Center
"
	ECSystems is located in the area Merida, Mexico (United Mexican States).",ECSystems,,,,,,
"
	RackAfrica is located in the area Accra, Ghana (Republic of Ghana), and the colocation data center is  carrier neutral. The data center was last updated on 06-04-2016.",RackAfrica,Ghana,Greater Accra,1632,Accra,,RackAfrica
"
	Tahiti Nui Fortress is located in the area Papenoo, French Polynesia (Polynésie française), and the colocation data center is not  carrier neutral. The data center was last updated on 05-04-2016.",Tahiti Nui Fortress,French Polynesia,Tahiti,98709 Mahina,Papenoo,,Tahiti Nui Fortress
"
	Dane County Data Exchange is located in the area Madison, USA (America), and the colocation data center is  carrier neutral. The data center was last updated on 12-04-2016.",Dane County Data Exchange,USA,Wisconsin,53716,Madison,,Dane County Data Exchange
"
	Aptus Solutions is located in the area Dar es Salaam, Tanzania (U.R.T), and the colocation data center is not  carrier neutral. The data center was last updated on 12-04-2016.",Aptus Solutions,Tanzania,,21456,Dar es Salaam,,Aptus Solutions
"
	Sinersio Data Center is located in the area Nowa Sol, Poland (Polska), and the colocation data center is  carrier neutral. The data center was last updated on 04-05-2016.",Sinersio Data Center,Poland,,67-100,Nowa Sol,Sinersio Data Center,Sinersio Polska Sp. z o.o.
"
	MaxNet DC is located in the area Kharkov, Ukraine (Ukrayina), and the colocation data center is not  carrier neutral. The data center was last updated on 02-02-2017.",MaxNet DC,Ukraine,,61001,Kharkov,MaxNet DC,MaxNet
"
	Shijiazhuang - Gaoxin is located in the area Shijiazhuang, China, and the colocation data center is not  carrier neutral. The data center was last updated on 04-05-2016.",Shijiazhuang - Gaoxin,China,,050000,Shijiazhuang,Shijiazhuang - Gaoxin,Zenlayer
"
	Serverwala data center pvt ltd. is located in the area jaipur, India, and the colocation data center is not  carrier neutral. The data center was last updated on 18-04-2016.",Serverwala data center pvt ltd.,India,,302015,jaipur,Serverwala data center pvt ltd.,Server Wala Data Centers Pvt.Ltd
"
	KT Yeouido DC is located in the area Seoul, South Korea (Republic of Korea), and the colocation data center is  carrier neutral. The data center was last updated on 02-01-2017.",KT Yeouido DC,South Korea,,00000,Seoul,KT Yeouido DC,kt
"
	KT Gangnam DC is located in the area Seoul, South Korea (Republic of Korea), and the colocation data center is not  carrier neutral. The data center was last updated on 02-01-2017.",KT Gangnam DC,South Korea,,00000,Seoul,KT Gangnam DC,kt
"
	INOC West Albany is located in the area Albany, USA (America), and the colocation data center is  carrier neutral. The data center was last updated on 19-01-2017.",INOC West Albany,USA,New York,12203,Albany,INOC West Albany,INOC Data Centers
"
	Ilia Hamrah Kish is located in the area Tehran, Iran, and the colocation data center is not  carrier neutral. The data center was last updated on 01-05-2016.",Ilia Hamrah Kish,Iran,,1991934843,Vanak,,Ilia Hamrah Kish
"
	Green Mountain AS - DC2-Telemark is located in the area Rjukan, Norway (Norge), and the colocation data center is  carrier neutral. The data center was last updated on 05-05-2016.",Green Mountain AS - DC2-Telemark,Norway,,3660,Rjukan,Green Mountain AS - DC2-Telemark,Green Mountain Data Center
"
	Clouditalia Arezzo is located in the area Arezzo, Italy (Italia), and the colocation data center is not  carrier neutral. The data center was last updated on 30-05-2016.",Clouditalia Arezzo,Italy,,52100,Arezzo,Clouditalia Arezzo,Clouditalia
"
	Beijing ETDA is located in the area Beijing, China, and the colocation data center is  carrier neutral. The data center was last updated on 10-05-2016.",Beijing ETDA,China,,100176,Beijing,Beijing ETDA,Zenlayer
"
	vancouver data center is located in the area Vancouver, Canada, and the colocation data center is not  carrier neutral. The data center was last updated on 10-05-2016.",vancouver data center,Canada,bc,v6e 2s1,Vancouver,vancouver data center,vling e business
"
	Foshan is located in the area Guangzhou, China, and the colocation data center is not  carrier neutral. The data center was last updated on 11-05-2016.",Foshan,China,,528253,Foshan,Foshan,Zenlayer
"
	Chongqing is located in the area Chongqing, China, and the colocation data center is  carrier neutral. The data center was last updated on 11-05-2016.",Chongqing,China,,401120,Chongqing,Chongqing,Zenlayer
"
	Nanjing-1 is located in the area Nanjing, China, and the colocation data center is  carrier neutral. The data center was last updated on 11-05-2016.",Nanjing-1,China,,211399,Nanjing,Nanjing-1,Zenlayer
"
	Guangzhou is located in the area Guangzhou, China, and the colocation data center is  carrier neutral. The data center was last updated on 11-05-2016.",Guangzhou,China,,510663,Guangzhou,Guangzhou,Zenlayer
"
	Nanjing-2 is located in the area Nanjing, China, and the colocation data center is not  carrier neutral. The data center was last updated on 11-05-2016.",Nanjing-2,China,,211299,Nanjing,Nanjing-2,Zenlayer
"
	Shanghai Baoshan-1 is located in the area Shanghai, China, and the colocation data center is not  carrier neutral. The data center was last updated on 11-05-2016.",Shanghai Baoshan-1,China,,200443,Shanghai,Shanghai Baoshan-1,Zenlayer
"
	Shenyang-1 is located in the area Shenyang, China, and the colocation data center is not  carrier neutral. The data center was last updated on 11-05-2016.",Shenyang-1,China,,110088,Shenyang,Shenyang-1,Zenlayer
"
	Shanghai Baoshan-2 is located in the area Shanghai, China, and the colocation data center is not  carrier neutral. The data center was last updated on 11-05-2016.",Shanghai Baoshan-2,China,,200431,Shanghai,Shanghai Baoshan-2,Zenlayer
"
	Tianjin is located in the area Tianjin, China, and the colocation data center is not  carrier neutral. The data center was last updated on 11-05-2016.",Tianjin,China,,300384,Tianjin,Tianjin,Zenlayer
"
	Shenyang-2 is located in the area Shenyang, China, and the colocation data center is not  carrier neutral. The data center was last updated on 11-05-2016.",Shenyang-2,China,,110087,Shenyang,Shenyang-2,Zenlayer
"
	Wuhan is located in the area Wuhan, China, and the colocation data center is not  carrier neutral. The data center was last updated on 11-05-2016.",Wuhan,China,,430034,Wuhan,Wuhan,Zenlayer
"
	Wenzhou is located in the area Wenzhou, China, and the colocation data center is not  carrier neutral. The data center was last updated on 11-05-2016.",Wenzhou,China,,325699,Wenzhou,Wenzhou,Zenlayer
"
	Xian is located in the area Xian, China, and the colocation data center is not  carrier neutral. The data center was last updated on 11-05-2016.",Xian,China,,712046,Xianyang,Xian,Zenlayer
"
	Wuxi is located in the area Wuxi, China, and the colocation data center is not  carrier neutral. The data center was last updated on 11-05-2016.",Wuxi,China,,214434,Wuxi,Wuxi,Zenlayer
"
	DATA CENTER JIHLAVA is located in the area Jihlava, Czech republic, and the colocation data center is not  carrier neutral. The data center was last updated on 11-05-2016.",DATA CENTER JIHLAVA,Czech republic,,58601,Jihlava,DATA CENTER JIHLAVA,Czech IT Cluster
"
	Zhuhai is located in the area Zhuhai, China, and the colocation data center is not  carrier neutral. The data center was last updated on 11-05-2016.",Zhuhai,China,,519015,Zhuhai,Zhuhai,Zenlayer
"
	Datacenter WebNet Solutions is located in the area Constanta, Romania, and the colocation data center is  carrier neutral. The data center was last updated on 18-05-2016.",Datacenter WebNet Solutions,Romania,Constanta,90004,Constanta,Datacenter WebNet Solutions,S.C. WebNet Solutions S.R.L.
"
	Telesystem Data Center-2 is located in the area Monroe MI, USA (America), and the colocation data center is  carrier neutral. The data center was last updated on 16-05-2016.",Telesystem Data Center-2,USA,Michigan,48162,Monroe,Telesystem Data Center-2,"Buckeye Telesystem, Inc"
"
	LightSpeed Hosting is located in the area Akron, USA (America), and the colocation data center is  carrier neutral. The data center was last updated on 01-07-2016.",LightSpeed Hosting,USA,Ohio,44256,Medina,,LightSpeed Hosting
"
	N Plus Networks is located in the area Waterloo, Canada, and the colocation data center is  carrier neutral. The data center was last updated on 20-05-2016.",N Plus Networks,Canada,Ontario,n2h 5h3,Kitchener,,N Plus Networks
"
	Clouditalia Roma is located in the area Rome (Roma), Italy (Italia), and the colocation data center is not  carrier neutral. The data center was last updated on 30-05-2016.",Clouditalia Roma,Italy,,00156,Rome,Clouditalia Roma,Clouditalia
"
	Eco Data is located in the area Tauranga, New Zealand, and the colocation data center is not  carrier neutral. The data center was last updated on 31-05-2016.",Eco Data,New Zealand,,3110,Bay Of Plenty,Eco Data,Eco Data Services Ltd
"
	AIT.com -Fayetteville, NC is located in the area Fayetteville, USA (America), and the colocation data center is  carrier neutral. The data center was last updated on 31-05-2016.","AIT.com -Fayetteville, NC",USA,North Carolina,28301,Fayetteville,"AIT.com -Fayetteville, NC","Advanced Internet Technologies, Inc."
"
	Intercity Networks is located in the area Santiago, Chile (República de Chile), and the colocation data center is not  carrier neutral. The data center was last updated on 22-07-2016.",Intercity Networks,Chile,Providencia,7500568,Santiago,,Intercity Networks
"
	Nettogo is located in the area Miami, USA (America), and the colocation data center is not  carrier neutral. The data center was last updated on 06-06-2016.",Nettogo,USA,Florida,33176,Miami,,Nettogo
"
	G2K Datacenter is located in the area Buenos Aires, Argentina (Argentine Republic), and the colocation data center is  carrier neutral. The data center was last updated on 31-05-2016.",G2K Datacenter,Argentina,Buenos Aires,2900,San NIcolas,G2K Datacenter,G2K Argentina
"
	FreeClix Data Centre is located in the area Norwich, United Kingdom (UK), and the colocation data center is  carrier neutral. The data center was last updated on 21-06-2016.",FreeClix Data Centre,United Kingdom,Norfolk,NR1 3DS,Norwich,FreeClix Data Centre,FreeClix Ltd
"
	Fresh Technology is located in the area Birmingham, USA (America), and the colocation data center is not  carrier neutral. The data center was last updated on 18-06-2016.",Fresh Technology,USA,Alabama,35244,Hoover,,Fresh Technology
"
	DATACENTER is located in the area Tbilisi, Georgia, and the colocation data center is not  carrier neutral. The data center was last updated on 03-12-2016.",DATACENTER,Georgia,Tbilisi,0186,Tbilisi,DATACENTER,DATACENTER LTD
"
	HKT-SkyExchange (IAC) is located in the area Hong Kong, Hong Kong (Hong Kong, SAR of China), and the colocation data center is  carrier neutral. The data center was last updated on 28-02-2017.",HKT-SkyExchange (IAC),Hong Kong,Nil,Nil,Tseung Kwan O Industrial Estate,HKT-SkyExchange (IAC),HKT Limited
"
	Teracom DC Kaknas is located in the area Stockholm, Sweden (Sverige), and the colocation data center is not  carrier neutral. The data center was last updated on 18-07-2016.",Teracom DC Kaknas,Sweden,,115 27,Stockholm,Teracom DC Kaknas,Teracom
"
	Dogok IDC is located in the area Seoul, South Korea (Republic of Korea), and the colocation data center is  carrier neutral. The data center was last updated on 25-06-2016.",Dogok IDC,South Korea,,06292,Seoul,Dogok IDC,KINX
"
	Intervolve-AD1 is located in the area Adelaide (South Australia), Australia, and the colocation data center is not  carrier neutral. The data center was last updated on 26-06-2016.",Intervolve-AD1,Australia,South Australia,5000,Adelaide,Intervolve-AD1,Intervolve
"
	Intervolve Pooraka is located in the area Adelaide (South Australia), Australia, and the colocation data center is  carrier neutral. The data center was last updated on 27-01-2017.",Intervolve Pooraka,Australia,South Australia,5095,Pooraka,Intervolve Pooraka,Intervolve
"
	Back Up Recovery Corp. is located in the area Petersburg, USA (America), and the colocation data center is not  carrier neutral. The data center was last updated on 03-07-2016.",Back Up Recovery Corp.,USA,West Virginia,26847,Petersburg,Back Up Recovery Corp.,Back Up Recovery Corporation
"
	LightSpeed Hosting is located in the area Cleveland, USA (America), and the colocation data center is  carrier neutral. The data center was last updated on 01-07-2016.",LightSpeed Hosting,USA,Ohio,44256,Medina,,LightSpeed Hosting
"
	CSC Asia Pacific ltd is located in the area Hong Kong, Hong Kong (Hong Kong, SAR of China), and the colocation data center is  carrier neutral. The data center was last updated on 03-07-2016.",CSC Asia Pacific ltd,Hong Kong,Hong Kong,99999,Wan chai,CSC Asia Pacific ltd,CSC Asia Pacific Ltd
"
	SEATEL CDC is located in the area Phnom Penh, Cambodia (Kingdom of Cambodia), and the colocation data center is not  carrier neutral. The data center was last updated on 04-07-2016.",SEATEL CDC,Cambodia,Phnom Penh,12305,Phnom Penh,SEATEL CDC,ssstel
"
	Epsilon Global Hubs is located in the area Singapore, Singapore, and the colocation data center is  carrier neutral. The data center was last updated on 05-07-2016.",Epsilon Global Hubs,Singapore,Singapore,556741,Singapore,Epsilon Global Hubs,Epsilon Telecommunications
"
	Epsilon Global Hubs is located in the area Hong Kong, Hong Kong (Hong Kong, SAR of China), and the colocation data center is  carrier neutral. The data center was last updated on 05-07-2016.",Epsilon Global Hubs,Hong Kong,,000000,Chai Wan,Epsilon Global Hubs,Epsilon Telecommunications
"
	KISUMU DATA CENTRE is located in the area Nairobi, Kenya (Republic of Kenya), and the colocation data center is  carrier neutral. The data center was last updated on 05-07-2016.",KISUMU DATA CENTRE,Kenya,,66827-00800,Kisumu,KISUMU DATA CENTRE,Safaricom
"
	ESDS Mumbai DC is located in the area Mumbai, India, and the colocation data center is not  carrier neutral. The data center was last updated on 06-07-2016.",ESDS Mumbai DC,India,Maharashtra,400710,Mumbai,ESDS Mumbai DC,ESDS
"
	THCServers Romania is located in the area Craiova, Romania, and the colocation data center is not  carrier neutral. The data center was last updated on 12-07-2016.",THCServers Romania,Romania,Dolj,20620,Carcea,THCServers Romania,SC THC Projects SRL
"
	AmazeDC S1 is located in the area Sydney (New South Wales), Australia, and the colocation data center is not  carrier neutral. The data center was last updated on 10-07-2016.",AmazeDC S1,Australia,NSW,2017,Waterloo,AmazeDC S1,Amaze
"
	Datalahti is located in the area Helsinki, Finland (Suomi), and the colocation data center is  carrier neutral. The data center was last updated on 14-07-2016.",Datalahti,Finland,,00510,Helsinki,Datalahti,Datalahti Oy
"
	Datacenter DTS is located in the area Skopje, Macedonia (Republic of Macedonia), and the colocation data center is not  carrier neutral. The data center was last updated on 12-07-2016.",Datacenter DTS,Macedonia,,1000,Skopje,,Datacenter DTS
"
	CCNET (New Taipei City Data Center) is located in the area Taipei, Taiwan (Formosa), and the colocation data center is  carrier neutral. The data center was last updated on 21-07-2016.",CCNET (New Taipei City Data Center),Taiwan,"New Taipei City 221, Taiwan 22102",22102,Xizhi Dist,CCNET (New Taipei City Data Center),Names.tw LTD
"
	HINET Taichung Data Cneter is located in the area Taichung, Taiwan (Formosa), and the colocation data center is not  carrier neutral. The data center was last updated on 21-07-2016.",HINET Taichung Data Cneter,Taiwan,Taichung City,40873,Nantun Dist.,HINET Taichung Data Cneter,Names.tw LTD
"
	EdgeConneX Miami - EDCMIA02 is located in the area Miami, USA (America), and the colocation data center is not  carrier neutral. The data center was last updated on 26-07-2016.",EdgeConneX Miami - EDCMIA02,USA,Florida,33179,Miami Gardens,EdgeConneX Miami - EDCMIA02,EdgeConneX
"
	EdgeConneX Slidell - EDCSLI01 is located in the area New Orleans, USA (America), and the colocation data center is not  carrier neutral. The data center was last updated on 26-07-2016.",EdgeConneX Slidell - EDCSLI01,USA,Louisiana,70461,Slidell,EdgeConneX Slidell - EDCSLI01,EdgeConneX
"
	TierPoint Chicago is located in the area Chicago, USA (America), and the colocation data center is  carrier neutral. The data center was last updated on 29-07-2016.",TierPoint Chicago,USA,Illinois,60607,Chicago,TierPoint Chicago,TierPoint
"
	TierPoint Florida is located in the area Jacksonville, USA (America), and the colocation data center is  carrier neutral. The data center was last updated on 27-07-2016.",TierPoint Florida,USA,Florida,32256,Jacksonville,TierPoint Florida,TierPoint
"
	VNPT Data - Nam Thang Long is located in the area Hanoi (Hà N?i), Vietnam (Socialist Republic of Vietnam), and the colocation data center is not  carrier neutral. The data center was last updated on 08-08-2016.",VNPT Data - Nam Thang Long,Vietnam,,100000,Bac Tu Liem,VNPT Data - Nam Thang Long,VNPT Data Company
"
	CtrlS Data Center is located in the area Hyderabad, India, and the colocation data center is  carrier neutral. The data center was last updated on 20-12-2016.",CtrlS Data Center,India,Telangana,500081,Hitech City,CtrlS Data Center,CtrlS
"
	Datacenter Limited is located in the area Perth (Western Australia), Australia, and the colocation data center is  carrier neutral. The data center was last updated on 11-08-2016.",Datacenter Limited,Australia,WA,6021,Perth,,Datacenter Limited
"
	Marousi Cloud Module 1 is located in the area Athens (Athina), Greece (Hellenic Republic), and the colocation data center is not  carrier neutral. The data center was last updated on 09-08-2016.",Marousi Cloud Module 1,Greece,Attiki,15125,Marousi,Marousi Cloud Module 1,Hostmein IKE
"
	Plan B Tarndale is located in the area Auckland, New Zealand, and the colocation data center is  carrier neutral. The data center was last updated on 11-08-2016.",Plan B Tarndale,New Zealand,,0632,Auckland,Plan B Tarndale,Plan B Limited
"
	ICONZ Airedale is located in the area Auckland, New Zealand, and the colocation data center is  carrier neutral. The data center was last updated on 31-08-2016.",ICONZ Airedale,New Zealand,,1010,Auckland,ICONZ Airedale,Plan B Limited
"
	Plan B Tawa is located in the area Wellington, New Zealand, and the colocation data center is  carrier neutral. The data center was last updated on 11-08-2016.",Plan B Tawa,New Zealand,,5028,Wellington,Plan B Tawa,Plan B Limited
"
	Plan B Christchurch is located in the area Christchurch, New Zealand, and the colocation data center is  carrier neutral. The data center was last updated on 11-08-2016.",Plan B Christchurch,New Zealand,,8024,Christchurch,Plan B Christchurch,Plan B Limited
"
	QTSC is located in the area Ho Chi Minh City, Vietnam (Socialist Republic of Vietnam), and the colocation data center is  carrier neutral. The data center was last updated on 27-08-2016.",QTSC,Vietnam,,70000,Ho Chi Minh,QTSC,World Email Co. Ltd
"
	FullControl Network is located in the area Kansas City KS, USA (America), and the colocation data center is not  carrier neutral. The data center was last updated on 11-08-2016.",FullControl Network,USA,Kansas,66215,Lenexa,FullControl Network,"FullControl Network, Inc"
"
	COL2 is located in the area Columbus, USA (America), and the colocation data center is  carrier neutral. The data center was last updated on 31-08-2016.",COL2,USA,Ohio,43215,Columbus,COL2,"Information and Communications Services, LLC"
"
	Miran-1 is located in the area Saint Petersburg (Sankt-Peterburg), Russia, and the colocation data center is  carrier neutral. The data center was last updated on 30-08-2016.",Miran-1,Russia,,194044,Saint-Petersburg,Miran-1,Miran
"
	UPX Campinas is located in the area Campinas, Brazil (Brasil), and the colocation data center is not  carrier neutral. The data center was last updated on 01-09-2016.",UPX Campinas,Brazil,Sao Paulo,13097160,Campinas,UPX Campinas,UPX Technologies
"
	London One is located in the area London, United Kingdom (UK), and the colocation data center is  carrier neutral. The data center was last updated on 01-09-2016.",London One,United Kingdom,Berkshire,SL1,Slough,London One,Zenium Technology Partners Limited
"
	AdNet - Cluj Napoca is located in the area Cluj Napoca, Romania, and the colocation data center is not  carrier neutral. The data center was last updated on 13-04-2017.",AdNet - Cluj Napoca,Romania,Cluj,400380,Cluj Napoca,AdNet - Cluj Napoca,AdNet Telecom
"
	Astrec Data Johvi is located in the area Johvi, Estonia (Eesti Vabariik), and the colocation data center is not  carrier neutral. The data center was last updated on 02-09-2016.",Astrec Data Johvi,Estonia,,41537,Johvi,Astrec Data Johvi,Astrec Data
"
	Datanet AHF Fleet Data Centre is located in the area Fleet, United Kingdom (UK), and the colocation data center is not  carrier neutral. The data center was last updated on 23-09-2016.",Datanet AHF Fleet Data Centre,United Kingdom,Hampshire,GU51 2UT,Fleet,Datanet AHF Fleet Data Centre,Datanet.co.uk Ltd
"
	Dinclix GroundWorks is located in the area Indore, India, and the colocation data center is not  carrier neutral. The data center was last updated on 19-09-2016.",Dinclix GroundWorks,India,,452010,Sukhliya,,Dinclix GroundWorks
"
	TWM Cloud IDC is located in the area Taipei, Taiwan (Formosa), and the colocation data center is not  carrier neutral. The data center was last updated on 26-09-2016.",TWM Cloud IDC,Taiwan,,114,Neihu District,TWM Cloud IDC,Taiwan Mobile
"
	Sicily Hub is located in the area Palermo, Italy (Italia), and the colocation data center is  carrier neutral. The data center was last updated on 05-10-2016.",Sicily Hub,Italy,,90146,Palermo,Sicily Hub,Telecom Italia Sparkle
"
	AB Network is located in the area Panama City, Panama, and the colocation data center is  carrier neutral. The data center was last updated on 06-10-2016.",AB Network,Panama,Panama,0507,Panama City,,AB Network
"
	KUES DATA is located in the area Saarland, Germany (Deutschland), and the colocation data center is  carrier neutral. The data center was last updated on 27-10-2016.",KUES DATA,Germany,,66679,Losheim am See,KUES DATA,KÜS DATA GmbH
"
	ATL-1 is located in the area Atlanta, USA (America), and the colocation data center is  carrier neutral. The data center was last updated on 07-10-2016.",ATL-1,USA,Georgia,30329,Brookhaven,ATL-1,dcBLOX Inc.
"
	CHA-1 is located in the area Chattanooga, USA (America), and the colocation data center is  carrier neutral. The data center was last updated on 07-10-2016.",CHA-1,USA,Tennessee,37408,Chattanooga,CHA-1,dcBLOX Inc.
"
	Crown Mines Data Centre is located in the area Johannesburg (Jozi), South Africa, and the colocation data center is not  carrier neutral. The data center was last updated on 10-11-2016.",Crown Mines Data Centre,South Africa,Gauteng,1685,Johannesburg,Crown Mines Data Centre,Business Connexion
"
	BCX Midrand NDC2 is located in the area Johannesburg (Jozi), South Africa, and the colocation data center is  carrier neutral. The data center was last updated on 10-11-2016.",BCX Midrand NDC2,South Africa,Gauteng,1685,Johannesburg,BCX Midrand NDC2,Business Connexion
"
	RackStorm.net is located in the area Gibraltar, Gibraltar, and the colocation data center is  carrier neutral. The data center was last updated on 18-10-2016.",RackStorm.net,Gibraltar,,GX111AA,Gibraltar,RackStorm.net,Rackstorm
"
	NetSupport is located in the area Peterborough, United Kingdom (UK), and the colocation data center is not  carrier neutral. The data center was last updated on 17-10-2016.",NetSupport,United Kingdom,,PE6 8NE,Peterborough,,NetSupport
"
	DCRN II is located in the area Mannheim, Germany (Deutschland), and the colocation data center is not  carrier neutral. The data center was last updated on 19-10-2016.",DCRN II,Germany,,67112,Mutterstadt,DCRN II,"PfalzKom, Gesellschaft für Telekommunikation mbH"
"
	DCRN I is located in the area Mannheim, Germany (Deutschland), and the colocation data center is not  carrier neutral. The data center was last updated on 19-10-2016.",DCRN I,Germany,,67112,Mutterstadt,DCRN I,"PfalzKom, Gesellschaft für Telekommunikation mbH"
"
	Everdata Datacenters is located in the area jaipur, India, and the colocation data center is  carrier neutral. The data center was last updated on 19-10-2016.",Everdata Datacenters,India,Rajasthan,302019,Jaipur,Everdata Datacenters,Everdata Technologies Pvt. Ltd.
"
	ColocationIX Westend is located in the area Bremen, Germany (Deutschland), and the colocation data center is  carrier neutral. The data center was last updated on 26-10-2016.",ColocationIX Westend,Germany,,28195,Bremen,ColocationIX Westend,ColocationIX GmbH
"
	Cloudsmart is located in the area New Haven, USA (America), and the colocation data center is not  carrier neutral. The data center was last updated on 30-10-2016.",Cloudsmart,USA,Connecticut,06405,Branford,,Cloudsmart
"
	FiberDC Teknoloji is located in the area Rize, Turkey (Türkiye), and the colocation data center is not  carrier neutral. The data center was last updated on 27-10-2016.",FiberDC Teknoloji,Turkey,,53100,Rize,FiberDC Teknoloji,FiberDC Data Teknoloji
"
	LuxConnect Data Center DC1.3 is located in the area Bettembourg, Luxembourg (Luxemburg), and the colocation data center is  carrier neutral. The data center was last updated on 02-11-2016.",LuxConnect Data Center DC1.3,Luxembourg,,3235,Bettembourg,LuxConnect Data Center DC1.3,Luxconnect S.A.
"
	VIP datacenter is located in the area Zagreb, Croatia (Republika Hrvatska), and the colocation data center is  carrier neutral. The data center was last updated on 08-12-2016.",VIP datacenter,Croatia,,10000,Zagreb,VIP datacenter,Vipnet d.o.o.
"
	Hindustan Global Cloud Data Center is located in the area Chennai, India, and the colocation data center is not  carrier neutral. The data center was last updated on 09-11-2016.",Hindustan Global Cloud Data Center,India,Tamil Nadu,600018,Chennai,Hindustan Global Cloud Data Center,*HINDUSTAN INDUSTRIAL RESEARCH PRIVATE LIMITE
"
	CtrlS Datacenters is located in the area Mumbai, India, and the colocation data center is  carrier neutral. The data center was last updated on 20-12-2016.",CtrlS Datacenters,India,Maharastra,400710,Mumbai,CtrlS Datacenters,CtrlS
"
	DataMSP is located in the area Minneapolis, USA (America), and the colocation data center is  carrier neutral. The data center was last updated on 12-11-2016.",DataMSP,USA,Minnesota,55404,Minneapolis,DataMSP,DataMSP - DCI Data Centers
"
	One Market Center is located in the area Baltimore, USA (America), and the colocation data center is  carrier neutral. The data center was last updated on 11-11-2016.",One Market Center,USA,Maryland,21201,Baltimore,One Market Center,AiNET
"
	ITA Luanda is located in the area Luanda, Angola (Republic of Angola), and the colocation data center is  carrier neutral. The data center was last updated on 13-03-2017.",ITA Luanda,Angola,,0000,Luanda,ITA Luanda,"ITA - Internet Technologies Angola, SA"
"
	CloudOYE is located in the area NOIDA, India, and the colocation data center is not  carrier neutral. The data center was last updated on 14-11-2016.",CloudOYE,India,Uttar Pradesh,201305,NOIDA,,CloudOYE
"
	Liepkalnis Tier 3 is located in the area Vilnius, Lithuania (Republic of Lithuania), and the colocation data center is  carrier neutral. The data center was last updated on 30-11-2016.",Liepkalnis Tier 3,Lithuania,,02121,Vilnius,Liepkalnis Tier 3,"Baltnetos komunikacijos, UAB"
"
	Castle IT is located in the area Tours, France (Française), and the colocation data center is  carrier neutral. The data center was last updated on 23-11-2016.",Castle IT,France,,37270,Larcay,,Castle IT
"
	Fibre Centre is located in the area Moncton, Canada, and the colocation data center is  carrier neutral. The data center was last updated on 19-12-2016.",Fibre Centre,Canada,New Brunswick,NB E1E 2C6,Moncton,,Fibre Centre
"
	EHOST IDC is located in the area Seoul, South Korea (Republic of Korea), and the colocation data center is  carrier neutral. The data center was last updated on 02-01-2017.",EHOST IDC,South Korea,,37371,Seoul,EHOST IDC,Ehost IDC
"
	Atlas Cloud is located in the area Vancouver, Canada, and the colocation data center is  carrier neutral. The data center was last updated on 21-12-2016.",Atlas Cloud,Canada,BC,V5T 1H4,Vancouver,,Atlas Cloud
"
	Infonet DC is located in the area Tallinn, Estonia (Eesti Vabariik), and the colocation data center is  carrier neutral. The data center was last updated on 21-12-2016.",Infonet DC,Estonia,,10313,Tallinn,,Infonet DC
"
	STT MediaHub is located in the area Singapore, Singapore, and the colocation data center is  carrier neutral. The data center was last updated on 22-12-2016.",STT MediaHub,Singapore,,138552,One North,STT MediaHub,ST Telemedia Global Data Centres
"
	STT Defu is located in the area Singapore, Singapore, and the colocation data center is  carrier neutral. The data center was last updated on 22-12-2016.",STT Defu,Singapore,,539539,Defu,STT Defu,ST Telemedia Global Data Centres
"
	Chicago Hosting is located in the area Chicago, USA (America), and the colocation data center is not  carrier neutral. The data center was last updated on 25-01-2017.",Chicago Hosting,USA,Illinois,60563,Naperville,,Chicago Hosting
"
	Cloud9 Data Center is located in the area Tbilisi, Georgia, and the colocation data center is  carrier neutral. The data center was last updated on 29-03-2017.",Cloud9 Data Center,Georgia,,0112,Tbilisi,Cloud9 Data Center,Cloud9 LLC
"
	Ultranet Telecom is located in the area Sao Paulo (São Paulo), Brazil (Brasil), and the colocation data center is  carrier neutral. The data center was last updated on 19-01-2017.",Ultranet Telecom,Brazil,,01539-020,Cambuci,,Ultranet Telecom
"
	KT Mokdong 2nd DC is located in the area Seoul, South Korea (Republic of Korea), and the colocation data center is  carrier neutral. The data center was last updated on 02-01-2017.",KT Mokdong 2nd DC,South Korea,,07991,Seoul,KT Mokdong 2nd DC,kt
"
	Cohere Communications - Westchester is located in the area Westchester County, USA (America), and the colocation data center is  carrier neutral. The data center was last updated on 05-01-2017.",Cohere Communications - Westchester,USA,New York,10591,Tarrytown,Cohere Communications - Westchester,Cohere Communications
"
	HQserv is located in the area Tel Aviv, Israel, and the colocation data center is not  carrier neutral. The data center was last updated on 14-01-2017.",HQserv,Israel,,7745237,Ashdod,,HQserv
"
	Atlas Business Bunker Datacentre is located in the area Crewe, United Kingdom (UK), and the colocation data center is not  carrier neutral. The data center was last updated on 16-01-2017.",Atlas Business Bunker Datacentre,United Kingdom,,CW5 8AP,Nantwich,Atlas Business Bunker Datacentre,Atlas Business Group of Companies Ltd
"
	Unix-Solutions Datacenter Leuven is located in the area Leuven, Belgium, and the colocation data center is  carrier neutral. The data center was last updated on 13-01-2017.",Unix-Solutions Datacenter Leuven,Belgium,,3001,Leuven,Unix-Solutions Datacenter Leuven,Unix-Solutions
"
	Gold Coast Data Centre is located in the area Gold Coast, Australia, and the colocation data center is not  carrier neutral. The data center was last updated on 17-01-2017.",Gold Coast Data Centre,Australia,Queensland,4215,Southport,,Gold Coast Data Centre
"
	DDS is located in the area Timisoara, Romania, and the colocation data center is not  carrier neutral. The data center was last updated on 16-01-2017.",DDS,Romania,Timis,300264,Timisoara,DDS,DDS by INTEL WEB HOSTING
"
	The Network @ 701 E Trade is located in the area Charlotte, USA (America), and the colocation data center is  carrier neutral. The data center was last updated on 27-01-2017.",The Network @ 701 E Trade,USA,North Carolina,28202,Charlotte,The Network @ 701 E Trade,Lincoln Rackhouse
"
	ACG Data Center is located in the area Kabul, Afghanistan, and the colocation data center is not  carrier neutral. The data center was last updated on 19-02-2017.",ACG Data Center,Afghanistan,Kabul,1002,Kabul,ACG Data Center,Asia Consultancy Group
"
	Smart Networks is located in the area Caguas, Puerto Rico, and the colocation data center is  carrier neutral. The data center was last updated on 03-04-2017.",Smart Networks,Puerto Rico,PR,00726,Valle Tolima,Smart Networks,SmartNetworks
"
	SUPERNAP Italia is located in the area Milan (Milano), Italy (Italia), and the colocation data center is  carrier neutral. The data center was last updated on 09-02-2017.",SUPERNAP Italia,Italy,,27010,Siziano,,SUPERNAP Italia
"
	XMission Data Center is located in the area Salt Lake City, USA (America), and the colocation data center is  carrier neutral. The data center was last updated on 02-02-2017.",XMission Data Center,USA,Utah,84111,Salt Lake City,XMission Data Center,XMission
"
	421 West Churst Street (JAX) is located in the area Jacksonville, USA (America).",421 West Churst Street (JAX),,,,,,
"
	Herman IT Data Center is located in the area Kajaani, Finland (Suomi), and the colocation data center is  carrier neutral. The data center was last updated on 06-02-2017.",Herman IT Data Center,Finland,,87100,Kajaani,Herman IT Data Center,Herman IT Ltd.
"
	Cyfuture Data Center is located in the area Noida, India, and the colocation data center is not  carrier neutral. The data center was last updated on 06-02-2017.",Cyfuture Data Center,India,Uttar Pradesh,201305,Noida,,Cyfuture Data Center
"
	datacentreplus is located in the area Manchester, United Kingdom (UK), and the colocation data center is  carrier neutral. The data center was last updated on 03-04-2017.",datacentreplus,United Kingdom,Greater Manchester,M50 2ZY,Manchester,datacentreplus,Datacentreplus
"
	Hydro66 is located in the area Boden, Sweden (Sverige), and the colocation data center is  carrier neutral. The data center was last updated on 09-02-2017.",Hydro66,Sweden,,961 43,Boden,,Hydro66
"
	1807 Michael Faraday is located in the area Reston, USA (America), and the colocation data center is  carrier neutral. The data center was last updated on 08-02-2017.",1807 Michael Faraday,USA,Virginia,20190,Reston,1807 Michael Faraday,Lincoln Rackhouse
"
	4WEB Edmonton Data Center #1 is located in the area Edmonton, Canada, and the colocation data center is  carrier neutral. The data center was last updated on 07-02-2017.",4WEB Edmonton Data Center #1,Canada,Alberta,T5L4S6,Edmonton NW,4WEB Edmonton Data Center #1,4WEB.CA
"
	Datacenter LSZR , Rhein-Tec GmbH is located in the area Zürich, Switzerland (Schweiz), and the colocation data center is not  carrier neutral. The data center was last updated on 10-02-2017.","Datacenter LSZR , Rhein-Tec GmbH",Switzerland,Sankt Gallen,9014,Sankt Gallen,"Datacenter LSZR , Rhein-Tec GmbH",Rhein Tec GmbH
"
	Linux Security Group is located in the area Freiburg, Germany (Deutschland), and the colocation data center is not  carrier neutral. The data center was last updated on 14-02-2017.",Linux Security Group,Germany,,79541,Lorrach,,Linux Security Group
"
	GLCC is located in the area Lake Park, USA (America), and the colocation data center is not  carrier neutral. The data center was last updated on 15-02-2017.",GLCC,USA,Iowa,51347,Lakre Park,GLCC,Great Lakes Communication Corp
"
	Net-Build Datacenter RZ Saar 1 is located in the area Saarlouis, Germany (Deutschland), and the colocation data center is not  carrier neutral. The data center was last updated on 15-02-2017.",Net-Build Datacenter RZ Saar 1,Germany,Saarland,66793,Saarwellingen,Net-Build Datacenter RZ Saar 1,Net-Build GmbH
"
	Globalhost Data Center is located in the area Novi Travnik, Bosnia and Herzegovina, and the colocation data center is not  carrier neutral. The data center was last updated on 18-02-2017.",Globalhost Data Center,Bosnia and Herzegovina,FBIH,72290,Novi Travnik,Globalhost Data Center,Globalhost d.o.o.
"
	Globecomm NY is located in the area New York, USA (America), and the colocation data center is not  carrier neutral. The data center was last updated on 16-02-2017.",Globecomm NY,USA,New York,11788,Hauppauge,Globecomm NY,Globecomm
"
	HOSTLINE DC1 is located in the area Vilnius, Lithuania (Republic of Lithuania), and the colocation data center is  carrier neutral. The data center was last updated on 22-02-2017.",HOSTLINE DC1,Lithuania,,02189,Vilnius,HOSTLINE DC1,"HOSTLINE, UAB"
"
	Bluebird Underground is located in the area Springfield, USA (America), and the colocation data center is  carrier neutral. The data center was last updated on 16-02-2017.",Bluebird Underground,USA,Missouri,65802,Springfield,,Bluebird Underground
"
	NAIROBI is located in the area NAIROBI, KENYA (Republic of Kenya), and the colocation data center is not  carrier neutral. The data center was last updated on 22-02-2017.",NAIROBI,KENYA,,00100,NAIROBI,NAIROBI,RYANADA LIMITED
"
	Atlantic Technology Centre is located in the area Charlottetown, Canada, and the colocation data center is  carrier neutral. The data center was last updated on 02-03-2017.",Atlantic Technology Centre,Canada,Prince Edward Island,C1A 4K9,Charlottetown,,Atlantic Technology Centre
"
	TierPoint Charlotte 4 is located in the area Charlotte, USA (America), and the colocation data center is  carrier neutral. The data center was last updated on 23-02-2017.",TierPoint Charlotte 4,USA,North Carolina,28217,Charlotte,TierPoint Charlotte 4,TierPoint
"
	TierPoint Raleigh- RTP is located in the area Durham, USA (America), and the colocation data center is  carrier neutral. The data center was last updated on 23-02-2017.",TierPoint Raleigh- RTP,USA,North Carolina,27709,Durham,TierPoint Raleigh- RTP,TierPoint
"
	TierPoint St. Louis-Walnut is located in the area St. Louis, USA (America), and the colocation data center is  carrier neutral. The data center was last updated on 23-02-2017.",TierPoint St. Louis-Walnut,USA,Missouri,63102,St. Louis,TierPoint St. Louis-Walnut,TierPoint
"
	TierPoint St. Louis-Olive is located in the area St. Louis, USA (America), and the colocation data center is  carrier neutral. The data center was last updated on 23-02-2017.",TierPoint St. Louis-Olive,USA,Missouri,63101,St. Louis,TierPoint St. Louis-Olive,TierPoint
"
	TierPoint Nashville is located in the area Nashville, USA (America), and the colocation data center is  carrier neutral. The data center was last updated on 23-02-2017.",TierPoint Nashville,USA,Tennessee,37064,Nashville,TierPoint Nashville,TierPoint
"
	TierPoint Conshohocken is located in the area Philadelphia, USA (America), and the colocation data center is  carrier neutral. The data center was last updated on 23-02-2017.",TierPoint Conshohocken,USA,Pennsylvania,19428,Conshohocken,TierPoint Conshohocken,TierPoint
"
	TierPoint Boston-Andover is located in the area Boston, USA (America), and the colocation data center is  carrier neutral. The data center was last updated on 23-02-2017.",TierPoint Boston-Andover,USA,Massachusetts,01810,Andover,TierPoint Boston-Andover,TierPoint
"
	TierPoint Little Rock is located in the area Little Rock, USA (America), and the colocation data center is  carrier neutral. The data center was last updated on 23-02-2017.",TierPoint Little Rock,USA,Arkansas,72223,Little Rock,TierPoint Little Rock,TierPoint
"
	TierPoint Chicago-West is located in the area Chicago, USA (America), and the colocation data center is  carrier neutral. The data center was last updated on 23-02-2017.",TierPoint Chicago-West,USA,Illinois,60131,Franklin Park,TierPoint Chicago-West,TierPoint
"
	TierPoint Lehigh Valley is located in the area Philadelphia, USA (America), and the colocation data center is  carrier neutral. The data center was last updated on 23-02-2017.",TierPoint Lehigh Valley,USA,Pennsylvania,18017,Bethlehem,TierPoint Lehigh Valley,TierPoint
"
	SH Data Centers is located in the area Knoxville, USA (America), and the colocation data center is  carrier neutral. The data center was last updated on 07-03-2017.",SH Data Centers,USA,Tennessee,37917,Knoxville,,SH Data Centers
"
	SOLOIDC Technologies Pvt Ltd is located in the area Noida, India, and the colocation data center is  carrier neutral. The data center was last updated on 02-03-2017.",SOLOIDC Technologies Pvt Ltd,India,Uttar Pradesh,201307,Noida,,SOLOIDC Technologies Pvt Ltd
"
	DEAC ""Grizinkalns"" is located in the area Riga, Latvia (Latvija), and the colocation data center is  carrier neutral. The data center was last updated on 03-11-2016.","DEAC ""Grizinkalns""",Latvia,,LV1009,Riga,"DEAC ""Grizinkalns""",DEAC
"
	DEAC ""Riga"" is located in the area Riga, Latvia (Latvija), and the colocation data center is  carrier neutral. The data center was last updated on 03-11-2016.","DEAC ""Riga""",Latvia,,1063,Riga,"DEAC ""Riga""",DEAC
"
	Caronet Engineered Hosting is located in the area Charlotte, USA (America), and the colocation data center is  carrier neutral. The data center was last updated on 20-11-2014.",Caronet Engineered Hosting,USA,North Carolina,28217,Charlotte,Caronet Engineered Hosting,Caronet
"
	4D - Sirius 2 is located in the area Surrey, United Kingdom (UK), and the colocation data center is  carrier neutral. The data center was last updated on 27-10-2010.",4D - Sirius 2,United Kingdom,Surrey,KT14 7JU,Byfleet,4D - Sirius 2,4D Data Centres Ltd
"
	US Secure Hosting Center is located in the area Monticello, USA (America), and the colocation data center is  carrier neutral. The data center was last updated on 30-01-2010.",US Secure Hosting Center,USA,Iowa,52310,Monticello,,US Secure Hosting Center
"
	Alterascape is located in the area Orlando, USA (America), and the colocation data center is  carrier neutral. The data center was last updated on 23-09-2014.",Alterascape,USA,Florida,34741,Kissimmee,Alterascape,"Alterascape, LLC"
"
	NIXVAL is located in the area Valencia, Spain (España), and the colocation data center is  carrier neutral. The data center was last updated on 14-12-2016.",NIXVAL,Spain,,46988,Valencia,,NIXVAL
"
	Web Werks IDC is located in the area Mumbai, India, and the colocation data center is  carrier neutral. The data center was last updated on 13-02-2009.",Web Werks IDC,India,,400025,Mumbai,Web Werks IDC,Web Werks India Pvt. Ltd.
"
	RagingWire - Sacramento CA is located in the area Sacramento, USA (America), and the colocation data center is  carrier neutral. The data center was last updated on 02-01-2013.",RagingWire - Sacramento CA,USA,California,95834,Sacramento,RagingWire - Sacramento CA,RagingWire Data Centers
"
	Cologix Columbus Data Centers is located in the area Columbus, USA (America), and the colocation data center is  carrier neutral. The data center was last updated on 08-04-2015.",Cologix Columbus Data Centers,USA,Ohio,43085,Columbus,Cologix Columbus Data Centers,Cologix
"
	Patrick Hosting is located in the area Columbus, USA (America), and the colocation data center is  carrier neutral. The data center was last updated on 22-02-2013.",Patrick Hosting,USA,Ohio,43212,Columbus,Patrick Hosting,Patrick Solutions Inc.
"
	Cologix Data Center (JAX 2) is located in the area Jacksonville, USA (America), and the colocation data center is  carrier neutral. The data center was last updated on 13-04-2015.",Cologix Data Center (JAX 2),USA,Florida,32207,Jacksonville,Cologix Data Center (JAX 2),Cologix
"
	OnRamp Austin I is located in the area Austin, USA (America), and the colocation data center is  carrier neutral. The data center was last updated on 20-02-2015.",OnRamp Austin I,USA,Texas,78741,Austin,OnRamp Austin I,OnRamp
"
	SH1 is located in the area Geneva (Genève), Switzerland (Schweiz), and the colocation data center is  carrier neutral. The data center was last updated on 20-05-2016.",SH1,Switzerland,,1228,Plan-le-Ouates,SH1,Safe Host SA
"
	OnRamp Austin II is located in the area Austin, USA (America), and the colocation data center is  carrier neutral. The data center was last updated on 20-02-2015.",OnRamp Austin II,USA,Texas,78744,Austin,OnRamp Austin II,OnRamp
"
	FORTRUST is located in the area Denver, USA (America), and the colocation data center is  carrier neutral. The data center was last updated on 17-12-2013.",FORTRUST,USA,Colorado,80216,Denver,,FORTRUST
"
	2260 E El Segundo Blvd is located in the area Los Angeles, USA (America), and the colocation data center is  carrier neutral. The data center was last updated on 21-09-2011.",2260 E El Segundo Blvd,USA,California,90245,El Segundo,2260 E El Segundo Blvd,Digital Realty
"
	Host-it is located in the area Northamptonshire, United Kingdom (UK), and the colocation data center is not  carrier neutral. The data center was last updated on 16-06-2008.",Host-it,United Kingdom,,NN3 6LG,Northampton,Host-it,nuco technologies ltd
"
	365 Main Street is located in the area San Francisco, USA (America), and the colocation data center is  carrier neutral. The data center was last updated on 22-09-2011.",365 Main Street,USA,California,94105,San Francisco,365 Main Street,Digital Realty
"
	5119 District Boulevard is located in the area Los Angeles, USA (America), and the colocation data center is  carrier neutral. The data center was last updated on 05-10-2007.",5119 District Boulevard,USA,California,90040,Vernon,5119 District Boulevard,Digital Realty
"
	2121 South Price Road is located in the area Phoenix, USA (America), and the colocation data center is  carrier neutral. The data center was last updated on 22-09-2011.",2121 South Price Road,USA,Arizona,85248,Chandler,2121 South Price Road,Digital Realty
"
	4030 & 4050 Lafayette Center is located in the area Chantilly, USA (America), and the colocation data center is  carrier neutral. The data center was last updated on 05-10-2007.",4030 & 4050 Lafayette Center,USA,Virginia,20151,Chantilly,4030 & 4050 Lafayette Center,Digital Realty
"
	Cologix Data Center (MTL 7) is located in the area Montreal, Canada, and the colocation data center is  carrier neutral. The data center was last updated on 13-02-2015.",Cologix Data Center (MTL 7),Canada,Quebec,H3B 3A7,Montreal,Cologix Data Center (MTL 7),Cologix
"
	720 2nd Street is located in the area Oakland, USA (America), and the colocation data center is  carrier neutral. The data center was last updated on 21-09-2011.",720 2nd Street,USA,California,94607,Oakland,720 2nd Street,Digital Realty
"
	Over the Wire - 24 Little Edward is located in the area Brisbane (Queensland), Australia, and the colocation data center is  carrier neutral. The data center was last updated on 21-11-2013.",Over the Wire - 24 Little Edward,Australia,Queensland,4000,Brisbane,Over the Wire - 24 Little Edward,Over the Wire Holdings Ltd
"
	City Lifeline is located in the area London, United Kingdom (UK), and the colocation data center is  carrier neutral. The data center was last updated on 23-07-2013.",City Lifeline,United Kingdom,,EC2A 4HB,London,City Lifeline,Redcentric
"
	Paul Van Vlissingenstraat 16 is located in the area Amsterdam, The Netherlands (Holland), and the colocation data center is  carrier neutral. The data center was last updated on 22-09-2011.",Paul Van Vlissingenstraat 16,The Netherlands,,1096 BK,Amsterdam,Paul Van Vlissingenstraat 16,Digital Realty
"
	Databurg Frankfurt is located in the area Frankfurt (Frankfurt am Main), Germany (Deutschland), and the colocation data center is  carrier neutral. The data center was last updated on 08-06-2015.",Databurg Frankfurt,Germany,,60326,Frankfurt,Databurg Frankfurt,TELEHOUSE Europe
"
	7500 Metro Center Drive is located in the area Austin, USA (America), and the colocation data center is  carrier neutral. The data center was last updated on 14-09-2011.",7500 Metro Center Drive,USA,Texas,78704,Austin,7500 Metro Center Drive,Digital Realty
"
	47700 Kato Road & 1055 Page Avenue is located in the area Fremont, USA (America), and the colocation data center is  carrier neutral. The data center was last updated on 09-10-2007.",47700 Kato Road & 1055 Page Avenue,USA,California,94608,Fremont,47700 Kato Road & 1055 Page Avenue,Digital Realty
"
	731 East Trade Street is located in the area Charlotte, USA (America), and the colocation data center is  carrier neutral. The data center was last updated on 09-10-2007.",731 East Trade Street,USA,North Carolina,28202,Charlotte,731 East Trade Street,Digital Realty
"
	600-780 South Federal is located in the area Chicago, USA (America), and the colocation data center is  carrier neutral. The data center was last updated on 21-09-2011.",600-780 South Federal,USA,Illinois,60605,Chicago,600-780 South Federal,Digital Realty
"
	4700 Old Ironsides Drive is located in the area Santa Clara, USA (America), and the colocation data center is  carrier neutral. The data center was last updated on 09-10-2007.",4700 Old Ironsides Drive,USA,California,95054,Santa Clara,4700 Old Ironsides Drive,Digital Realty
"
	4650 Old Ironsides Drive is located in the area Santa Clara, USA (America), and the colocation data center is  carrier neutral. The data center was last updated on 09-10-2007.",4650 Old Ironsides Drive,USA,California,95054,Santa Clara,4650 Old Ironsides Drive,Digital Realty
"
	43791 Devin Shafron Drive is located in the area Ashburn, USA (America), and the colocation data center is  carrier neutral. The data center was last updated on 09-10-2007.",43791 Devin Shafron Drive,USA,Virginia,20146,Ashburn,43791 Devin Shafron Drive,Digital Realty
"
	43881 Devin Shafron Drive is located in the area Ashburn, USA (America), and the colocation data center is  carrier neutral. The data center was last updated on 09-10-2007.",43881 Devin Shafron Drive,USA,Virginia,20146,Ashburn,43881 Devin Shafron Drive,Digital Realty
"
	375 Riverside Parkway is located in the area Atlanta, USA (America), and the colocation data center is  carrier neutral. The data center was last updated on 09-10-2007.",375 Riverside Parkway,USA,Georgia,30122,Lithia Springs,375 Riverside Parkway,Digital Realty
"
	36 NE 2nd Street is located in the area Miami, USA (America), and the colocation data center is  carrier neutral. The data center was last updated on 21-09-2011.",36 NE 2nd Street,USA,Florida,33132,Miami,36 NE 2nd Street,Digital Realty
"
	8100 Boone Boulevard is located in the area Vienna Virginia, USA (America), and the colocation data center is  carrier neutral. The data center was last updated on 22-09-2011.",8100 Boone Boulevard,USA,Virginia,22182,Vienna,8100 Boone Boulevard,Digital Realty
"
	7620 Metro Center Drive is located in the area Austin, USA (America), and the colocation data center is  carrier neutral. The data center was last updated on 09-10-2007.",7620 Metro Center Drive,USA,Texas,78704,Austin,7620 Metro Center Drive,Digital Realty
"
	600 W 7th Street is located in the area Los Angeles, USA (America), and the colocation data center is  carrier neutral. The data center was last updated on 21-09-2011.",600 W 7th Street,USA,California,90017,Los Angeles,600 W 7th Street,Digital Realty
"
	6 Braham Street is located in the area London, United Kingdom (UK), and the colocation data center is  carrier neutral. The data center was last updated on 09-10-2007.",6 Braham Street,United Kingdom,,UK E1 8,London,6 Braham Street,Digital Realty
"
	4849 Alpha Road is located in the area Dallas, USA (America), and the colocation data center is  carrier neutral. The data center was last updated on 09-10-2007.",4849 Alpha Road,USA,Texas,75214,Dallas,4849 Alpha Road,Digital Realty
"
	Clonshaugh Industrial Estate is located in the area Dublin, Ireland (Éire), and the colocation data center is  carrier neutral. The data center was last updated on 22-09-2011.",Clonshaugh Industrial Estate,Ireland,,0,Clonshaugh,Clonshaugh Industrial Estate,Digital Realty
"
	600 Winter Street is located in the area Boston, USA (America), and the colocation data center is  carrier neutral. The data center was last updated on 09-10-2007.",600 Winter Street,USA,Massachusetts,02451,Boston,600 Winter Street,Digital Realty
"
	6800 Mill Creek Drive is located in the area Mississauga, Canada, and the colocation data center is  carrier neutral. The data center was last updated on 09-10-2007.",6800 Mill Creek Drive,Canada,,0,Mississauga,6800 Mill Creek Drive,Digital Realty
"
	Blanchardstown Corp Park, Unit 9 is located in the area Dublin, Ireland (Éire), and the colocation data center is  carrier neutral. The data center was last updated on 22-09-2011.","Blanchardstown Corp Park, Unit 9",Ireland,,0,Dublin,"Blanchardstown Corp Park, Unit 9",Digital Realty
"
	Digital Realty Paris is located in the area Paris, France (Française), and the colocation data center is  carrier neutral. The data center was last updated on 22-09-2011.",Digital Realty Paris,France,,93200,St Denis,Digital Realty Paris,Digital Realty
"
	8534 Concord Center Drive is located in the area Denver, USA (America), and the colocation data center is  carrier neutral. The data center was last updated on 09-10-2007.",8534 Concord Center Drive,USA,Colorado,80112,Englewood,8534 Concord Center Drive,Digital Realty
"
	Chemin de L'Epinglier 2 is located in the area Geneva (Genève), Switzerland (Schweiz), and the colocation data center is  carrier neutral. The data center was last updated on 09-10-2007.",Chemin de L'Epinglier 2,Switzerland,,1217,Geneva,Chemin de L'Epinglier 2,Digital Realty
"
	350 East Cermak Road is located in the area Chicago, USA (America), and the colocation data center is  carrier neutral. The data center was last updated on 14-09-2011.",350 East Cermak Road,USA,Illinois,60623,Chicago,350 East Cermak Road,Digital Realty
"
	833 Chestnut Street is located in the area Philadelphia, USA (America), and the colocation data center is  carrier neutral. The data center was last updated on 22-09-2011.",833 Chestnut Street,USA,Pennsylvania,19107,Philadelphia,833 Chestnut Street,Digital Realty
"
	101 Aquila Way is located in the area Atlanta, USA (America), and the colocation data center is  carrier neutral. The data center was last updated on 09-10-2007.",101 Aquila Way,USA,Georgia,30168,Austell,101 Aquila Way,Digital Realty
"
	34551 Ardenwood Boulevard is located in the area Fremont, USA (America), and the colocation data center is  carrier neutral. The data center was last updated on 09-10-2007.",34551 Ardenwood Boulevard,USA,California,94555,Fremont,34551 Ardenwood Boulevard,Digital Realty
"
	2010 East Centennial Circle is located in the area Phoenix, USA (America), and the colocation data center is  carrier neutral. The data center was last updated on 09-10-2007.",2010 East Centennial Circle,USA,Arizona,85280,Tempe,2010 East Centennial Circle,Digital Realty
"
	200 Paul Avenue is located in the area San Francisco, USA (America), and the colocation data center is  carrier neutral. The data center was last updated on 22-09-2011.",200 Paul Avenue,USA,California,94110,San Francisco,200 Paul Avenue,Digital Realty
"
	11830 Webb Chapel Road is located in the area Dallas, USA (America), and the colocation data center is  carrier neutral. The data center was last updated on 15-09-2011.",11830 Webb Chapel Road,USA,Texas,75234,Dallas,11830 Webb Chapel Road,Digital Realty
"
	200 North Nash Street is located in the area El Segundo, USA (America), and the colocation data center is  carrier neutral. The data center was last updated on 09-10-2007.",200 North Nash Street,USA,California,90245,El Segundo,200 North Nash Street,Digital Realty
"
	2401 Walsh Street is located in the area Santa Clara, USA (America), and the colocation data center is  carrier neutral. The data center was last updated on 09-10-2007.",2401 Walsh Street,USA,California,95051,Santa Clara,2401 Walsh Street,Digital Realty
"
	100 Quannapowitt Parkway is located in the area Boston, USA (America), and the colocation data center is  carrier neutral. The data center was last updated on 15-09-2011.",100 Quannapowitt Parkway,USA,Massachusetts,01880,Wakefield,100 Quannapowitt Parkway,Digital Realty
"
	150 South First Street is located in the area San Jose, USA (America), and the colocation data center is  carrier neutral. The data center was last updated on 09-10-2007.",150 South First Street,USA,California,95101,San Jose,150 South First Street,Digital Realty
