description,title,country,region,postal code,locality,extend address,name
"
	Datahouse Alphen (Amsterdam) is located in the area Amsterdam, The Netherlands (Holland).",Datahouse Alphen (Amsterdam),,,,,,
"
	Datahouse Amersfoort is located in the area Amersfoort, The Netherlands (Holland), and the colocation data center is  carrier neutral. The data center was last updated on 27-11-2011.",Datahouse Amersfoort,The Netherlands,,3824ml,Amersfoort,Datahouse Amersfoort,Datahouse Datacenters
"
	Data Facilities Spijkenisse is located in the area Rotterdam, The Netherlands (Holland), and the colocation data center is  carrier neutral. The data center was last updated on 28-05-2016.",Data Facilities Spijkenisse,The Netherlands,ZH,3208 KA,Spijkernisse,Data Facilities Spijkenisse,Data Facilities
"
	LDeX1 is located in the area London, United Kingdom (UK), and the colocation data center is  carrier neutral. The data center was last updated on 01-03-2017.",LDeX1,United Kingdom,,NW2 7JA,London,LDeX1,LDeX Group
"
	Datahouse Alphen is located in the area Alphen aan den Rijn, The Netherlands (Holland), and the colocation data center is  carrier neutral. The data center was last updated on 27-11-2011.",Datahouse Alphen,The Netherlands,,2404cd,Alphen a/d Rijn,Datahouse Alphen,Datahouse Datacenters
"
	eASPNet Cloud IDC is located in the area Taipei, Taiwan (Formosa), and the colocation data center is  carrier neutral. The data center was last updated on 30-11-2011.",eASPNet Cloud IDC,Taiwan,,114,Taipei,eASPNet Cloud IDC,eASPNet Taiwan Inc.
"
	TulsaConnect (DC3) Oklahoma is located in the area Tulsa, USA (America), and the colocation data center is  carrier neutral. The data center was last updated on 03-03-2012.",TulsaConnect (DC3) Oklahoma,USA,Oklahoma,74134,Tulsa,TulsaConnect (DC3) Oklahoma,TulsaConnect
"
	FirstHeberg is located in the area Valenciennes, France (Française), and the colocation data center is not  carrier neutral. The data center was last updated on 17-02-2013.",FirstHeberg,France,,59300,Valenciennes,FirstHeberg,Techcréa Solutions SARL
"
	MIDCON Recovery Solutions is located in the area Oklahoma City, USA (America), and the colocation data center is  carrier neutral. The data center was last updated on 29-11-2011.",MIDCON Recovery Solutions,USA,Oklahoma,73114,Oklahoma City,,MIDCON Recovery Solutions
"
	Blue Chip is located in the area Bedford, united Kingdom (UK), and the colocation data center is not  carrier neutral. The data center was last updated on 18-10-2012.",Blue Chip,united Kingdom,,MK44 3JZ,Bedford,,Blue Chip
"
	Volico Deerfield is located in the area Fort Lauderdale, USA (America), and the colocation data center is  carrier neutral. The data center was last updated on 28-02-2013.",Volico Deerfield,USA,Florida,33064,Pompano Beach,Volico Deerfield,Volico Data Centers
"
	Sofia Data Center is located in the area Sofia, Bulgaria, and the colocation data center is  carrier neutral. The data center was last updated on 05-08-2013.",Sofia Data Center,Bulgaria,,1784,Sofia,Sofia Data Center,Neterra Ltd
"
	NavLink Data Center is located in the area Sophia Antipolis, France (Française), and the colocation data center is  carrier neutral. The data center was last updated on 07-12-2011.",NavLink Data Center,France,,06600,Antibes,NavLink Data Center,NavLink
"
	Datacube is located in the area Bratislava, Slovakia (Slovak Republic), and the colocation data center is  carrier neutral. The data center was last updated on 28-12-2011.",Datacube,Slovakia,,85101,Bratislava,Datacube,DCBA s.r.o.
"
	DataZone Internet Data Center is located in the area Cochin, India, and the colocation data center is not  carrier neutral. The data center was last updated on 12-12-2011.",DataZone Internet Data Center,India,Kerala,682025,Cochin,DataZone Internet Data Center,Techmap IT Solution Pvt. Ltd
"
	Teliti Datacentre is located in the area Mukim Labu, Malaysia, and the colocation data center is  carrier neutral. The data center was last updated on 27-02-2012.",Teliti Datacentre,Malaysia,Negeri Sembilan,71760,Bandar Enstek,Teliti Datacentre,Teliti Datacentres
"
	ScaleMatrix is located in the area San Diego, USA (America), and the colocation data center is  carrier neutral. The data center was last updated on 20-12-2011.",ScaleMatrix,USA,California,92123,San Diego,,ScaleMatrix
"
	CyrusOne- Wappingers Falls, NY is located in the area Wappingers Falls, USA (America), and the colocation data center is  carrier neutral. The data center was last updated on 22-07-2015.","CyrusOne- Wappingers Falls, NY",USA,New York,12590,Wappingers Falls,"CyrusOne- Wappingers Falls, NY",CyrusOne
"
	CyrusOne - Norwalk, CT is located in the area Norwalk, USA (America), and the colocation data center is  carrier neutral. The data center was last updated on 22-07-2015.","CyrusOne - Norwalk, CT",USA,Connecticut,06854,Norwalk,"CyrusOne - Norwalk, CT",CyrusOne
"
	NxtGen HDDC is located in the area Bangalore (Bengaluru), India, and the colocation data center is  carrier neutral. The data center was last updated on 29-07-2015.",NxtGen HDDC,India,Karnataka,562109,Bangalore,NxtGen HDDC,NxtGen Datacenter and Cloud Technologies
"
	CyrusOne - Totowa, NJ is located in the area Totowa, USA (America), and the colocation data center is  carrier neutral. The data center was last updated on 22-07-2015.","CyrusOne - Totowa, NJ",USA,New Jersey,07511,Totowa,"CyrusOne - Totowa, NJ",CyrusOne
"
	Liberated Networks is located in the area Halifax, Canada, and the colocation data center is  carrier neutral. The data center was last updated on 23-07-2015.",Liberated Networks,Canada,,B3K 4C9,Halifax,,Liberated Networks
"
	Orbit One Gent is located in the area Gent (Ghent), Belgium, and the colocation data center is not  carrier neutral. The data center was last updated on 23-12-2011.",Orbit One Gent,Belgium,,9000,Gent,Orbit One Gent,Orbit One Internet Solutions
"
	Colocation Data Center is located in the area Charlotte, USA (America).",Colocation Data Center,,,,,,
"
	Minneapolis Connexion Data Center is located in the area Minneapolis, USA (America).",Minneapolis Connexion Data Center,,,,,,
"
	Lancom is located in the area Thessaloniki, Greece (Hellenic Republic), and the colocation data center is not  carrier neutral. The data center was last updated on 28-12-2011.",Lancom,Greece,,54623,Thessaloniki,,Lancom
"
	Green Mountain AS - DC1-Stavanger is located in the area Stavanger, Norway (Norge), and the colocation data center is  carrier neutral. The data center was last updated on 05-05-2016.",Green Mountain AS - DC1-Stavanger,Norway,Rogaland,4150,Rennesoy,Green Mountain AS - DC1-Stavanger,Green Mountain Data Center
"
	Redcentric Reading is located in the area Berkshire, United Kingdom (UK), and the colocation data center is  carrier neutral. The data center was last updated on 01-07-2014.",Redcentric Reading,United Kingdom,,RG2 0TG,Reading,Redcentric Reading,Redcentric
"
	Pacnet Sydney is located in the area Sydney (New South Wales), Australia, and the colocation data center is  carrier neutral. The data center was last updated on 20-12-2013.",Pacnet Sydney,Australia,NSW,2000,Sydney,Pacnet Sydney,Pacnet
"
	Lefdal Mine Datacenter is located in the area Måløy (Maaloey), Norway (Norge), and the colocation data center is not  carrier neutral. The data center was last updated on 10-01-2012.",Lefdal Mine Datacenter,Norway,,6770,Eid,,Lefdal Mine Datacenter
"
	Deutschherrnkarree is located in the area Nuremberg (Nürnberg), Germany (Deutschland).",Deutschherrnkarree,,,,,,
"
	Necessary Resources is located in the area Philadelphia, USA (America), and the colocation data center is  carrier neutral. The data center was last updated on 06-01-2012.",Necessary Resources,USA,Pennsylvania,19440,Hatfield,,Necessary Resources
"
	c/Acer 5-9 is located in the area Barcelona, Spain (España).",c/Acer 5-9,,,,,,
"
	Bitcanal Porto is located in the area Porto, Portugal, and the colocation data center is  carrier neutral. The data center was last updated on 19-01-2012.",Bitcanal Porto,Portugal,,4000,Porto,Bitcanal Porto,Bitcanal
"
	TGT Hong Kong Data Centre 2 is located in the area Hong Kong, Hong Kong (Hong Kong, SAR of China), and the colocation data center is  carrier neutral. The data center was last updated on 02-11-2016.",TGT Hong Kong Data Centre 2,Hong Kong,,852,Hong Kong,TGT Hong Kong Data Centre 2,Towngas Telecommunications Company Limited
"
	ADAMANT is located in the area Kiev, Ukraine (Ukrayina), and the colocation data center is not  carrier neutral. The data center was last updated on 17-07-2012.",ADAMANT,Ukraine,,02096,Kiev,,ADAMANT
"
	Compseq is located in the area Timisoara, Romania, and the colocation data center is  carrier neutral. The data center was last updated on 24-07-2016.",Compseq,Romania,Timis,300611,Timisoara,Compseq,Compseq SRL
"
	Delta Telekom is located in the area Baku (Baki), Azerbaijan (Az?rbaycan), and the colocation data center is not  carrier neutral. The data center was last updated on 18-01-2012.",Delta Telekom,Azerbaijan,,Az1012,Baku,Delta Telekom,Delta Telecom LTD
"
	ByteGrid Annapolis is located in the area Annapolis, USA (America), and the colocation data center is not  carrier neutral. The data center was last updated on 27-07-2016.",ByteGrid Annapolis,USA,Maryland,21401,Annapolis,ByteGrid Annapolis,ByteGrid
"
	Malaga Data Center is located in the area Malaga, Spain (España), and the colocation data center is  carrier neutral. The data center was last updated on 13-02-2014.",Malaga Data Center,Spain,Malaga,29004,Malaga,,Malaga Data Center
"
	Interconnect Eindhoven is located in the area Eindhoven, The Netherlands (Holland), and the colocation data center is not  carrier neutral. The data center was last updated on 19-01-2012.",Interconnect Eindhoven,The Netherlands,,5657 HJ,Eindhoven,Interconnect Eindhoven,Interconnect Services BV
"
	PDC1 is located in the area Hengelo, The Netherlands (Holland), and the colocation data center is  carrier neutral. The data center was last updated on 30-03-2015.",PDC1,The Netherlands,Overijssel,7556 BE,Hengelo,PDC1,Previder
"
	Sify VASHI is located in the area Navi Mumbai, India, and the colocation data center is  carrier neutral. The data center was last updated on 05-08-2013.",Sify VASHI,India,Maharastra,400703,Mumbai,Sify VASHI,SIFY Technologies Pvt Ltd
"
	Pont Saint Martin is located in the area Torino, Italy (Italia), and the colocation data center is  carrier neutral. The data center was last updated on 20-01-2012.",Pont Saint Martin,Italy,,20090,Pont Saint Martin,Pont Saint Martin,Engineering.IT
"
	zColo - 7185 Pollock Dr is located in the area Las Vegas, USA (America), and the colocation data center is  carrier neutral. The data center was last updated on 13-02-2014.",zColo - 7185 Pollock Dr,USA,Nevada,89119,Las Vegas,zColo - 7185 Pollock Dr,zColo
"
	Aconcaguared Telecom 52tga is located in the area Los Andes, Chile (República de Chile), and the colocation data center is  carrier neutral. The data center was last updated on 19-01-2012.",Aconcaguared Telecom 52tga,Chile,Valparaiso,2100384,Los Andes,Aconcaguared Telecom 52tga,Aconcaguared Telecom
"
	Kylos DC is located in the area Lodz, Poland (Polska), and the colocation data center is not  carrier neutral. The data center was last updated on 20-01-2012.",Kylos DC,Poland,,93-578,Lodz,Kylos DC,Kylos
"
	ByteGrid Silver Spring/DC Metro is located in the area Silver Spring, USA (America), and the colocation data center is  carrier neutral. The data center was last updated on 15-08-2016.",ByteGrid Silver Spring/DC Metro,USA,Maryland,20904,Silver Spring,ByteGrid Silver Spring/DC Metro,ByteGrid
"
	CBJ1 is located in the area Cyberjaya, Malaysia, and the colocation data center is not  carrier neutral. The data center was last updated on 30-01-2012.",CBJ1,Malaysia,Selangor,63000,Cyberjaya,CBJ1,VADS Berhad
"
	VADS Labuan is located in the area Labuan, Malaysia, and the colocation data center is not  carrier neutral. The data center was last updated on 30-01-2012.",VADS Labuan,Malaysia,Sabah,87000,WP Labuan,VADS Labuan,VADS Berhad
"
	AviaPark is located in the area Moscow, Russia, and the colocation data center is  carrier neutral. The data center was last updated on 25-01-2012.",AviaPark,Russia,,127018,Moscow,AviaPark,AviaTel
"
	LDC1 is located in the area Leeds, United Kingdom (UK), and the colocation data center is not  carrier neutral. The data center was last updated on 13-02-2012.",LDC1,United Kingdom,,LS7 2AA,Leeds,LDC1,186k Ltd
"
	EnergyNet Data Center is located in the area Hopkinsville, USA (America), and the colocation data center is  carrier neutral. The data center was last updated on 30-01-2012.",EnergyNet Data Center,USA,Kentucky,42240,Hopkinsville,EnergyNet Data Center,EnergyNet
"
	Cogent Boston is located in the area Boston, USA (America), and the colocation data center is  carrier neutral. The data center was last updated on 30-07-2012.",Cogent Boston,USA,Massachusetts,02143,Somerville,Cogent Boston,"Cogent Communications, Inc."
"
	Cogent Houston is located in the area Houston, USA (America), and the colocation data center is  carrier neutral. The data center was last updated on 30-07-2012.",Cogent Houston,USA,Texas,77060,Houston,Cogent Houston,"Cogent Communications, Inc."
"
	Cogent Frankfurt is located in the area Frankfurt (Frankfurt am Main), Germany (Deutschland), and the colocation data center is not  carrier neutral. The data center was last updated on 30-07-2012.",Cogent Frankfurt,Germany,,60528,Frankfurt am Main,Cogent Frankfurt,"Cogent Communications, Inc."
"
	Cogent New Orleans is located in the area New Orleans, USA (America), and the colocation data center is  carrier neutral. The data center was last updated on 27-01-2012.",Cogent New Orleans,USA,Louisiana,70130,New Orleans,Cogent New Orleans,"Cogent Communications, Inc."
"
	VADS CBJ5 is located in the area Cyberjaya, Malaysia, and the colocation data center is  carrier neutral. The data center was last updated on 31-01-2012.",VADS CBJ5,Malaysia,Selangor,63000,Cyberjaya,VADS CBJ5,VADS Berhad
"
	VADS Semarak is located in the area Kuala Lumpur, Malaysia, and the colocation data center is not  carrier neutral. The data center was last updated on 30-01-2012.",VADS Semarak,Malaysia,WP Kuala Lumpur,50574,Kuala Lumpur,VADS Semarak,VADS Berhad
"
	VADS Cyberport is located in the area Johor Bahru, Malaysia, and the colocation data center is  carrier neutral. The data center was last updated on 31-01-2012.",VADS Cyberport,Malaysia,Johor,80300,Johor Bahru,VADS Cyberport,VADS Berhad
"
	VADS Bayan Baru is located in the area Bayan Baru, Malaysia, and the colocation data center is not  carrier neutral. The data center was last updated on 31-01-2012.",VADS Bayan Baru,Malaysia,Penang,11950,Bayan Baru,VADS Bayan Baru,VADS Berhad
"
	Opus Interactive - Portland, Oregon is located in the area Portland, USA (America), and the colocation data center is  carrier neutral. The data center was last updated on 28-01-2012.","Opus Interactive - Portland, Oregon",USA,Oregon,97209,Portland,"Opus Interactive - Portland, Oregon",Opus Interactive
"
	VADS Ipoh is located in the area Ipoh, Malaysia, and the colocation data center is not  carrier neutral. The data center was last updated on 30-01-2012.",VADS Ipoh,Malaysia,Perak,30300,Ipoh,VADS Ipoh,VADS Berhad
"
	VADS CBJ2 is located in the area Cyberjaya, Malaysia, and the colocation data center is  carrier neutral. The data center was last updated on 30-01-2012.",VADS CBJ2,Malaysia,Selangor,63000,Cyberjaya,VADS CBJ2,VADS Berhad
"
	Vastnet - Melville is located in the area Long Island, USA (America), and the colocation data center is  carrier neutral. The data center was last updated on 29-01-2012.",Vastnet - Melville,USA,New York,11747,Melvile,Vastnet - Melville,Vastnet
"
	VADS TTDI is located in the area Kuala Lumpur, Malaysia, and the colocation data center is  carrier neutral. The data center was last updated on 30-01-2012.",VADS TTDI,Malaysia,WP Kuala Lumpur,60000,Taman Tun Dr Ismail,VADS TTDI,VADS Berhad
"
	VADS Brickfields is located in the area Kuala Lumpur, Malaysia, and the colocation data center is not  carrier neutral. The data center was last updated on 30-01-2012.",VADS Brickfields,Malaysia,WP Kuala Lumpur,50470,Kuala Lumpur,VADS Brickfields,VADS Berhad
"
	Net Data is located in the area Miami, USA (America), and the colocation data center is not  carrier neutral. The data center was last updated on 31-01-2012.",Net Data,USA,Florida,33169,Miami,Net Data,Nettalk .Com Inc.
"
	e-shelter Zurich is located in the area Zürich, Switzerland (Schweiz), and the colocation data center is  carrier neutral. The data center was last updated on 03-02-2012.",e-shelter Zurich,Switzerland,,CH-8153,Rümlang,e-shelter Zurich,e-shelter facility services GmbH
"
	Centeris South Hill Data Center is located in the area Tacoma, USA (America), and the colocation data center is  carrier neutral. The data center was last updated on 17-03-2014.",Centeris South Hill Data Center,USA,Washington,98374,Puyallup,Centeris South Hill Data Center,benaroya company
"
	Data center IT-park is located in the area Kazan, Russia, and the colocation data center is not  carrier neutral. The data center was last updated on 02-02-2012.",Data center IT-park,Russia,Tatarstan,420107,Kazan,Data center IT-park,High Technology Technopark IT-park
"
	VADS Johor Baru is located in the area Johor Bahru, Malaysia, and the colocation data center is not  carrier neutral. The data center was last updated on 30-01-2012.",VADS Johor Baru,Malaysia,Johor,80672,Johor Bahru,VADS Johor Baru,VADS Berhad
"
	brightsolid online technology is located in the area Dundee, United Kingdom (UK), and the colocation data center is not  carrier neutral. The data center was last updated on 31-01-2012.",brightsolid online technology,United Kingdom,,DD5 3TR,Dundee,,brightsolid online technology
"
	Swoscom is located in the area Lund, Sweden (Sverige), and the colocation data center is not  carrier neutral. The data center was last updated on 06-02-2012.",Swoscom,Sweden,,24761,Veberöd,Swoscom,Swoscom AB
"
	T5 Technology Center is located in the area Kansas City MO, USA (America), and the colocation data center is not  carrier neutral. The data center was last updated on 06-02-2012.",T5 Technology Center,USA,Missouri,64055,Independence,,T5 Technology Center
"
	Businesspark Eurocom is located in the area Nuremberg (Nürnberg), Germany (Deutschland).",Businesspark Eurocom,,,,,,
"
	LoCoCoLo is located in the area Omaha, USA (America), and the colocation data center is  carrier neutral. The data center was last updated on 06-02-2012.",LoCoCoLo,USA,Nebraska,68124,Omaha,LoCoCoLo,"Power PRotection Products, Inc."
"
	Immedion is located in the area Charleston, USA (America), and the colocation data center is  carrier neutral. The data center was last updated on 04-08-2016.",Immedion,USA,South Carolina,29456,North Charleston,,Immedion
"
	Immedion is located in the area Asheville, USA (America), and the colocation data center is  carrier neutral. The data center was last updated on 04-08-2016.",Immedion,USA,North Carolina,28803,Asheville,,Immedion
"
	SoftLayer - HOU04 is located in the area Houston, USA (America), and the colocation data center is not  carrier neutral. The data center was last updated on 02-03-2012.",SoftLayer - HOU04,USA,Texas,77002,Houston,SoftLayer - HOU04,SoftLayer
"
	IRZ42 is located in the area Hamburg, Germany (Deutschland), and the colocation data center is  carrier neutral. The data center was last updated on 05-07-2016.",IRZ42,Germany,,20537,Hamburg,IRZ42,Wieske's Crew GmbH
"
	CCS DC14 is located in the area Leeds, United Kingdom (UK), and the colocation data center is  carrier neutral. The data center was last updated on 06-02-2013.",CCS DC14,United Kingdom,West Yorkshire,LS14 2AQ,Leeds,CCS DC14,C.C.S. (Leeds) Ltd
"
	Claranet - Lisboa is located in the area Lisbon (Lisboa), Portugal, and the colocation data center is not  carrier neutral. The data center was last updated on 28-02-2012.",Claranet - Lisboa,Portugal,,1998-014,Lisboa,Claranet - Lisboa,Claranet Portugal
"
	DataSpace 1 is located in the area Moscow, Russia, and the colocation data center is  carrier neutral. The data center was last updated on 05-03-2012.",DataSpace 1,Russia,,115088,Moscow,DataSpace 1,DataSpace
"
	Dedicated Computing - Appleton is located in the area Appleton, USA (America), and the colocation data center is  carrier neutral. The data center was last updated on 20-07-2016.",Dedicated Computing - Appleton,USA,Wisconsin,54913,Appleton,Dedicated Computing - Appleton,Dedicated Computing
"
	Telecom Center Ruse is located in the area Ruse, Bulgaria, and the colocation data center is  carrier neutral. The data center was last updated on 27-03-2012.",Telecom Center Ruse,Bulgaria,,7004,Ruse,Telecom Center Ruse,Neterra Ltd
"
	TierPoint Sioux Falls West is located in the area Sioux Falls, USA (America), and the colocation data center is  carrier neutral. The data center was last updated on 23-02-2017.",TierPoint Sioux Falls West,USA,South Dakota,57107,Sioux Falls,TierPoint Sioux Falls West,TierPoint
"
	zColo - 251 Neilston St is located in the area Columbus, USA (America), and the colocation data center is  carrier neutral. The data center was last updated on 13-02-2014.",zColo - 251 Neilston St,USA,Ohio,43215,Columbus,zColo - 251 Neilston St,zColo
"
	Interlink is located in the area Spokane, USA (America), and the colocation data center is  carrier neutral. The data center was last updated on 08-02-2012.",Interlink,USA,Washington,99202,Spokane,,Interlink
"
	HKTI DC is located in the area Hong Kong, Hong Kong (Hong Kong, SAR of China), and the colocation data center is not  carrier neutral. The data center was last updated on 02-03-2012.",HKTI DC,Hong Kong,,00852,Hong Kong,HKTI DC,Hong Kong Technology Information Ltd.
"
	NeoCenter Toulouse is located in the area Toulouse, France (Française), and the colocation data center is  carrier neutral. The data center was last updated on 08-02-2012.",NeoCenter Toulouse,France,,31130,Balma,NeoCenter Toulouse,Neo Telecoms
"
	Rent a Rack is located in the area Oslo, Norway (Norge), and the colocation data center is  carrier neutral. The data center was last updated on 13-03-2012.",Rent a Rack,Norway,,0581,Oslo,Rent a Rack,Rent a Rack AS
"
	Media Sat is located in the area Bucharest, Romania, and the colocation data center is not  carrier neutral. The data center was last updated on 13-03-2012.",Media Sat,Romania,,021385,Bucuresti,,Media Sat
"
	Dammam is located in the area Dammam (Ad Dammam), Saudi Arabia (Kingdom of Saudi Arabia (KSA)), and the colocation data center is not  carrier neutral. The data center was last updated on 08-03-2012.",Dammam,Saudi Arabia,,9531,Dammam,Dammam,NourNet
"
	IO is located in the area Singapore, Singapore, and the colocation data center is not  carrier neutral. The data center was last updated on 09-06-2016.",IO,Singapore,,569877,Singapore,,IO
"
	Dedicated Computing - Milwaukee is located in the area Milwaukee, USA (America), and the colocation data center is  carrier neutral. The data center was last updated on 20-07-2016.",Dedicated Computing - Milwaukee,USA,Wisconsin,53226,Milwaukee,Dedicated Computing - Milwaukee,Dedicated Computing
"
	D-ALiX is located in the area Santa Cruz de Tenerife, Spain (España), and the colocation data center is  carrier neutral. The data center was last updated on 12-03-2012.",D-ALiX,Spain,Islas Canarias,38600,Granadilla de Abona,,D-ALiX
"
	NeoCenter Montpellier is located in the area Montpellier, France (Française), and the colocation data center is  carrier neutral. The data center was last updated on 08-02-2012.",NeoCenter Montpellier,France,,34070,Montpellier,NeoCenter Montpellier,Neo Telecoms
"
	Harbour MSP, Sydney is located in the area Sydney (New South Wales), Australia, and the colocation data center is  carrier neutral. The data center was last updated on 28-03-2012.","Harbour MSP, Sydney",Australia,NSW,2007,Ultimo,"Harbour MSP, Sydney",Harbour MSP
"
	Dataplace is located in the area Dordrecht, The Netherlands (Holland), and the colocation data center is  carrier neutral. The data center was last updated on 14-03-2012.",Dataplace,The Netherlands,ZH,2952 CB,Alblasserdam,,Dataplace
"
	KHEOPS Organisation  2 is located in the area Paris, France (Française), and the colocation data center is  carrier neutral. The data center was last updated on 15-03-2012.",KHEOPS Organisation  2,France,,78145,Velizy,KHEOPS Organisation  2,KHEOPS Organisation
"
	3z Canada YYZ2 is located in the area Mississauga, Canada, and the colocation data center is not  carrier neutral. The data center was last updated on 15-08-2012.",3z Canada YYZ2,Canada,ON,L5L 5X9,Mississauga,3z Canada YYZ2,3z Canada
"
	Harbour MSP, Melbourne is located in the area Melbourne (Victoria), Australia, and the colocation data center is  carrier neutral. The data center was last updated on 28-03-2012.","Harbour MSP, Melbourne",Australia,Victoria,3207,Port Melbourne,"Harbour MSP, Melbourne",Harbour MSP
"
	Jaguar Datacenter - MRS01 is located in the area Marseille, France (Française), and the colocation data center is  carrier neutral. The data center was last updated on 28-03-2012.",Jaguar Datacenter - MRS01,France,,13016,Marseille,Jaguar Datacenter - MRS01,Jaguar Network
"
	HTN-IDC is located in the area Phnom Penh, Cambodia (Kingdom of Cambodia), and the colocation data center is  carrier neutral. The data center was last updated on 21-03-2012.",HTN-IDC,Cambodia,,023-880,Phnom Penh,HTN-IDC,"HT Networks Co,. Ltd."
"
	Intellicentre 2 is located in the area Sydney (New South Wales), Australia, and the colocation data center is  carrier neutral. The data center was last updated on 04-04-2012.",Intellicentre 2,Australia,NSW,2113,North Ryde,Intellicentre 2,Macquarie Cloud Services
"
	Harbour MSP, Shanghai is located in the area Shanghai, China, and the colocation data center is  carrier neutral. The data center was last updated on 28-03-2012.","Harbour MSP, Shanghai",China,,201203,Pudong New Area,"Harbour MSP, Shanghai",Harbour MSP
"
	Alienor.NET is located in the area Bordeaux, France (Française), and the colocation data center is  carrier neutral. The data center was last updated on 31-03-2012.",Alienor.NET,France,Gironde,33110,Le Bouscat,Alienor.NET,ALIENOR.NET
"
	Telemedia Rivonia Teleport is located in the area Johannesburg (Jozi), South Africa, and the colocation data center is  carrier neutral. The data center was last updated on 28-03-2012.",Telemedia Rivonia Teleport,South Africa,Gauteng,2128,Johannesburg,Telemedia Rivonia Teleport,Telemedia (PTY) LTD
"
	GDCL is located in the area Windsor, Canada, and the colocation data center is  carrier neutral. The data center was last updated on 01-04-2012.",GDCL,Canada,Ontario,N9A 1H9,Windsor,GDCL,MNSi Internet
"
	Cirrus9 - DC1 is located in the area Saint John, Canada, and the colocation data center is  carrier neutral. The data center was last updated on 13-01-2017.",Cirrus9 - DC1,Canada,NB,E2l 1E8,Saint John,Cirrus9 - DC1,Cirrus9 Inc
"
	Datahata is located in the area Minsk, Belarus (Republic of Belarus), and the colocation data center is  carrier neutral. The data center was last updated on 02-04-2012.",Datahata,Belarus,Minsk,220000,Minsk,Datahata,Datahata Ltd
"
	HC Colo #1 is located in the area Madison, USA (America), and the colocation data center is  carrier neutral. The data center was last updated on 09-04-2012.",HC Colo #1,USA,Wisconsin,53703,Madison,HC Colo #1,Hoyos Consulting LLC
"
	TelecityGroup HEL3 Suvilahti is located in the area Helsinki, Finland (Suomi), and the colocation data center is  carrier neutral. The data center was last updated on 22-10-2014.",TelecityGroup HEL3 Suvilahti,Finland,,00540,Helsinki,TelecityGroup HEL3 Suvilahti,TelecityGroup Finland
"
	InterDC is located in the area Overijssel, The Netherlands (Holland), and the colocation data center is  carrier neutral. The data center was last updated on 05-04-2012.",InterDC,The Netherlands,Overijssel,7547AB,Enschede,,InterDC
"
	DouaiCentral is located in the area Douai, France (Française), and the colocation data center is not  carrier neutral. The data center was last updated on 18-04-2012.",DouaiCentral,France,,59500,Douai,DouaiCentral,SQL Technologies SAS
"
	XeonBD is located in the area Dhaka, Bangladesh (Peoples Republic of Bangladesh), and the colocation data center is not  carrier neutral. The data center was last updated on 01-04-2015.",XeonBD,Bangladesh,Dhaka,1207,Dhaka,,XeonBD
"
	VDC Virtual Data Corp. is located in the area Saskatoon, Canada, and the colocation data center is not  carrier neutral. The data center was last updated on 10-04-2012.",VDC Virtual Data Corp.,Canada,Saskatchewan,S7N 3R3,Saskatoon,,VDC Virtual Data Corp.
"
	Intellicentre 1 is located in the area Sydney (New South Wales), Australia, and the colocation data center is  carrier neutral. The data center was last updated on 05-04-2012.",Intellicentre 1,Australia,NSW,2000,Sydney,Intellicentre 1,Macquarie Cloud Services
"
	Inland Fiber & Data is located in the area Winter Haven, USA (America), and the colocation data center is  carrier neutral. The data center was last updated on 14-03-2016.",Inland Fiber & Data,USA,Florida,33881,Winter Haven,,Inland Fiber & Data
"
	NEXTDC - S1 is located in the area Sydney (New South Wales), Australia, and the colocation data center is  carrier neutral. The data center was last updated on 19-04-2012.",NEXTDC - S1,Australia,NSW,2113,Macquarie Park,NEXTDC - S1,NEXTDC
"
	Advanced Data Centres is located in the area Whangarei, New Zealand, and the colocation data center is not  carrier neutral. The data center was last updated on 25-02-2013.",Advanced Data Centres,New Zealand,,0112,Whangarei,,Advanced Data Centres
"
	NEXTDC - P1 is located in the area Perth (Western Australia), Australia, and the colocation data center is  carrier neutral. The data center was last updated on 19-04-2012.",NEXTDC - P1,Australia,Western Australia,6090,Malaga,NEXTDC - P1,NEXTDC
"
	Zone Ramallah is located in the area Ramallah, Palestine (State of Palestine), and the colocation data center is  carrier neutral. The data center was last updated on 23-04-2012.",Zone Ramallah,Palestine,,0001,Ramallah,Zone Ramallah,Zone Technologies Ltd
"
	SNS Littleton, NH is located in the area Littleton, USA (America), and the colocation data center is  carrier neutral. The data center was last updated on 23-04-2012.","SNS Littleton, NH",USA,New Hampshire,03561,Littleton,"SNS Littleton, NH","Secured Network Services, Inc."
"
	Colocall Internet Data Center is located in the area Kiev, Ukraine (Ukrayina), and the colocation data center is  carrier neutral. The data center was last updated on 16-05-2012.",Colocall Internet Data Center,Ukraine,,04053,Kiev,Colocall Internet Data Center,Colocall Co. Ltd
"
	Colocall Internet Data Center is located in the area Kiev, Ukraine (Ukrayina), and the colocation data center is not  carrier neutral. The data center was last updated on 16-05-2012.",Colocall Internet Data Center,Ukraine,Ukraine,04053,Kiev,Colocall Internet Data Center,Colocall Co. Ltd
"
	VA-VPS is located in the area Vienna Virginia, USA (America), and the colocation data center is  carrier neutral. The data center was last updated on 25-04-2012.",VA-VPS,USA,Virginia,22182,Vienna,VA-VPS,Open Hosting
"
	T5 Data Centers - T5@Portland is located in the area Portland, USA (America).",T5 Data Centers - T5@Portland,,,,,,
"
	T5 Data Centers - T5@Altanta is located in the area Atlanta, USA (America), and the colocation data center is  carrier neutral. The data center was last updated on 22-10-2013.",T5 Data Centers - T5@Altanta,USA,Georgia,30005,Alpharetta,T5 Data Centers - T5@Altanta,T5 Data Centers
"
	T5 Data Centers - T5@LA is located in the area Los Angeles, USA (America), and the colocation data center is  carrier neutral. The data center was last updated on 22-10-2013.",T5 Data Centers - T5@LA,USA,California,90245,El Segundo,T5 Data Centers - T5@LA,T5 Data Centers
"
	T5 Data Centers - T5@KingsMountain is located in the area Charlotte, USA (America).",T5 Data Centers - T5@KingsMountain,,,,,,
"
	MicroHosting is located in the area New Delhi, India, and the colocation data center is not  carrier neutral. The data center was last updated on 26-04-2012.",MicroHosting,India,UP,201301,Noida,MicroHosting,Micro Hosting Private Limited
"
	Net Cloud International Data Centre is located in the area Hong Kong, Hong Kong (Hong Kong, SAR of China), and the colocation data center is  carrier neutral. The data center was last updated on 02-05-2012.",Net Cloud International Data Centre,Hong Kong,,.,Hong Kong,Net Cloud International Data Centre,Net Cloud International Data Centre Limited
"
	ChimeNet, Inc, is located in the area New Haven, USA (America), and the colocation data center is  carrier neutral. The data center was last updated on 04-05-2012.","ChimeNet, Inc,",USA,Connecticut,06492,Wallingford,"ChimeNet, Inc,","ChimeNet, Inc."
"
	Vocus Data Centre - Baulkham Hills is located in the area Sydney (New South Wales), Australia, and the colocation data center is  carrier neutral. The data center was last updated on 01-05-2012.",Vocus Data Centre - Baulkham Hills,Australia,NSW,2153,Baulkham Hills,Vocus Data Centre - Baulkham Hills,Vocus Communications
"
	LASOTEL PIXEL is located in the area Lyon, France (Française), and the colocation data center is  carrier neutral. The data center was last updated on 14-06-2014.",LASOTEL PIXEL,France,,69100,Villeurbanne,LASOTEL PIXEL,LASOTEL
"
	Cloud South is located in the area West Palm Beach, USA (America), and the colocation data center is  carrier neutral. The data center was last updated on 05-05-2012.",Cloud South,USA,Florida,33405,West Palm Beach,,Cloud South
"
	24700 Northwestern Hwy is located in the area Detroit, USA (America).",24700 Northwestern Hwy,,,,,,
"
	123Net, Inc. DC3 is located in the area Detroit, USA (America), and the colocation data center is  carrier neutral. The data center was last updated on 25-05-2012.","123Net, Inc. DC3",USA,Michigan,48075,Southfield,"123Net, Inc. DC3","123Net, Inc."
"
	Availo DCH is located in the area Stockholm, Sweden (Sverige), and the colocation data center is  carrier neutral. The data center was last updated on 18-05-2012.",Availo DCH,Sweden,,120 30,Stockholm,Availo DCH,Availo Networks AB
"
	Hostway Seoul Metro is located in the area Seoul, South Korea (Republic of Korea), and the colocation data center is not  carrier neutral. The data center was last updated on 15-05-2012.",Hostway Seoul Metro,South Korea,Kyunggi-Do,463-828,Sungnam-Si,Hostway Seoul Metro,Hostway Korea
"
	Availo DCL is located in the area Linköping, Sweden (Sverige), and the colocation data center is  carrier neutral. The data center was last updated on 18-05-2012.",Availo DCL,Sweden,,583 30,Linköping,Availo DCL,Availo Networks AB
"
	Availo DCS is located in the area Stockholm, Sweden (Sverige), and the colocation data center is  carrier neutral. The data center was last updated on 18-05-2012.",Availo DCS,Sweden,,129 39,Skärholmen,Availo DCS,Availo Networks AB
"
	IXcellerate is located in the area Moscow, Russia, and the colocation data center is  carrier neutral. The data center was last updated on 06-02-2013.",IXcellerate,Russia,,127410,Moscow,,IXcellerate
"
	Interworks Primary Data Center is located in the area Thessaloniki, Greece (Hellenic Republic), and the colocation data center is not  carrier neutral. The data center was last updated on 14-05-2012.",Interworks Primary Data Center,Greece,,56429,Thessaloniki,Interworks Primary Data Center,Interworks
"
	Biznet Technovillage Data Center is located in the area Jakarta (Djakarta), Indonesia, and the colocation data center is  carrier neutral. The data center was last updated on 18-04-2013.",Biznet Technovillage Data Center,Indonesia,West Java,16965,Cimanggis,Biznet Technovillage Data Center,Biznet Networks
"
	Systemec B.V. is located in the area Venlo, The Netherlands (Holland), and the colocation data center is  carrier neutral. The data center was last updated on 29-08-2016.",Systemec B.V.,The Netherlands,Limburg,5928PW,Venlo,,Systemec B.V.
"
	LONDON2 is located in the area London, United Kingdom (UK).",LONDON2,,,,,,
"
	Wolfpaw-EDM is located in the area Edmonton, Canada, and the colocation data center is  carrier neutral. The data center was last updated on 28-05-2012.",Wolfpaw-EDM,Canada,Alberta,T5J3R8,Edmonton,Wolfpaw-EDM,Wolfpaw Services
"
	Connected is located in the area Krakow, Poland (Polska), and the colocation data center is  carrier neutral. The data center was last updated on 29-05-2012.",Connected,Poland,malopolskie,30-081,Krakow,Connected,Connected sp. z o.o.
"
	400 South 76th Street is located in the area Grand Rapids, USA (America).",400 South 76th Street,,,,,,
"
	VisionQuest ATC Data Center is located in the area Charlottetown, Canada, and the colocation data center is  carrier neutral. The data center was last updated on 09-05-2012.",VisionQuest ATC Data Center,Canada,PE,C1A4K9,Charlottetown,VisionQuest ATC Data Center,VisionQuest Inc.
"
	SiteB Data is located in the area San Antonio, USA (America), and the colocation data center is  carrier neutral. The data center was last updated on 15-05-2012.",SiteB Data,USA,Texas,78207,San Antonio,,SiteB Data
"
	WEBAXYS is located in the area Rouen, France (Française), and the colocation data center is not  carrier neutral. The data center was last updated on 31-05-2012.",WEBAXYS,France,,76300,Sotteville les Rouen,,WEBAXYS
"
	conova communications GmbH is located in the area Salzburg, Austria (Österreich), and the colocation data center is  carrier neutral. The data center was last updated on 09-12-2014.",conova communications GmbH,Austria,,5020,Salzburg,,conova communications GmbH
"
	ColoCenter Zoetermeer is located in the area Zoetermeer, The Netherlands (Holland), and the colocation data center is not  carrier neutral. The data center was last updated on 05-06-2012.",ColoCenter Zoetermeer,The Netherlands,,2718RS,Zoetermeer,ColoCenter Zoetermeer,ColoCenter
"
	Elm DC is located in the area Buffalo, USA (America), and the colocation data center is not  carrier neutral. The data center was last updated on 05-06-2012.",Elm DC,USA,New York,14203,"Buffalo, NY",Elm DC,Elm Datacenter
"
	TPnets DC is located in the area Lodz, Poland (Polska), and the colocation data center is not  carrier neutral. The data center was last updated on 04-06-2012.",TPnets DC,Poland,,90-063,Lodz,TPnets DC,TPnets.com
"
	Phoenix-DC1 is located in the area Melbourne (Victoria), Australia, and the colocation data center is not  carrier neutral. The data center was last updated on 02-06-2012.",Phoenix-DC1,Australia,Victoria,3820,Warragul,Phoenix-DC1,Connectivity I.T.
"
	Mediatraffic Data Center is located in the area Huittinen, Finland (Suomi), and the colocation data center is not  carrier neutral. The data center was last updated on 13-06-2012.",Mediatraffic Data Center,Finland,,32610,Huittinen,Mediatraffic Data Center,Mediatraffic Oy
"
	EconDC is located in the area London, United Kingdom (UK), and the colocation data center is not  carrier neutral. The data center was last updated on 13-06-2012.",EconDC,United Kingdom,Middlesex,UB7 7RQ,West Drayton,EconDC,OSHS Ltd
"
	Gompute Data Center is located in the area Gothenburg (Göteborg), Sweden (Sverige), and the colocation data center is  carrier neutral. The data center was last updated on 22-01-2013.",Gompute Data Center,Sweden,,41505,Gothenburg,Gompute Data Center,Gompute AB
"
	Datumcenter is located in the area Nicosia, Cyprus (Republic of Cyprus), and the colocation data center is not  carrier neutral. The data center was last updated on 20-06-2012.",Datumcenter,Cyprus,,90000,Nicosia,Datumcenter,Gigabyte Ltd.
"
	A5.com Peoria is located in the area Peoria, USA (America), and the colocation data center is  carrier neutral. The data center was last updated on 20-06-2012.",A5.com Peoria,USA,Illinois,61603,Peoria,A5.com Peoria,A5.com
"
	PCK-Jastrebarsko is located in the area Zagreb, Croatia (Republika Hrvatska), and the colocation data center is  carrier neutral. The data center was last updated on 05-06-2013.",PCK-Jastrebarsko,Croatia,,10450,Jastrebarsko,PCK-Jastrebarsko,PCK-DataCross
"
	Teknik i Media Datacenter is located in the area Stockholm, Sweden (Sverige), and the colocation data center is not  carrier neutral. The data center was last updated on 06-09-2012.",Teknik i Media Datacenter,Sweden,,11260,Stockholm,Teknik i Media Datacenter,Datacenter
"
	NEOCLYDE - NeoCenter Besançon is located in the area Besancon (Besançon), France (Française), and the colocation data center is  carrier neutral. The data center was last updated on 21-06-2012.",NEOCLYDE - NeoCenter Besançon,France,Franche-Comté,25000,Besançon,NEOCLYDE - NeoCenter Besançon,Neo Telecoms
"
	MEEZA  (M-VAULT 1) is located in the area Doha, Qatar (Dawlat Qa?ar), and the colocation data center is  carrier neutral. The data center was last updated on 25-01-2017.",MEEZA  (M-VAULT 1),Qatar,,892,Doha,MEEZA  (M-VAULT 1),MEEZA
"
	New Bridge is located in the area New York, USA (America), and the colocation data center is not  carrier neutral. The data center was last updated on 16-08-2016.",New Bridge,USA,New York,11218,Broolyn,New Bridge,NewBridge
"
	Millennium Systems Inc is located in the area Irvine, USA (America), and the colocation data center is  carrier neutral. The data center was last updated on 08-09-2016.",Millennium Systems Inc,USA,California,92618,Irvine,Millennium Systems Inc,Millennium Systems
"
	Hotel des Telecoms is located in the area Toulouse, France (Française), and the colocation data center is  carrier neutral. The data center was last updated on 22-06-2012.",Hotel des Telecoms,France,,31670,LABEGE,Hotel des Telecoms,FULLSAVE
"
	A5.com Bloomington is located in the area Bloomington, USA (America), and the colocation data center is  carrier neutral. The data center was last updated on 20-06-2012.",A5.com Bloomington,USA,Illinois,61571,Bloomington,A5.com Bloomington,A5.com
"
	IO is located in the area Dayton, USA (America), and the colocation data center is  carrier neutral. The data center was last updated on 09-06-2016.",IO,USA,Ohio,45342,Miamisburg,,IO
"
	CityNAP is located in the area San Antonio, USA (America), and the colocation data center is  carrier neutral. The data center was last updated on 27-06-2012.",CityNAP,USA,Texas,78205,San Antonio,,CityNAP
"
	Feper Building is located in the area Bucharest, Romania.",Feper Building,,,,,,
"
	Vision DC-1 is located in the area Lahore, pakistan (Islamic Republic of Pakistan), and the colocation data center is  carrier neutral. The data center was last updated on 24-09-2014.",Vision DC-1,pakistan,punjab,54615,Lahore,Vision DC-1,Vision Telecom (pvt) Ltd
"
	MEEZA  (M-VAULT 3) is located in the area Doha, Qatar (Dawlat Qa?ar), and the colocation data center is  carrier neutral. The data center was last updated on 25-01-2017.",MEEZA  (M-VAULT 3),Qatar,,892,Doha,MEEZA  (M-VAULT 3),MEEZA
"
	MEEZA  (M-VAULT 2) is located in the area Doha, Qatar (Dawlat Qa?ar), and the colocation data center is  carrier neutral. The data center was last updated on 25-01-2017.",MEEZA  (M-VAULT 2),Qatar,,892,Doha,MEEZA  (M-VAULT 2),MEEZA
"
	Cogent Pasadena is located in the area Los Angeles, USA (America), and the colocation data center is not  carrier neutral. The data center was last updated on 25-06-2012.",Cogent Pasadena,USA,California,91107,Pasadena,Cogent Pasadena,"Cogent Communications, Inc."
"
	DENVER-01 is located in the area Denver, USA (America), and the colocation data center is  carrier neutral. The data center was last updated on 23-06-2012.",DENVER-01,USA,Colorado,80205,Denver,DENVER-01,FORETHOUGHT.net
"
	ITB-Datacenter Deventer is located in the area Deventer, The Netherlands (Holland), and the colocation data center is  carrier neutral. The data center was last updated on 29-06-2012.",ITB-Datacenter Deventer,The Netherlands,,7418 EX,Deventer,ITB-Datacenter Deventer,ITB-Datacenter
"
	PTCL Data Center (Islamabad) is located in the area Islamabad, Pakistan (Islamic Republic of Pakistan), and the colocation data center is not  carrier neutral. The data center was last updated on 05-07-2012.",PTCL Data Center (Islamabad),Pakistan,,44000,Islamabad,PTCL Data Center (Islamabad),PTCL
"
	BI Data Center-12 Bareket St is located in the area Tel Aviv, Israel, and the colocation data center is  carrier neutral. The data center was last updated on 05-07-2012.",BI Data Center-12 Bareket St,Israel,,49517,Petach Tikva,BI Data Center-12 Bareket St,Bezeq International
"
	PTCL Data Center (Lahore) is located in the area Lahore, Pakistan (Islamic Republic of Pakistan), and the colocation data center is not  carrier neutral. The data center was last updated on 05-07-2012.",PTCL Data Center (Lahore),Pakistan,,54000,Lahore,PTCL Data Center (Lahore),PTCL
"
	ITB-Datacenter Ecofactorij is located in the area Apeldoorn, The Netherlands (Holland), and the colocation data center is  carrier neutral. The data center was last updated on 29-06-2012.",ITB-Datacenter Ecofactorij,The Netherlands,,7325 WM,Apeldoorn,ITB-Datacenter Ecofactorij,ITB-Datacenter
"
	BI Data Center-Shacham 40 st is located in the area Tel Aviv, Israel, and the colocation data center is  carrier neutral. The data center was last updated on 08-07-2012.",BI Data Center-Shacham 40 st,Israel,,49170,Petach Tikva,BI Data Center-Shacham 40 st,Bezeq International
"
	BI Data Center-Jaffa is located in the area Tel Aviv, Israel, and the colocation data center is not  carrier neutral. The data center was last updated on 05-07-2012.",BI Data Center-Jaffa,Israel,,68169,Tel Aviv,BI Data Center-Jaffa,Bezeq International
"
	PTCL Data Center (Karachi) is located in the area Karachi, Pakistan (Islamic Republic of Pakistan), and the colocation data center is not  carrier neutral. The data center was last updated on 05-07-2012.",PTCL Data Center (Karachi),Pakistan,,74000,Karachi,PTCL Data Center (Karachi),PTCL
"
	Candos Recovery Centre is located in the area Quatre Bornes, Mauritius (Republic of Mauritius), and the colocation data center is  carrier neutral. The data center was last updated on 16-07-2015.",Candos Recovery Centre,Mauritius,,00,Quatre Bornes,Candos Recovery Centre,ContinuityMauritius Co. Ltd.
"
	PLUS4WEB is located in the area Istanbul, Turkey (Türkiye), and the colocation data center is not  carrier neutral. The data center was last updated on 24-07-2012.",PLUS4WEB,Turkey,TR,34000,Istanbul,PLUS4WEB,Plus4web Ltd.
"
	Tranquil Hosting is located in the area Raleigh, USA (America), and the colocation data center is not  carrier neutral. The data center was last updated on 27-07-2012.",Tranquil Hosting,USA,North Carolina,27511,Cary,Tranquil Hosting,"Tranquil Hosting, Inc."
"
	Commercial Media is located in the area Baltimore, USA (America), and the colocation data center is  carrier neutral. The data center was last updated on 08-07-2012.",Commercial Media,USA,Maryland,21227,Baltimore,Commercial Media,Commercial Media Corp.
"
	Internap Los Angeles is located in the area Los Angeles, USA (America), and the colocation data center is  carrier neutral. The data center was last updated on 27-07-2012.",Internap Los Angeles,USA,California,90278,Redondo Beach,Internap Los Angeles,Internap Network Services Corporation
"
	Open Data Centers is located in the area Piscataway, USA (America), and the colocation data center is  carrier neutral. The data center was last updated on 20-07-2012.",Open Data Centers,USA,New Jersey,08854,Piscataway,,Open Data Centers
"
	CorKat Data is located in the area Loveland, USA (America), and the colocation data center is  carrier neutral. The data center was last updated on 25-07-2012.",CorKat Data,USA,Colorado,80537,Loveland,,CorKat Data
"
	Enseva Hiawatha is located in the area Cedar Rapids, USA (America), and the colocation data center is  carrier neutral. The data center was last updated on 27-07-2012.",Enseva Hiawatha,USA,Iowa,52233,Hiawatha,Enseva Hiawatha,Enseva
"
	250 Marquette Avenue is located in the area Minneapolis, USA (America).",250 Marquette Avenue,,,,,,
"
	332 West Broadway is located in the area Louisville, USA (America).",332 West Broadway,,,,,,
"
	EBRC Data Center Betzdorf is located in the area Luxembourg, Luxembourg (Luxemburg), and the colocation data center is  carrier neutral. The data center was last updated on 19-02-2014.",EBRC Data Center Betzdorf,Luxembourg,,6832,Betzdorf,EBRC Data Center Betzdorf,"ebrc, e-Business & Resilience Centre"
"
	TeleNAP Primary is located in the area Hamilton, Canada, and the colocation data center is not  carrier neutral. The data center was last updated on 02-08-2012.",TeleNAP Primary,Canada,Ontario,L8H5L2,Hamilton,TeleNAP Primary,TeleNAP
"
	internet24 GmbH is located in the area Dresden, Germany (Deutschland), and the colocation data center is not  carrier neutral. The data center was last updated on 07-08-2012.",internet24 GmbH,Germany,,01067,Dresden,,internet24 GmbH
"
	BPL Global Data Center is located in the area Le Mans, France (Française), and the colocation data center is not  carrier neutral. The data center was last updated on 07-08-2012.",BPL Global Data Center,France,,72000,Le Mans,BPL Global Data Center,BPL Global EMEA
"
	Javerdel Data Center is located in the area HELSINKI, Finland (Suomi), and the colocation data center is  carrier neutral. The data center was last updated on 13-08-2012.",Javerdel Data Center,Finland,,00380,HELSINKI,Javerdel Data Center,JAVERDEL OY
"
	Madrid Lezama is located in the area Madrid, Spain (España), and the colocation data center is  carrier neutral. The data center was last updated on 28-01-2014.",Madrid Lezama,Spain,,28034,Madrid,Madrid Lezama,Interoute Communications Ltd
"
	zColo - 2100 M St is located in the area Washington D.C., USA (America), and the colocation data center is  carrier neutral. The data center was last updated on 21-10-2014.",zColo - 2100 M St,USA,District of Columbia,20037,Washington DC,zColo - 2100 M St,zColo
"
	3z Canada YYZ3 is located in the area Toronto, Canada, and the colocation data center is  carrier neutral. The data center was last updated on 15-08-2012.",3z Canada YYZ3,Canada,Ontario,M9B 6H7,Etobicoke,3z Canada YYZ3,3z Canada
"
	Oz Servers is located in the area Brisbane (Queensland), Australia, and the colocation data center is  carrier neutral. The data center was last updated on 15-08-2012.",Oz Servers,Australia,QLD,4169,Brisbane,,Oz Servers
"
	Candler Building is located in the area Baltimore, USA (America).",Candler Building,,,,,,
"
	C9D Data Center is located in the area Bloomington, USA (America), and the colocation data center is  carrier neutral. The data center was last updated on 06-08-2013.",C9D Data Center,USA,Illinois,61705,Bloomington,,C9D Data Center
"
	True Internet Data center is located in the area Bangkok, Thailand (Ratcha Anachak Thai), and the colocation data center is  carrier neutral. The data center was last updated on 06-09-2012.",True Internet Data center,Thailand,Bangkok,10310,Huai Khwang,True Internet Data center,True Internet Data Center
"
	Datawire Datacenter ZG02 is located in the area Zug, Switzerland (Schweiz), and the colocation data center is  carrier neutral. The data center was last updated on 18-08-2012.",Datawire Datacenter ZG02,Switzerland,Zug,6330,Cham,Datawire Datacenter ZG02,DATAWIRE AG
"
	Virtualapps UK is located in the area Croydon, United Kingdom (UK), and the colocation data center is not  carrier neutral. The data center was last updated on 18-08-2012.",Virtualapps UK,United Kingdom,Surrey,CR0 0XZ,Croydon,,Virtualapps UK
"
	AO Business Technology Solutions is located in the area Wichita, USA (America), and the colocation data center is  carrier neutral. The data center was last updated on 18-10-2012.",AO Business Technology Solutions,USA,Kansas,67218,Wichita,,AO Business Technology Solutions
"
	FLTG Park is located in the area Romulus, USA (America).",FLTG Park,,,,,,
"
	Elink Datacenter is located in the area Charleston, USA (America), and the colocation data center is not  carrier neutral. The data center was last updated on 08-04-2015.",Elink Datacenter,USA,South Carolina,29455,Johns Island,Elink Datacenter,elink corp
"
	True Internet Data center-Mungthong is located in the area Pakkred (Pak Kret), Thailand (Ratcha Anachak Thai), and the colocation data center is  carrier neutral. The data center was last updated on 06-09-2012.",True Internet Data center-Mungthong,Thailand,Nonthaburi,11120,Nonthaburi,True Internet Data center-Mungthong,True Internet Data Center
"
	Futian Data Center is located in the area Shenzhen, China, and the colocation data center is  carrier neutral. The data center was last updated on 25-08-2012.",Futian Data Center,China,Guangdong,518000,Futian,Futian Data Center,Cypress Telecom Limited
"
	redIT.DataPark is located in the area Mexico City (Ciudad de México), Mexico (United Mexican States), and the colocation data center is  carrier neutral. The data center was last updated on 07-09-2012.",redIT.DataPark,Mexico,Estado de Mexico,54948,Tultitlan,redIT.DataPark,redIT
"
	AIMES DC2 Kilby House is located in the area Liverpool, United Kingdom (UK), and the colocation data center is  carrier neutral. The data center was last updated on 31-10-2012.",AIMES DC2 Kilby House,United Kingdom,Merseyside,L7 9NJ,Liverpool,AIMES DC2 Kilby House,AIMES Grid Services CIC
"
	Reliance House - Newcastle is located in the area Newcastle (Newcastle upon Tyne), United Kingdom (UK), and the colocation data center is  carrier neutral. The data center was last updated on 13-09-2012.",Reliance House - Newcastle,United Kingdom,,NE4 7AN,Newcastle upon Tyne,Reliance House - Newcastle,Wildcard Networks
"
	TE-Data data center is located in the area Cairo (Al Qahirah), Egypt, and the colocation data center is  carrier neutral. The data center was last updated on 06-09-2012.",TE-Data data center,Egypt,,6 October 12577,Cairo,TE-Data data center,TE Data
"
	Contabo GmbH is located in the area Munich (Münich), Germany (Deutschland), and the colocation data center is  carrier neutral. The data center was last updated on 07-08-2014.",Contabo GmbH,Germany,Bavaria,81549,Munich,,Contabo GmbH
"
	Hivelocity Hosting is located in the area Tampa, USA (America), and the colocation data center is  carrier neutral. The data center was last updated on 07-10-2014.",Hivelocity Hosting,USA,Florida,33614,Tampa,Hivelocity Hosting,Hivelocity
"
	MANOC 4 is located in the area Manchester, United Kingdom (UK), and the colocation data center is  carrier neutral. The data center was last updated on 03-11-2013.",MANOC 4,United Kingdom,,M32 0TB,Manchester,MANOC 4,UKFast.net Limited
"
	TELIN DATA CENTER is located in the area Singapore, Singapore, and the colocation data center is  carrier neutral. The data center was last updated on 04-09-2012.",TELIN DATA CENTER,Singapore,,498814,Singapore,TELIN DATA CENTER,Telekomunikasi Indonesia International Pte Ltd
"
	Weberz Hosting is located in the area Portland, USA (America), and the colocation data center is not  carrier neutral. The data center was last updated on 14-09-2012.",Weberz Hosting,USA,Oregon,97024,Fairview,,Weberz Hosting
"
	PCNet Connecticut is located in the area Trumbull, USA (America), and the colocation data center is  carrier neutral. The data center was last updated on 04-11-2013.",PCNet Connecticut,USA,Connecticut,)6611,Trumbull,PCNet Connecticut,"PCnet, Inc."
"
	GO Datacenter is located in the area Riyadh (ar-Riya?), Saudi Arabia (Kingdom of Saudi Arabia (KSA)), and the colocation data center is  carrier neutral. The data center was last updated on 18-09-2012.",GO Datacenter,Saudi Arabia,,12432-6799,Riyadh,GO Datacenter,Etihad Atheeb Telecom. (GO)
"
	Beltelecom is located in the area Minsk, Belarus (Republic of Belarus), and the colocation data center is not  carrier neutral. The data center was last updated on 17-09-2012.",Beltelecom,Belarus,,220034,Minsk,Beltelecom,Steveas
"
	DC1 is located in the area Hobart (Tasmania), Australia, and the colocation data center is not  carrier neutral. The data center was last updated on 20-09-2012.",DC1,Australia,Tasmania,7000,Hobart,DC1,TasmaNet
"
	DC2+DC3 is located in the area Hobart (Tasmania), Australia, and the colocation data center is not  carrier neutral. The data center was last updated on 20-09-2012.",DC2+DC3,Australia,Tasmania,7010,Dowsings Point,DC2+DC3,TasmaNet
"
	Limassol Data Centre is located in the area Limassol, Cyprus (Republic of Cyprus), and the colocation data center is  carrier neutral. The data center was last updated on 04-10-2012.",Limassol Data Centre,Cyprus,,3506,Limassol,Limassol Data Centre,PrimeTel PLC
"
	inAsset | NixMad is located in the area Madrid, Spain (España), and the colocation data center is  carrier neutral. The data center was last updated on 05-07-2015.",inAsset | NixMad,Spain,Madrid,28031,Madrid,,inAsset | NixMad
"
	ByteLok Data Center is located in the area Vancouver, Canada, and the colocation data center is not  carrier neutral. The data center was last updated on 27-09-2012.",ByteLok Data Center,Canada,BC,V2S 2E2,Abbotsford,ByteLok Data Center,ByteLok IT Solutions Inc.
"
	Nicosia Data Centre is located in the area Nicosia, Cyprus (Republic of Cyprus), and the colocation data center is  carrier neutral. The data center was last updated on 04-10-2012.",Nicosia Data Centre,Cyprus,,2121,Nicosia,Nicosia Data Centre,PrimeTel PLC
"
	SKALI DC Sdn Bhd(CX2 & CX5) is located in the area Cyberjaya, Malaysia, and the colocation data center is not  carrier neutral. The data center was last updated on 04-10-2012.",SKALI DC Sdn Bhd(CX2 & CX5),Malaysia,Selangor,63000,Cyberjaya,SKALI DC Sdn Bhd(CX2 & CX5),SKALI DC Sdn Bhd (CX2 & CX5)
"
	Cofely Datacenter is located in the area Maastricht, The Netherlands (Holland), and the colocation data center is not  carrier neutral. The data center was last updated on 16-01-2014.",Cofely Datacenter,The Netherlands,Limburg,6199 AE,Maastricht-Airport (Beek),Cofely Datacenter,Cofely-Gdfsuez
"
	DoclerWeb is located in the area Budapest, Hungary, and the colocation data center is not  carrier neutral. The data center was last updated on 06-10-2012.",DoclerWeb,Hungary,,1101,Budapest,DoclerWeb,DoclerWeb Kft.
"
	RackSquared, LLC - Columbus OH is located in the area Columbus, USA (America), and the colocation data center is  carrier neutral. The data center was last updated on 25-04-2014.","RackSquared, LLC - Columbus OH",USA,Ohio,43215,Columbus,,"RackSquared, LLC - Columbus OH"
"
	Hostway Vancouver is located in the area Vancouver, Canada, and the colocation data center is not  carrier neutral. The data center was last updated on 22-10-2012.",Hostway Vancouver,Canada,BC,V6C 2B5,Vancouver,Hostway Vancouver,"Hostway Services, Inc"
"
	Vtesse Cirrus - Hoddesdon is located in the area Hertford, United Kingdom (UK), and the colocation data center is  carrier neutral. The data center was last updated on 08-10-2012.",Vtesse Cirrus - Hoddesdon,United Kingdom,Hertfordshire,en11,Hoddesdon,Vtesse Cirrus - Hoddesdon,vtesse
"
	LEB-DC #1 is located in the area Beirut, Lebanon (Lebanese Republic), and the colocation data center is not  carrier neutral. The data center was last updated on 01-01-2013.",LEB-DC #1,Lebanon,,00961,Ras Beirut,LEB-DC #1,Lebanese For Advanced Information
"
	Hostway Austin Waller is located in the area Austin, USA (America), and the colocation data center is  carrier neutral. The data center was last updated on 22-10-2012.",Hostway Austin Waller,USA,Texas,78702,Austin,Hostway Austin Waller,"Hostway Services, Inc"
"
	Axon Datacenter is located in the area Chicago, USA (America), and the colocation data center is not  carrier neutral. The data center was last updated on 11-10-2012.",Axon Datacenter,USA,Illinois,60018,Rosemont,Axon Datacenter,Axon Datacenters
"
	CMH-1 is located in the area Columbus, USA (America), and the colocation data center is  carrier neutral. The data center was last updated on 11-10-2012.",CMH-1,USA,Ohio,43231,Columbus,CMH-1,"eNET, Inc"
"
	EarthLink Boston Data Center is located in the area Marlborough, USA (America), and the colocation data center is not  carrier neutral. The data center was last updated on 28-05-2013.",EarthLink Boston Data Center,USA,Massachusetts,01752,Marlborough,EarthLink Boston Data Center,EarthLink
"
	Data Vault Grafton is located in the area Auckland, New Zealand, and the colocation data center is  carrier neutral. The data center was last updated on 21-08-2016.",Data Vault Grafton,New Zealand,,1010,Auckland,Data Vault Grafton,Data Vault
"
	Data Vault Hamilton is located in the area Hamilton NZ, New Zealand, and the colocation data center is  carrier neutral. The data center was last updated on 21-08-2016.",Data Vault Hamilton,New Zealand,,3200,Hamilton,Data Vault Hamilton,Data Vault
"
	ADN Datacenters is located in the area Alajuela, Costa Rica (Republic of Costa Rica), and the colocation data center is  carrier neutral. The data center was last updated on 24-09-2014.",ADN Datacenters,Costa Rica,Alajuela,1175 1200,Alajuela,,ADN Datacenters
"
	Concergent is located in the area Wichita, USA (America), and the colocation data center is  carrier neutral. The data center was last updated on 12-10-2012.",Concergent,USA,Kansas,67202,Wichita,Concergent,Concergent IT
"
	CROC ru-msk-vol51 is located in the area Moscow, Russia, and the colocation data center is not  carrier neutral. The data center was last updated on 15-10-2012.",CROC ru-msk-vol51,Russia,,111033,Moscow,CROC ru-msk-vol51,CROC incorporated
"
	CROC ru-msk-vol52 is located in the area Moscow, Russia, and the colocation data center is not  carrier neutral. The data center was last updated on 15-10-2012.",CROC ru-msk-vol52,Russia,,111033,Moscow,CROC ru-msk-vol52,CROC incorporated
"
	CROC ru-msk-comp1 is located in the area Moscow, Russia, and the colocation data center is not  carrier neutral. The data center was last updated on 15-10-2012.",CROC ru-msk-comp1,Russia,,111024,Moscow,CROC ru-msk-comp1,CROC incorporated
"
	Data Realty is located in the area South Bend, USA (America), and the colocation data center is  carrier neutral. The data center was last updated on 15-10-2012.",Data Realty,USA,Indiana,46601,South Bend,,Data Realty
"
	Netshield BSPA is located in the area Birmingham UK, United Kingdom (UK), and the colocation data center is not  carrier neutral. The data center was last updated on 17-10-2012.",Netshield BSPA,United Kingdom,,B7 4BB,Birmingham,Netshield BSPA,Netshield
"
	Cintech II is located in the area Singapore, Singapore, and the colocation data center is  carrier neutral. The data center was last updated on 19-10-2012.",Cintech II,Singapore,,118256,Singapore,Cintech II,Webvisions Pte Ltd
"
	Data Logistics Center is located in the area Vilnius, Lithuania (Republic of Lithuania), and the colocation data center is  carrier neutral. The data center was last updated on 17-10-2012.",Data Logistics Center,Lithuania,,09311,Vilnius,,Data Logistics Center
"
	UNIT-IS is located in the area Odessa, Ukraine (Ukrayina), and the colocation data center is  carrier neutral. The data center was last updated on 22-10-2012.",UNIT-IS,Ukraine,,65000,Odessa,,UNIT-IS
"
	MedNautilus Koropi Data Center is located in the area Athens (Athina), Greece (Hellenic Republic), and the colocation data center is  carrier neutral. The data center was last updated on 22-10-2012.",MedNautilus Koropi Data Center,Greece,,19400,Koropi,MedNautilus Koropi Data Center,MedNautilus Greece S.A.
"
	MedNautilus Chania Data Center is located in the area Chania, Greece (Hellenic Republic), and the colocation data center is  carrier neutral. The data center was last updated on 22-10-2012.",MedNautilus Chania Data Center,Greece,,73100,Chania,MedNautilus Chania Data Center,MedNautilus Greece S.A.
"
	ANETSIS.Net is located in the area Frankfurt (Frankfurt am Main), Germany (Deutschland), and the colocation data center is  carrier neutral. The data center was last updated on 03-04-2017.",ANETSIS.Net,Germany,Hessen,60326,Frankfurt am Main,,ANETSIS.Net
"
	CityNet Telekom is located in the area Istanbul, Turkey (Türkiye), and the colocation data center is  carrier neutral. The data center was last updated on 04-12-2015.",CityNet Telekom,Turkey,Istanbul,34515,Esenyurt,CityNet Telekom,CityNet Telecom
"
	Ascenty Data Center is located in the area Sao Paulo (São Paulo), Brazil (Brasil), and the colocation data center is  carrier neutral. The data center was last updated on 24-10-2012.",Ascenty Data Center,Brazil,Sao Paulo,13069,Campinas,Ascenty Data Center,Ascenty Data Centers
"
	Hostname.cl is located in the area Santiago, Chile (República de Chile), and the colocation data center is not  carrier neutral. The data center was last updated on 29-10-2012.",Hostname.cl,Chile,RM,7770266,Santiago,,Hostname.cl
"
	LeapSwitch Networks Pune DC is located in the area Pune, India, and the colocation data center is  carrier neutral. The data center was last updated on 14-11-2012.",LeapSwitch Networks Pune DC,India,Maharashtra,411045,Baner,LeapSwitch Networks Pune DC,LeapSwitch Networks Private Limited
"
	GTS Slovakia DC is located in the area Bratislava, Slovakia (Slovak Republic), and the colocation data center is  carrier neutral. The data center was last updated on 25-10-2012.",GTS Slovakia DC,Slovakia,,85101,Bratislava,GTS Slovakia DC,"GTS Slovakia, s.r.o."
"
	CSL DC is located in the area Birkirkara, Malta, and the colocation data center is  carrier neutral. The data center was last updated on 25-10-2012.",CSL DC,Malta,na,BKR9038,Birkirkara,CSL DC,Computer Solution Ltd.
"
	CentriLogic is located in the area Toronto, Canada, and the colocation data center is  carrier neutral. The data center was last updated on 29-06-2015.",CentriLogic,Canada,Ontario,M5J 1R7,Toronto,CentriLogic,Centrilogic
"
	AREA PROJECT is located in the area Albacete, Spain (España), and the colocation data center is not  carrier neutral. The data center was last updated on 28-10-2012.",AREA PROJECT,Spain,,02006,Albacete,AREA PROJECT,Area Project Solutions S.L.
"
	Unisys Eagan DC is located in the area Minneapolis, USA (America), and the colocation data center is not  carrier neutral. The data center was last updated on 31-10-2012.",Unisys Eagan DC,USA,Minnesota,55121,Eagan,Unisys Eagan DC,Jones Lang LaSalle
"
	CentriLogic UK is located in the area Berkshire, United Kingdom (UK), and the colocation data center is  carrier neutral. The data center was last updated on 29-06-2015.",CentriLogic UK,United Kingdom,Berkshire,RG12 1WA,Bracknell,CentriLogic UK,Centrilogic
"
	LGI Broad Ripple is located in the area Indianapolis, USA (America), and the colocation data center is not  carrier neutral. The data center was last updated on 15-11-2012.",LGI Broad Ripple,USA,Indiana,46220,Indianapolis,LGI Broad Ripple,LifeGrid Interent
"
	Zonamerica DC1 is located in the area Montevideo, Uruguay (Oriental Republic of Uruguay), and the colocation data center is  carrier neutral. The data center was last updated on 31-10-2012.",Zonamerica DC1,Uruguay,Montevideo,91600,Montevideo,Zonamerica DC1,Zonamerica
"
	Melita is located in the area Madliena, Malta, and the colocation data center is  carrier neutral. The data center was last updated on 16-11-2016.",Melita,Malta,Malta,SWQ,Madliena,Melita,Melita Data Centre
"
	RevNet Datacenter #1 is located in the area Braham, USA (America), and the colocation data center is not  carrier neutral. The data center was last updated on 02-02-2015.",RevNet Datacenter #1,USA,Minnesota,55006,Braham,RevNet Datacenter #1,"Revelation Network Management, Inc."
"
	Oxford Networks Data Center is located in the area Brunswick, USA (America), and the colocation data center is  carrier neutral. The data center was last updated on 07-11-2012.",Oxford Networks Data Center,USA,Maine,04011,Brunswick,Oxford Networks Data Center,Firstlight Fiber
"
	RevNet Datacenter #2 is located in the area Cambridge MN, USA (America), and the colocation data center is not  carrier neutral. The data center was last updated on 02-02-2015.",RevNet Datacenter #2,USA,Minnesota,55008,Cambridge,RevNet Datacenter #2,"Revelation Network Management, Inc."
"
	ITL DC is located in the area Kharkov, Ukraine (Ukrayina), and the colocation data center is not  carrier neutral. The data center was last updated on 08-11-2012.",ITL DC,Ukraine,,61000,Kharkiv,ITL DC,ITL
"
	Aspire Technology Solutions Ltd is located in the area Newcastle (Newcastle upon Tyne), United Kingdom (UK), and the colocation data center is not  carrier neutral. The data center was last updated on 08-11-2012.",Aspire Technology Solutions Ltd,United Kingdom,TYne and Wear,NE10 0UX,Gateshead,,Aspire Technology Solutions Ltd
"
	Blue Chip is located in the area Poole, United Kingdom (UK), and the colocation data center is not  carrier neutral. The data center was last updated on 20-11-2012.",Blue Chip,United Kingdom,Dorset,BH17 0RU,Poole,,Blue Chip
"
	noris network (NBG 6) is located in the area Nuremberg (Nürnberg), Germany (Deutschland), and the colocation data center is  carrier neutral. The data center was last updated on 06-06-2014.",noris network (NBG 6),Germany,,90471,Nürnberg,noris network (NBG 6),noris network AG
"
	Level 3 Rio De Janeiro is located in the area Rio de Janeiro, Brazil (Brasil), and the colocation data center is  carrier neutral. The data center was last updated on 15-07-2015.",Level 3 Rio De Janeiro,Brazil,,Quinta da Boa Vista 20941-070 Rio de Janeiro,Rio de Janeiro,Level 3 Rio De Janeiro,Level 3 Communications
"
	Drobeta Data Center is located in the area Drobeta Turnu Severin, Romania, and the colocation data center is  carrier neutral. The data center was last updated on 17-01-2013.",Drobeta Data Center,Romania,,220226,Drobeta Turnu Severin,Drobeta Data Center,DATA ZYX SRL
"
	7ve7 is located in the area Bursa, Turkey (Türkiye), and the colocation data center is not  carrier neutral. The data center was last updated on 19-11-2012.",7ve7,Turkey,,16000,Bursa,7ve7,7ve7 Telekomünikasyon ve Internet Hizmetleri San.Tic.Ltd.Sti.
"
	100 Wickham Street is located in the area Brisbane (Queensland), Australia.",100 Wickham Street,,,,,,
"
	Stack.M1 is located in the area Moscow, Russia, and the colocation data center is  carrier neutral. The data center was last updated on 21-11-2012.",Stack.M1,Russia,,117587,Moscow,Stack.M1,Stack Telecom
"
	320 Hill is located in the area Nashville, USA (America).",320 Hill,,,,,,
"
	Top-Colo is located in the area Frankfurt (Frankfurt am Main), Germany (Deutschland), and the colocation data center is not  carrier neutral. The data center was last updated on 25-11-2012.",Top-Colo,Germany,Neu,60326,Frankfurt am Main,,Top-Colo
"
	Clearstream Centre Cardiff is located in the area Cardiff, United Kingdom (UK), and the colocation data center is not  carrier neutral. The data center was last updated on 25-11-2012.",Clearstream Centre Cardiff,United Kingdom,,CF38 1Af,Cardiff,Clearstream Centre Cardiff,Clearstream Group
"
	Milk Point Mountain is located in the area Lulea, Sweden (Sverige).",Milk Point Mountain,,,,,,
"
	Ermesinde is located in the area Porto, Portugal, and the colocation data center is  carrier neutral. The data center was last updated on 25-11-2012.",Ermesinde,Portugal,,4445-283 Ermesinde,Ermesinde,Ermesinde,RENTELECOM
"
	ISG-Tier IV Data Center is located in the area Greenville, USA (America), and the colocation data center is not  carrier neutral. The data center was last updated on 30-11-2012.",ISG-Tier IV Data Center,USA,South Carolina,29301,Spartanburg,ISG-Tier IV Data Center,Integral Solutions Group
"
	Iliad Datacenter - DC3 is located in the area Paris, France (Française), and the colocation data center is  carrier neutral. The data center was last updated on 28-11-2012.",Iliad Datacenter - DC3,France,,94400,Vitry sur Seine,Iliad Datacenter - DC3,ILIAD DATACENTER
"
	SYNAPSECOM Thessaloniki SNC-1 is located in the area Thessaloniki, Greece (Hellenic Republic), and the colocation data center is  carrier neutral. The data center was last updated on 29-03-2017.",SYNAPSECOM Thessaloniki SNC-1,Greece,,54628,Thessaloniki,SYNAPSECOM Thessaloniki SNC-1,Synapsecom Telecoms
"
	BCC Data Center is located in the area Poznan, Poland (Polska), and the colocation data center is not  carrier neutral. The data center was last updated on 05-12-2012.",BCC Data Center,Poland,,62-002,Suchy Las near Poznan,BCC Data Center,Business Consulting Center
"
	Syptec - Tijuana is located in the area Tijuana, Mexico (United Mexican States), and the colocation data center is not  carrier neutral. The data center was last updated on 23-04-2015.",Syptec - Tijuana,Mexico,Baja California,cp22420,Tijuana,Syptec - Tijuana,Syptec
"
	One Wilshire Building is located in the area Los Angeles, USA (America).",One Wilshire Building,,,,,,
"
	Ottawa Walkley is located in the area ottawa, canada, and the colocation data center is not  carrier neutral. The data center was last updated on 06-12-2012.",Ottawa Walkley,canada,ontario,k1h1e1,ottawa,Ottawa Walkley,OttCOLO
"
	Hetzner Online Datacenterpark is located in the area Nuremberg (Nürnberg), Germany (Deutschland), and the colocation data center is  carrier neutral. The data center was last updated on 10-12-2012.",Hetzner Online Datacenterpark,Germany,,90431,Nürnberg,Hetzner Online Datacenterpark,Hetzner Online AG
"
	Hetzner Online Datacenterpark is located in the area Falkenstein, Germany (Deutschland), and the colocation data center is  carrier neutral. The data center was last updated on 10-12-2012.",Hetzner Online Datacenterpark,Germany,,08223,Falkenstein,Hetzner Online Datacenterpark,Hetzner Online AG
"
	Metro Data Center is located in the area Columbus, USA (America), and the colocation data center is  carrier neutral. The data center was last updated on 09-12-2012.",Metro Data Center,USA,Ohio,43017,Dublin,,Metro Data Center
"
	OSL1 is located in the area Oslo, Norway (Norge), and the colocation data center is  carrier neutral. The data center was last updated on 13-12-2012.",OSL1,Norway,,0579,Oslo,OSL1,Vault AS
"
	Arseva Datacenter Hizmetleri is located in the area Kayseri, Turkey (Türkiye), and the colocation data center is  carrier neutral. The data center was last updated on 14-12-2012.",Arseva Datacenter Hizmetleri,Turkey,Melikgazi,38039,kayseri,Arseva Datacenter Hizmetleri,Nilvera
"
	Hospedaje Web Servidores Dedicados is located in the area Manzanillo, Mexico (United Mexican States), and the colocation data center is not  carrier neutral. The data center was last updated on 25-12-2012.",Hospedaje Web Servidores Dedicados,Mexico,Colima,28864,Manzanillo,Hospedaje Web Servidores Dedicados,Hospedaje Web y Servidores Dedicados
"
	Chief LY Building is located in the area Taipei, Taiwan (Formosa), and the colocation data center is  carrier neutral. The data center was last updated on 15-12-2012.",Chief LY Building,Taiwan,,11491,Taipei,Chief LY Building,Chief Telecom Inc.
"
	IDC2@MekongNET is located in the area Phnom Penh, Cambodia (Kingdom of Cambodia), and the colocation data center is  carrier neutral. The data center was last updated on 16-10-2013.",IDC2@MekongNET,Cambodia,,12300,Phnom Penh,IDC2@MekongNET,MekongNET
"
	IDC1@MekongNET is located in the area Phnom Penh, Cambodia (Kingdom of Cambodia), and the colocation data center is  carrier neutral. The data center was last updated on 16-10-2013.",IDC1@MekongNET,Cambodia,,12211,Phnom Penh,IDC1@MekongNET,MekongNET
"
	The Internet Centre is located in the area Edmonton, Canada, and the colocation data center is not  carrier neutral. The data center was last updated on 03-01-2013.",The Internet Centre,Canada,Alberta,T6E 6H5,Edmonton,,The Internet Centre
"
	Cheapest DC Limited is located in the area Hong Kong, Hong Kong (Hong Kong, SAR of China), and the colocation data center is  carrier neutral. The data center was last updated on 27-12-2012.",Cheapest DC Limited,Hong Kong,1,1,Hong Kong,Cheapest DC Limited,Data Centre Hong Kong Limited
"
	Inforsud is located in the area Rodez, France (Française), and the colocation data center is  carrier neutral. The data center was last updated on 07-01-2013.",Inforsud,France,,12340,Bozouls,Inforsud,Inforsud Diffusion
"
	CHARLOTTE DATA CENTER is located in the area Charlotte, USA (America), and the colocation data center is  carrier neutral. The data center was last updated on 27-12-2013.",CHARLOTTE DATA CENTER,USA,North Carolina,28262,Charlotte,CHARLOTTE DATA CENTER,"Five 9s Digital, LLC"
"
	DATASIX Datacenter is located in the area Vienna (Wien), Austria (Österreich), and the colocation data center is  carrier neutral. The data center was last updated on 20-06-2013.",DATASIX Datacenter,Austria,,1060,Vienna,DATASIX Datacenter,ANEXIA Internetdienstleistungs GmbH
"
	Sapphire Europort is located in the area Gibraltar, Gibraltar, and the colocation data center is not  carrier neutral. The data center was last updated on 09-01-2013.",Sapphire Europort,Gibraltar,,GX11 1AA,Gibraltar,Sapphire Europort,Sapphire Networks
"
	Pidgin Host - Bucharest is located in the area Bucharest, Romania, and the colocation data center is not  carrier neutral. The data center was last updated on 20-04-2017.",Pidgin Host - Bucharest,Romania,Sector 6,062202,Bucharest,Pidgin Host - Bucharest,Pidgin Host S.R.L.
"
	Datacate Inc. is located in the area Sacramento, USA (America), and the colocation data center is  carrier neutral. The data center was last updated on 10-01-2013.",Datacate Inc.,USA,California,95670,Rancho Cordova,,Datacate Inc.
"
	Earthnet Data Center Boulder is located in the area Denver, USA (America), and the colocation data center is  carrier neutral. The data center was last updated on 03-12-2015.",Earthnet Data Center Boulder,USA,Colorado,80301,Boulder,Earthnet Data Center Boulder,Earthnet Data Center and Consulting Boulder Colorado
"
	Confisio DataCenter is located in the area Nicosia, Cyprus (Republic of Cyprus), and the colocation data center is  carrier neutral. The data center was last updated on 31-07-2013.",Confisio DataCenter,Cyprus,,CY-2223,Latsia,,Confisio DataCenter
"
	Timico Newark is located in the area Nottingham, United Kingdom (UK), and the colocation data center is not  carrier neutral. The data center was last updated on 15-01-2013.",Timico Newark,United Kingdom,Notts,NG24 2AG,Newark,Timico Newark,Timico Ltd
"
	Ruweb-NN is located in the area Nighny Novgorod, Russia, and the colocation data center is  carrier neutral. The data center was last updated on 15-01-2013.",Ruweb-NN,Russia,,603001,Nighny Novgorod,Ruweb-NN,RUWEB-NN
"
	Cloud Center Andalucia is located in the area Granada, Spain (España), and the colocation data center is  carrier neutral. The data center was last updated on 06-02-2014.",Cloud Center Andalucia,Spain,,18015,Granada,Cloud Center Andalucia,Cloud Center Andalucía de Grupo Trevenque
"
	Newport Financial Center is located in the area Hudson County, USA (America).",Newport Financial Center,,,,,,
"
	Global Switch Madrid is located in the area Madrid, Spain (España), and the colocation data center is  carrier neutral. The data center was last updated on 22-01-2013.",Global Switch Madrid,Spain,,28022,Madrid,Global Switch Madrid,Global Switch
"
	AZNetwork is located in the area Alencon, France (Française), and the colocation data center is not  carrier neutral. The data center was last updated on 26-02-2013.",AZNetwork,France,,61000,Alencon,,AZNetwork
"
	Data Center Varion is located in the area Warsaw (Warszawa), Poland (Polska), and the colocation data center is  carrier neutral. The data center was last updated on 13-02-2013.",Data Center Varion,Poland,,02-822,Warsaw,Data Center Varion,Varion Telecom
"
	Landmark IV is located in the area Kelowna, Canada.",Landmark IV,,,,,,
"
	Ad Valem Switzerland is located in the area Geneva (Genève), switzerland (Schweiz), and the colocation data center is  carrier neutral. The data center was last updated on 13-02-2013.",Ad Valem Switzerland,switzerland,,1897,Le Bouveret,Ad Valem Switzerland,Ad Valem Technologies
"
	Medyabim Datacenter is located in the area BURSA, Turkey (Türkiye), and the colocation data center is not  carrier neutral. The data center was last updated on 02-02-2013.",Medyabim Datacenter,Turkey,osmangazi,16080,BURSA,Medyabim Datacenter,Medyabim Internet Hizmetleri
"
	TurkNet Data Center is located in the area Istanbul, Turkey (Türkiye), and the colocation data center is  carrier neutral. The data center was last updated on 30-01-2013.",TurkNet Data Center,Turkey,,34394,Istanbul,TurkNet Data Center,TurkNet Iletisim Hizmetleri A.S.
"
	eircom Clonshaugh is located in the area Dublin, Ireland (Éire), and the colocation data center is  carrier neutral. The data center was last updated on 05-02-2013.",eircom Clonshaugh,Ireland,,Dublin 17,Dublin 17,eircom Clonshaugh,eircom Limited
"
	WEBDEV Data Center is located in the area Radom, Poland (Polska), and the colocation data center is not  carrier neutral. The data center was last updated on 19-02-2013.",WEBDEV Data Center,Poland,,26-600,Radom,WEBDEV Data Center,WEBDEV
"
	Chapal is located in the area Karachi, Pakistan (Islamic Republic of Pakistan), and the colocation data center is not  carrier neutral. The data center was last updated on 14-02-2017.",Chapal,Pakistan,Sindh,75600,Karachi,,Chapal
"
	TELEHOUSE Singapore is located in the area Singapore, Singapore, and the colocation data center is  carrier neutral. The data center was last updated on 09-06-2015.",TELEHOUSE Singapore,Singapore,,069534,Singapore,TELEHOUSE Singapore,KDDI Corporation
"
	TELEHOUSE Hong Kong - 1 is located in the area Hong Kong, Hong Kong (Hong Kong, SAR of China), and the colocation data center is  carrier neutral. The data center was last updated on 09-06-2015.",TELEHOUSE Hong Kong - 1,Hong Kong,,?,Hong Kong,TELEHOUSE Hong Kong - 1,KDDI Corporation
"
	TELEHOUSE Seoul is located in the area Seoul, South Korea (Republic of Korea), and the colocation data center is  carrier neutral. The data center was last updated on 09-06-2015.",TELEHOUSE Seoul,South Korea,,100-170,Seoul,TELEHOUSE Seoul,KDDI Corporation
"
	Injazat Data Center is located in the area Abu Dhabi, United Arab Emirates (UAE), and the colocation data center is not  carrier neutral. The data center was last updated on 14-02-2013.",Injazat Data Center,United Arab Emirates,,8230,Mohammed Bin Zayed City,Injazat Data Center,Injazat Data Systems
"
	GlobalConnect Odense is located in the area Odense, Denmark (Danmark), and the colocation data center is  carrier neutral. The data center was last updated on 11-02-2013.",GlobalConnect Odense,Denmark,,5220,Odense SOE,GlobalConnect Odense,GlobalConnect A/S
"
	Hong Kong Serverworks Data Centre is located in the area Tsuen Wan, Hong Kong (Hong Kong, SAR of China), and the colocation data center is  carrier neutral. The data center was last updated on 05-12-2013.",Hong Kong Serverworks Data Centre,Hong Kong,,HK,Hong Kong,,Hong Kong Serverworks Data Centre
"
	GlobalConnect Stilling is located in the area Skanderborg, Denmark (Danmark), and the colocation data center is  carrier neutral. The data center was last updated on 11-02-2013.",GlobalConnect Stilling,Denmark,,8660,Skanderborg,GlobalConnect Stilling,GlobalConnect A/S
"
	TELEHOUSE Beijing BEZ - 1 is located in the area Beijing, China, and the colocation data center is  carrier neutral. The data center was last updated on 22-06-2015.",TELEHOUSE Beijing BEZ - 1,China,,Beijng,Beijing,TELEHOUSE Beijing BEZ - 1,KDDI Corporation
"
	Data Holdings LLC is located in the area Milwaukee, USA (America), and the colocation data center is  carrier neutral. The data center was last updated on 18-02-2015.",Data Holdings LLC,USA,Wisconsin,53208,Milwaukee,,Data Holdings LLC
"
	GIGANET is located in the area Nyiregyhaza (Nyíregyháza), Hungary, and the colocation data center is not  carrier neutral. The data center was last updated on 18-02-2013.",GIGANET,Hungary,SZSZB,4400,Nyíregyháza,GIGANET,Giganet ISP
"
	East Cincinnati (Ivy Pointe) is located in the area Cincinnati, USA (America), and the colocation data center is  carrier neutral. The data center was last updated on 28-10-2013.",East Cincinnati (Ivy Pointe),USA,Ohio,45245,Cincinnati,East Cincinnati (Ivy Pointe),Immedion
"
	Tata Communications Mumbai Andheri is located in the area Mumbai, India, and the colocation data center is  carrier neutral. The data center was last updated on 20-02-2013.",Tata Communications Mumbai Andheri,India,Maharashtra,400093,Mumbai,Tata Communications Mumbai Andheri,Tata Communications
"
	Tata Communications Mumbai LVSB is located in the area Mumbai, India, and the colocation data center is  carrier neutral. The data center was last updated on 20-02-2013.",Tata Communications Mumbai LVSB,India,Maharashtra,400028,Mumbai,Tata Communications Mumbai LVSB,Tata Communications
"
	Tata Communications Bangalore KIADB is located in the area Bangalore (Bengaluru), India, and the colocation data center is  carrier neutral. The data center was last updated on 13-05-2015.",Tata Communications Bangalore KIADB,India,Karnataka,560066,Bangalore,Tata Communications Bangalore KIADB,Tata Communications
"
	Tata Communications Bangalore VSB is located in the area Bangalore (Bengaluru), India, and the colocation data center is  carrier neutral. The data center was last updated on 20-02-2013.",Tata Communications Bangalore VSB,India,Karnataka,560094,Bangalore,Tata Communications Bangalore VSB,Tata Communications
"
	Tata Communications Delhi VSB is located in the area New Delhi, India, and the colocation data center is  carrier neutral. The data center was last updated on 20-02-2013.",Tata Communications Delhi VSB,India,New Delhi,110001,New Delhi,Tata Communications Delhi VSB,Tata Communications
"
	Tata Communications Kolkata is located in the area Kolkata, India, and the colocation data center is  carrier neutral. The data center was last updated on 20-02-2013.",Tata Communications Kolkata,India,West Bengal,700054,Kolkata,Tata Communications Kolkata,Tata Communications
"
	Tata Communications New Delhi GK1 is located in the area New Delhi, India, and the colocation data center is  carrier neutral. The data center was last updated on 20-02-2013.",Tata Communications New Delhi GK1,India,New Delhi,110048,New Delhi,Tata Communications New Delhi GK1,Tata Communications
"
	Tata Communications Hyderabad is located in the area Hyderabad, India, and the colocation data center is  carrier neutral. The data center was last updated on 20-02-2013.",Tata Communications Hyderabad,India,Andhra Pradesh,500081,Hyderabad,Tata Communications Hyderabad,Tata Communications
"
	Tata Communications Chennai VSB is located in the area Chennai, India, and the colocation data center is  carrier neutral. The data center was last updated on 20-02-2013.",Tata Communications Chennai VSB,India,Tamil Nadu,600002,Chennai,Tata Communications Chennai VSB,Tata Communications
"
	Tata Communications Pune is located in the area Pune, India, and the colocation data center is  carrier neutral. The data center was last updated on 20-02-2013.",Tata Communications Pune,India,Maharashtra,411015,Pune,Tata Communications Pune,Tata Communications
"
	Tata Communications Highbridge is located in the area Somerset, United Kingdom (UK), and the colocation data center is  carrier neutral. The data center was last updated on 20-02-2013.",Tata Communications Highbridge,United Kingdom,,TA9 4JP,Highbridge,Tata Communications Highbridge,Tata Communications
"
	Tata Communications Hillsboro is located in the area Portland, USA (America), and the colocation data center is  carrier neutral. The data center was last updated on 20-02-2013.",Tata Communications Hillsboro,USA,Oregon,97124,Hillsboro,Tata Communications Hillsboro,Tata Communications
"
	Tata Communications Wall NJ is located in the area Wall Township, USA (America), and the colocation data center is not  carrier neutral. The data center was last updated on 20-02-2013.",Tata Communications Wall NJ,USA,New Jersey,07719,Wall Township,Tata Communications Wall NJ,Tata Communications
"
	Tata Communications Ambattur is located in the area Chennai, India, and the colocation data center is  carrier neutral. The data center was last updated on 20-02-2013.",Tata Communications Ambattur,India,Tamil Nadu,600053,Chennai,Tata Communications Ambattur,Tata Communications
"
	Tata Communications Singapore TCX is located in the area Singapore, Singapore, and the colocation data center is  carrier neutral. The data center was last updated on 20-02-2013.",Tata Communications Singapore TCX,Singapore,Singapore,534103,Singapore,Tata Communications Singapore TCX,Tata Communications
"
	Tata Communications Singapore GS is located in the area Singapore, Singapore, and the colocation data center is  carrier neutral. The data center was last updated on 20-02-2013.",Tata Communications Singapore GS,Singapore,Singapore,534408,Singapore,Tata Communications Singapore GS,Tata Communications
"
	Tata Communications Stratford is located in the area London, United Kingdom (UK), and the colocation data center is  carrier neutral. The data center was last updated on 20-02-2013.",Tata Communications Stratford,United Kingdom,,E15 1NG,London,Tata Communications Stratford,Tata Communications
"
	717 S. Well St. is located in the area Chicago, USA (America).",717 S. Well St.,,,,,,
"
	360 East 22nd Street is located in the area Chicago, USA (America).",360 East 22nd Street,,,,,,
"
	1808 Swift Drive is located in the area Chicago, USA (America).",1808 Swift Drive,,,,,,
"
	600 West Chicago Avenue is located in the area Chicago, USA (America).",600 West Chicago Avenue,,,,,,
"
	Syntigo data centre is located in the area Mechelen, Belgium, and the colocation data center is  carrier neutral. The data center was last updated on 01-03-2013.",Syntigo data centre,Belgium,,2812,Muizen,Syntigo data centre,Syntigo
"
	APT Satellite is located in the area Tai Po, Hong Kong (Hong Kong, SAR of China).",APT Satellite,,,,,,
"
	NCC 1623 Farnam is located in the area Omaha, USA (America), and the colocation data center is  carrier neutral. The data center was last updated on 06-03-2013.",NCC 1623 Farnam,USA,Nebraska,68102,Omaha,NCC 1623 Farnam,Nebraska Colocation Centers
"
	Sharp building is located in the area Lincoln, USA (America), and the colocation data center is  carrier neutral. The data center was last updated on 06-03-2013.",Sharp building,USA,Nebraska,68508,Lincoln,Sharp building,Nebraska Colocation Centers
"
	CUBE is located in the area Gibraltar, Gibraltar, and the colocation data center is  carrier neutral. The data center was last updated on 08-01-2014.",CUBE,Gibraltar,,GX1 1AA,Gibraltar,CUBE,Cube
"
	Peachtree Data Center is located in the area Atlanta, USA (America).",Peachtree Data Center,,,,,,
"
	Tux.co.il is located in the area Tel Aviv, Israel, and the colocation data center is not  carrier neutral. The data center was last updated on 07-03-2013.",Tux.co.il,Israel,,48091,Rosh Haain,Tux.co.il,Tux Internet
"
	The Brownrice Datacenter is located in the area Taos, USA (America), and the colocation data center is  carrier neutral. The data center was last updated on 11-03-2013.",The Brownrice Datacenter,USA,New Mexico,87571,Taos,The Brownrice Datacenter,"Brownrice Internet, Inc."
"
	KIRZ Data Center is located in the area Bangkok, Thailand (Ratcha Anachak Thai), and the colocation data center is  carrier neutral. The data center was last updated on 15-03-2013.",KIRZ Data Center,Thailand,,10110,Bangkok,KIRZ Data Center,KIRZ
"
	Jaygah is located in the area Tehran, Iran, and the colocation data center is  carrier neutral. The data center was last updated on 14-03-2013.",Jaygah,Iran,Tehran,1133634113,Tehran,Jaygah,Advanced Communications Technology
"
	Oversun-Mercury is located in the area Moscow, Russia, and the colocation data center is not  carrier neutral. The data center was last updated on 14-03-2013.",Oversun-Mercury,Russia,,111024,Moscow,Oversun-Mercury,Oversun
"
	East Africa Data Center is located in the area Nairobi, Kenya (Republic of Kenya), and the colocation data center is  carrier neutral. The data center was last updated on 04-10-2013.",East Africa Data Center,Kenya,Kenya,254,Nairobi,East Africa Data Center,Liquid Telecom Kenya
"
	TelecityGroup Paris (Condorcet) is located in the area Paris, France (Française), and the colocation data center is  carrier neutral. The data center was last updated on 18-03-2013.",TelecityGroup Paris (Condorcet),France,,93300,Paris,TelecityGroup Paris (Condorcet),TelecityGroup
"
	Nancy SJ1 is located in the area Nancy, France (Française), and the colocation data center is not  carrier neutral. The data center was last updated on 27-03-2013.",Nancy SJ1,France,,54320,Maxéville,Nancy SJ1,ADISTA
"
	Nancy SJ2 is located in the area Nancy, france (Française), and the colocation data center is not  carrier neutral. The data center was last updated on 27-03-2013.",Nancy SJ2,france,,54320,Maxéville,Nancy SJ2,ADISTA
"
	TRIJIT INDIA DATACENTER is located in the area Bangalore (Bengaluru), India, and the colocation data center is  carrier neutral. The data center was last updated on 23-03-2013.",TRIJIT INDIA DATACENTER,India,Karnataka,560064,Bangalore,TRIJIT INDIA DATACENTER,"Trijit Technologies Pvt. Ltd.,"
"
	BurstNET - PA DC2 is located in the area Scranton, USA (America), and the colocation data center is  carrier neutral. The data center was last updated on 28-09-2013.",BurstNET - PA DC2,USA,Pennsylvania,18512,Dunmore,BurstNET - PA DC2,BurstNET
"
	Orange County Managed Colo is located in the area Newport Beach, USA (America), and the colocation data center is  carrier neutral. The data center was last updated on 21-03-2013.",Orange County Managed Colo,USA,California,92660,Newport Beach,Orange County Managed Colo,RCG International
"
	Venyu Baton Rouge is located in the area Baton Rouge, USA (America), and the colocation data center is  carrier neutral. The data center was last updated on 22-03-2013.",Venyu Baton Rouge,USA,Louisiana,70806,Baton Rouge,Venyu Baton Rouge,Venyu
"
	Venyu Bossier City / Shreveport is located in the area Shreveport, USA (America), and the colocation data center is  carrier neutral. The data center was last updated on 22-03-2013.",Venyu Bossier City / Shreveport,USA,Louisiana,71111,Bossier City,Venyu Bossier City / Shreveport,Venyu
"
	Datacenter MUC (East) is located in the area Munich (Münich), Germany (Deutschland), and the colocation data center is  carrier neutral. The data center was last updated on 23-03-2013.",Datacenter MUC (East),Germany,,81829,Munich,Datacenter MUC (East),Datacenter Muc
"
	Geraldton Data Centre is located in the area Geraldton, Australia, and the colocation data center is  carrier neutral. The data center was last updated on 25-03-2013.",Geraldton Data Centre,Australia,WA,6530,Geraldton,,Geraldton Data Centre
"
	Downtown Toronto is located in the area Toronto, Canada, and the colocation data center is  carrier neutral. The data center was last updated on 25-03-2013.",Downtown Toronto,Canada,Ontario,M5H 1J8,Toronto,Downtown Toronto,Cogeco Data Services Inc.
"
	Toronto West is located in the area Toronto, Canada, and the colocation data center is  carrier neutral. The data center was last updated on 25-03-2013.",Toronto West,Canada,Ontario,M8W 4W3,Etobicoke,Toronto West,Cogeco Data Services Inc.
"
	Barrie Data Centre is located in the area Barrie, Canada, and the colocation data center is  carrier neutral. The data center was last updated on 25-03-2013.",Barrie Data Centre,Canada,ON,L4N 0B7,Barrie,Barrie Data Centre,Cogeco Data Services Inc.
"
	ServeisWeb is located in the area Girona, Spain (España), and the colocation data center is not  carrier neutral. The data center was last updated on 28-03-2013.",ServeisWeb,Spain,Girona,17458,Fornells de la Selva,ServeisWeb,SW Hosting
"
	MegaHostZone is located in the area Kolkata, india, and the colocation data center is not  carrier neutral. The data center was last updated on 10-04-2013.",MegaHostZone,india,West Bengal,742102,Berhampore,MegaHostZone,Megahostzone
"
	Data Center GVT Curitiba is located in the area Curitiba, Brazil (Brasil), and the colocation data center is not  carrier neutral. The data center was last updated on 02-04-2013.",Data Center GVT Curitiba,Brazil,Paraná,80215-000,Curitiba,Data Center GVT Curitiba,GVT
"
	DC GVT São Paulo - Guarulhos is located in the area Sao Paulo (São Paulo), Brazil (Brasil), and the colocation data center is not  carrier neutral. The data center was last updated on 03-04-2013.",DC GVT São Paulo - Guarulhos,Brazil,São Paulo,07094-000,Guarulhos,DC GVT São Paulo - Guarulhos,GVT
"
	Data Center GVT Rio de Janeiro is located in the area Rio de Janeiro, Brazil (Brasil), and the colocation data center is not  carrier neutral. The data center was last updated on 02-04-2013.",Data Center GVT Rio de Janeiro,Brazil,Rio de Janeiro,20220-090,Rio de Janeiro,Data Center GVT Rio de Janeiro,GVT
"
	OFFSITE is located in the area Kenosha, USA (America), and the colocation data center is not  carrier neutral. The data center was last updated on 02-04-2013.",OFFSITE,USA,Wisconsin,53140,Kenosha,,OFFSITE
"
	Endeavor - Honolulu Data Center is located in the area Honolulu, USA (America), and the colocation data center is  carrier neutral. The data center was last updated on 08-04-2013.",Endeavor - Honolulu Data Center,USA,Hawaii,96819,Honolulu,Endeavor - Honolulu Data Center,"Systemmetrics - Honolulu, Hawaii - Data Center"
"
	Vocus Data Centre - ALbany is located in the area Auckland, New Zealand, and the colocation data center is  carrier neutral. The data center was last updated on 05-04-2013.",Vocus Data Centre - ALbany,New Zealand,,0632,Albany,Vocus Data Centre - ALbany,Vocus Communications
"
	Vocus Data Centre - Chrischurch is located in the area Christchurch, New Zealand, and the colocation data center is  carrier neutral. The data center was last updated on 05-04-2013.",Vocus Data Centre - Chrischurch,New Zealand,,7471,Burnside,Vocus Data Centre - Chrischurch,Vocus Communications
"
	Vocus Data Centre - Steel River is located in the area Newcastle AU, Australia, and the colocation data center is  carrier neutral. The data center was last updated on 05-04-2013.",Vocus Data Centre - Steel River,Australia,NSW,2304,Mayfield,Vocus Data Centre - Steel River,Vocus Communications
"
	Vocus Data Centre - Denison is located in the area Newcastle AU, Australia, and the colocation data center is not  carrier neutral. The data center was last updated on 05-04-2013.",Vocus Data Centre - Denison,Australia,NSW,2302,Newcastle,Vocus Data Centre - Denison,Vocus Communications
"
	GDS Chengdu Data Center is located in the area Chengdu, China, and the colocation data center is  carrier neutral. The data center was last updated on 07-04-2013.",GDS Chengdu Data Center,China,,611730,Chengdu,GDS Chengdu Data Center,GDS
"
	GDS Shenzhen  Futian Data Center is located in the area Shenzhen, China, and the colocation data center is  carrier neutral. The data center was last updated on 07-04-2013.",GDS Shenzhen  Futian Data Center,China,,518045,Shenzhen,GDS Shenzhen  Futian Data Center,GDS
"
	Xentime is located in the area Kiev, Ukraine (Ukrayina), and the colocation data center is not  carrier neutral. The data center was last updated on 07-04-2013.",Xentime,Ukraine,,04107,Kiev,,Xentime
"
	GDS Waigaoqiao Data Center is located in the area Shanghai, China, and the colocation data center is  carrier neutral. The data center was last updated on 08-04-2013.",GDS Waigaoqiao Data Center,China,,200131,Shanghai,GDS Waigaoqiao Data Center,GDS
"
	GDS Kunshan Data Center is located in the area Shanghai, China, and the colocation data center is  carrier neutral. The data center was last updated on 08-04-2013.",GDS Kunshan Data Center,China,,215332,Kunshan,GDS Kunshan Data Center,GDS
"
	DATACENTER LYON 3 is located in the area LYON, France (Française), and the colocation data center is not  carrier neutral. The data center was last updated on 08-04-2013.",DATACENTER LYON 3,France,France,69100,Villeurbanne,DATACENTER LYON 3,ELB Group
"
	Adentro Data Center Solutions is located in the area Porto Alegre, Brazil (Brasil), and the colocation data center is not  carrier neutral. The data center was last updated on 08-04-2013.",Adentro Data Center Solutions,Brazil,Rio Grande do Sul,90240-552,São Geraldo,Adentro Data Center Solutions,ADENTRO DATA CENTER SOLUTIONS LTDA
"
	Elb.it is located in the area Milan (Milano), Italy (Italia), and the colocation data center is not  carrier neutral. The data center was last updated on 09-04-2013.",Elb.it,Italy,,20143,Milan,,Elb.it
"
	Stack Kazan is located in the area Kazan, Russia, and the colocation data center is not  carrier neutral. The data center was last updated on 06-05-2014.",Stack Kazan,Russia,,420111,Kazan,,Stack Kazan
"
	Comlink is located in the area Lansing, USA (America), and the colocation data center is not  carrier neutral. The data center was last updated on 10-04-2013.",Comlink,USA,Michigan,48823,East Lansing,,Comlink
"
	Comlink is located in the area Grand Rapids, USA (America), and the colocation data center is not  carrier neutral. The data center was last updated on 10-04-2013.",Comlink,USA,Michigan,49546,Grand Rapids,,Comlink
"
	Intellicentre 4 Bunker is located in the area Canberra, Australia, and the colocation data center is not  carrier neutral. The data center was last updated on 11-04-2013.",Intellicentre 4 Bunker,Australia,ACT,2601,Canberra,Intellicentre 4 Bunker,Macquarie Cloud Services
"
	BSNL-SIS Data Center is located in the area Bangalore (Bengaluru), India, and the colocation data center is  carrier neutral. The data center was last updated on 11-04-2013.",BSNL-SIS Data Center,India,Karnataka,560016,KR Puram,BSNL-SIS Data Center,Sai InfoSystem India Ltd.
"
	BSNL-SIS Data Center Hyderabad is located in the area Hyderabad, India, and the colocation data center is  carrier neutral. The data center was last updated on 11-04-2013.",BSNL-SIS Data Center Hyderabad,India,Andhra Pradesh,502319,Patancheru,BSNL-SIS Data Center Hyderabad,Sai InfoSystem India Ltd.
"
	Bletchley Cloud is located in the area Milton Keynes, United Kingdom (UK), and the colocation data center is not  carrier neutral. The data center was last updated on 12-04-2013.",Bletchley Cloud,United Kingdom,,MK3 6EB,Milton Keynes,,Bletchley Cloud
"
	BSNL-SIS Data Center Cochin is located in the area Alappuzha, India, and the colocation data center is not  carrier neutral. The data center was last updated on 11-04-2013.",BSNL-SIS Data Center Cochin,India,Kerala,688524,Cochin,BSNL-SIS Data Center Cochin,Sai InfoSystem India Ltd.
"
	JBT.PIN.se is located in the area Gothenburg (Göteborg), Sweden (Sverige), and the colocation data center is not  carrier neutral. The data center was last updated on 11-04-2013.",JBT.PIN.se,Sweden,,Västra Frölunda 421 47,Västra Frölunda,JBT.PIN.se,PIN
"
	OMNILANCE is located in the area Nikolaev, Ukraine (Ukrayina), and the colocation data center is not  carrier neutral. The data center was last updated on 12-04-2013.",OMNILANCE,Ukraine,Nikolaevskaya oblast,54030,Nikolaev,OMNILANCE,OMNILANCE Ltd
"
	TeliaSonera DRES is located in the area Dresden, Germany (Deutschland), and the colocation data center is  carrier neutral. The data center was last updated on 16-04-2013.",TeliaSonera DRES,Germany,,01139,Dresden,TeliaSonera DRES,TeliaSonera International Carrier
"
	TeliaSonera MCN is located in the area Munich (Münich), Germany (Deutschland), and the colocation data center is  carrier neutral. The data center was last updated on 16-04-2013.",TeliaSonera MCN,Germany,,80807,München,TeliaSonera MCN,TeliaSonera International Carrier
"
	TeliaSonera STGRT/Z is located in the area Stuttgart, Germany (Deutschland), and the colocation data center is  carrier neutral. The data center was last updated on 16-04-2013.",TeliaSonera STGRT/Z,Germany,,70567,Stuttgart,TeliaSonera STGRT/Z,TeliaSonera International Carrier
"
	TeliaSonera ROSY is located in the area Paris, France (Française), and the colocation data center is  carrier neutral. The data center was last updated on 16-04-2013.",TeliaSonera ROSY,France,,93420,Villepinte,TeliaSonera ROSY,TeliaSonera International Carrier
"
	Exchange Tower is located in the area London, United Kingdom (UK).",Exchange Tower,,,,,,
"
	Datum FRN1 is located in the area Farnborough, United Kingdom (UK), and the colocation data center is  carrier neutral. The data center was last updated on 21-07-2015.",Datum FRN1,United Kingdom,Hampshire,GU140LX,Farnborough,Datum FRN1,Datum Datacentres Ltd
"
	Braye Road is located in the area Vale, Guernsey (Bailiwick of Guernsey), and the colocation data center is  carrier neutral. The data center was last updated on 27-09-2013.",Braye Road,Guernsey,,GY2 4WX,Guernsey,Braye Road,C5 Alliance
"
	ApineDC is located in the area Lausanne, Switzerland (Schweiz), and the colocation data center is  carrier neutral. The data center was last updated on 01-07-2013.",ApineDC,Switzerland,Vaud,1005,Lausanne,ApineDC,AlpineDC SA
"
	Dataport is located in the area den Helder, The Netherlands (Holland), and the colocation data center is  carrier neutral. The data center was last updated on 07-05-2014.",Dataport,The Netherlands,North Holland,1785LX,Den Helder,,Dataport
"
	Next Generation Data is located in the area South Wales, United Kingdom (UK), and the colocation data center is  carrier neutral. The data center was last updated on 22-04-2013.",Next Generation Data,United Kingdom,,NP10 8BE,Newport,Next Generation Data,Next Connex
"
	WZH2 is located in the area Zürich, Switzerland (Schweiz), and the colocation data center is not  carrier neutral. The data center was last updated on 22-04-2013.",WZH2,Switzerland,ZH,8633,Wolfhausen,WZH2,HiHo GmbH
"
	WZH1 is located in the area Zürich, Switzerland (Schweiz), and the colocation data center is not  carrier neutral. The data center was last updated on 22-04-2013.",WZH1,Switzerland,ZH,8633,Wolfhausen,WZH1,HiHo GmbH
"
	Aegis One is located in the area Surrey, United Kingdom (UK), and the colocation data center is  carrier neutral. The data center was last updated on 07-05-2013.",Aegis One,United Kingdom,,GU7 1LB,Guildford,Aegis One,Aegis Data Limited
"
	Greenhouse Ecological Datacenters is located in the area Den Haag, The Netherlands (Holland), and the colocation data center is  carrier neutral. The data center was last updated on 25-04-2013.",Greenhouse Ecological Datacenters,The Netherlands,Zuid-Holland,2671CT,NAALDWIJK,,Greenhouse Ecological Datacenters
"
	HostAway is located in the area Perth (Western Australia), Australia, and the colocation data center is not  carrier neutral. The data center was last updated on 29-04-2013.",HostAway,Australia,WA,6090,Malaga,HostAway,HostAway Pty Ltd
"
	TIFA Building is located in the area Jakarta (Djakarta), Indonesia.",TIFA Building,,,,,,
"
	ORI.NET Noblesville is located in the area Noblesville, USA (America), and the colocation data center is  carrier neutral. The data center was last updated on 03-05-2013.",ORI.NET Noblesville,USA,Indiana,46060,Noblesville,ORI.NET Noblesville,"On-Ramp Indiana, Inc."
"
	WebRunners Irvine Data Center is located in the area Irvine, USA (America), and the colocation data center is  carrier neutral. The data center was last updated on 01-06-2013.",WebRunners Irvine Data Center,USA,California,92618,Irvine,WebRunners Irvine Data Center,WebRunners Inc.
"
	ISG Topeka is located in the area Topeka, USA (America), and the colocation data center is  carrier neutral. The data center was last updated on 07-05-2013.",ISG Topeka,USA,Kansas,66607,Topeka,ISG Topeka,ISG Technology
"
	Rack Lodge is located in the area San Jose CR, Costa Rica (Republic of Costa Rica), and the colocation data center is  carrier neutral. The data center was last updated on 09-05-2013.",Rack Lodge,Costa Rica,,10000,San Jose,Rack Lodge,Rack Lodge Data Center
"
	VivosWeb Data Center is located in the area Hamilton, Canada, and the colocation data center is not  carrier neutral. The data center was last updated on 07-02-2017.",VivosWeb Data Center,Canada,Ontario,L8P4W7,Hamilton,VivosWeb Data Center,VivosWeb
"
	EMMEX - Data Center is located in the area Rio de Janeiro, Brazil (Brasil), and the colocation data center is  carrier neutral. The data center was last updated on 02-04-2014.",EMMEX - Data Center,Brazil,Rio de Janeiro,24.230-065,Niteroi,,EMMEX - Data Center
"
	Fiber Hosting Canada Inc is located in the area Winnipeg, Canada, and the colocation data center is not  carrier neutral. The data center was last updated on 24-02-2015.",Fiber Hosting Canada Inc,Canada,mb,R3G 0V3,Winnipeg,Fiber Hosting Canada Inc,Fiber Hosting Canada
"
	P1 is located in the area Wiltshire, United Kingdom (UK), and the colocation data center is not  carrier neutral. The data center was last updated on 14-05-2013.",P1,United Kingdom,Wiltshire,SN13 9GB,Corsham,P1,MDS Technologies Ltd
"
	CAT Telecom Tower is located in the area Bangkok, Thailand (Ratcha Anachak Thai).",CAT Telecom Tower,,,,,,
"
	ArteOne is located in the area Limoges, France (Française), and the colocation data center is not  carrier neutral. The data center was last updated on 19-05-2013.",ArteOne,France,Limousin,19100,Brive-la-Gaillarde,ArteOne,Artefact
"
	Big Horn Data Center is located in the area Sheridan, USA (America), and the colocation data center is not  carrier neutral. The data center was last updated on 19-05-2013.",Big Horn Data Center,USA,Wyoming,82801,Sheridan,Big Horn Data Center,Big horn Mountain Data Center
"
	Ricoh Data Center Delhi is located in the area New Delhi, India, and the colocation data center is  carrier neutral. The data center was last updated on 21-05-2015.",Ricoh Data Center Delhi,India,New Delhi,110025,Delhi,Ricoh Data Center Delhi,RICOH INDIA LTD
"
	Xogenous is located in the area Reno, USA (America), and the colocation data center is  carrier neutral. The data center was last updated on 21-05-2013.",Xogenous,USA,Nevada,89701,Carson City,,Xogenous
"
	Ricoh Data Center Kolkata is located in the area Kolkata, India, and the colocation data center is  carrier neutral. The data center was last updated on 21-05-2015.",Ricoh Data Center Kolkata,India,West Bengal,700091,Kolkata,Ricoh Data Center Kolkata,RICOH INDIA LTD
"
	Ricoh - Data Center Mumbai is located in the area Mumbai, India, and the colocation data center is  carrier neutral. The data center was last updated on 21-05-2015.",Ricoh - Data Center Mumbai,India,Maharastra,400093,Mumbai,Ricoh - Data Center Mumbai,RICOH INDIA LTD
"
	Ricoh - Data Center Chennai is located in the area Chennai, India, and the colocation data center is  carrier neutral. The data center was last updated on 21-05-2015.",Ricoh - Data Center Chennai,India,Tamil Nadu,600031,Chennai,Ricoh - Data Center Chennai,RICOH INDIA LTD
"
	Ricoh - Data Center Bangalore is located in the area Bangalore (Bengaluru), India, and the colocation data center is  carrier neutral. The data center was last updated on 21-05-2015.",Ricoh - Data Center Bangalore,India,Karnataka,560071,Bangalore,Ricoh - Data Center Bangalore,RICOH INDIA LTD
"
	Frederick Data Center II is located in the area Frederick, USA (America), and the colocation data center is not  carrier neutral. The data center was last updated on 23-05-2013.",Frederick Data Center II,USA,Maryland,21704,Frederick,Frederick Data Center II,"Swift Systems, Inc."
"
	Ricoh - Data Center Hyderabad is located in the area Hyderabad, India, and the colocation data center is  carrier neutral. The data center was last updated on 21-05-2015.",Ricoh - Data Center Hyderabad,India,Andhra Pradesh,500016,Hyderabad,Ricoh - Data Center Hyderabad,RICOH INDIA LTD
"
	Raunas DC is located in the area Riga, Latvia (Latvija), and the colocation data center is not  carrier neutral. The data center was last updated on 24-05-2013.",Raunas DC,Latvia,,LV1039,Riga,Raunas DC,Telenet
"
	Zoar is located in the area Buzau, Romania, and the colocation data center is  carrier neutral. The data center was last updated on 24-05-2013.",Zoar,Romania,,125300,Buzau,Zoar,zoar online srl
"
	CIS DataCenter is located in the area Islamabad, Pakistan (Islamic Republic of Pakistan), and the colocation data center is not  carrier neutral. The data center was last updated on 27-05-2013.",CIS DataCenter,Pakistan,Capital,44000,Islamabad,CIS DataCenter,COMSATS Internet Services
"
	1025Connect, LLC is located in the area Long Island, USA (America), and the colocation data center is  carrier neutral. The data center was last updated on 24-05-2013.","1025Connect, LLC",USA,New York,11590,Westbury,,"1025Connect, LLC"
"
	AlphaHost.lv Data Center Elijas is located in the area Riga, Latvia (Latvija), and the colocation data center is not  carrier neutral. The data center was last updated on 28-05-2013.",AlphaHost.lv Data Center Elijas,Latvia,,LV-1050,Riga,AlphaHost.lv Data Center Elijas,AlphaHost.lv
"
	LIM is located in the area Warsaw (Warszawa), Poland (Polska), and the colocation data center is  carrier neutral. The data center was last updated on 28-05-2013.",LIM,Poland,,00-697,Warsaw,LIM,LIM Joint Venture Sp. z o.o.
"
	EarthLink - San Jose Data Center is located in the area San Jose, USA (America), and the colocation data center is  carrier neutral. The data center was last updated on 28-05-2013.",EarthLink - San Jose Data Center,USA,California,95119,San Jose,EarthLink - San Jose Data Center,EarthLink
"
	Heartlands Data Center is located in the area Appleton, USA (America), and the colocation data center is not  carrier neutral. The data center was last updated on 31-05-2013.",Heartlands Data Center,USA,Wisconsin,54311,Little Chute,Heartlands Data Center,Heartland Business System
"
	Rackbank Datacenters Pvt. Ltd. is located in the area Indore, India, and the colocation data center is  carrier neutral. The data center was last updated on 03-12-2015.",Rackbank Datacenters Pvt. Ltd.,India,M.P.,452001,Indore,,Rackbank Datacenters Pvt. Ltd.
"
	Albergue da Web is located in the area Natal, Brazil (Brasil), and the colocation data center is not  carrier neutral. The data center was last updated on 04-06-2013.",Albergue da Web,Brazil,RIO GRANDE DO NORTE,59064390,Natal,,Albergue da Web
"
	ISG Wichita is located in the area Wichita, USA (America), and the colocation data center is  carrier neutral. The data center was last updated on 18-06-2013.",ISG Wichita,USA,Kansas,67213,Wichita,ISG Wichita,ISG Technology
"
	ISG Columbia is located in the area Columbia, USA (America), and the colocation data center is not  carrier neutral. The data center was last updated on 18-06-2013.",ISG Columbia,USA,Missouri,65203,Columbia,ISG Columbia,ISG Technology
"
	Ukrnames is located in the area Kharkov, Ukraine (Ukrayina), and the colocation data center is not  carrier neutral. The data center was last updated on 20-06-2013.",Ukrnames,Ukraine,,61146,Kharkov,Ukrnames,Center of Ukrainian Internet Names
"
	Halifax Data Center is located in the area Halifax, Canada, and the colocation data center is not  carrier neutral. The data center was last updated on 19-06-2013.",Halifax Data Center,Canada,Nova Scotia,B3K 1N7,Halifax,Halifax Data Center,BellAliant
"
	GDC3 is located in the area Paris, France (Française), and the colocation data center is  carrier neutral. The data center was last updated on 03-07-2013.",GDC3,France,,78140,Vélizy-Villacoublay,GDC3,Green Data Center 1
"
	Grid Telekom Data Center is located in the area Ankara, Turkey (Türkiye), and the colocation data center is  carrier neutral. The data center was last updated on 30-08-2016.",Grid Telekom Data Center,Turkey,,06830,Ankara,Grid Telekom Data Center,Grid Telekom
"
	Grid Telekom Data Center is located in the area Istanbul, Turkey (Türkiye), and the colocation data center is not  carrier neutral. The data center was last updated on 30-08-2016.",Grid Telekom Data Center,Turkey,,34349,Besiktas,Grid Telekom Data Center,Grid Telekom
"
	Baltimore- Tide Point is located in the area Baltimore, USA (America), and the colocation data center is not  carrier neutral. The data center was last updated on 24-06-2013.",Baltimore- Tide Point,USA,Maryland,21230,Baltimore,Baltimore- Tide Point,Expedient Data Centers
"
	Baltimore - Owings Mills is located in the area Baltimore, USA (America), and the colocation data center is not  carrier neutral. The data center was last updated on 15-10-2013.",Baltimore - Owings Mills,USA,Maryland,21117,Baltimore,Baltimore - Owings Mills,Expedient Data Centers
"
	Transcendent is located in the area Milwaukee, USA (America), and the colocation data center is  carrier neutral. The data center was last updated on 27-03-2014.",Transcendent,USA,Wisconsin,53029,Hartland,,Transcendent
"
	newsnet ag Data Center is located in the area Vaduz, Liechtenstein (Principality of Liechtenstein ), and the colocation data center is  carrier neutral. The data center was last updated on 28-06-2013.",newsnet ag Data Center,Liechtenstein,,9494,Schaan,newsnet ag Data Center,newsnet ag
"
	ByteGrid Cleveland is located in the area Cleveland, USA (America), and the colocation data center is  carrier neutral. The data center was last updated on 15-08-2016.",ByteGrid Cleveland,USA,Ohio,44114,Cleveland,ByteGrid Cleveland,ByteGrid
"
	Sify GreenFort Noida is located in the area New Delhi, India, and the colocation data center is  carrier neutral. The data center was last updated on 05-08-2013.",Sify GreenFort Noida,India,New Delhi,201301,Noida,Sify GreenFort Noida,SIFY Technologies Pvt Ltd
"
	Sify Airoli is located in the area Mumbai, India, and the colocation data center is  carrier neutral. The data center was last updated on 05-08-2013.",Sify Airoli,India,Maharashtra,400708,Navi Mumbai,Sify Airoli,SIFY Technologies Pvt Ltd
"
	Towngas Chibo is located in the area Shandong, China, and the colocation data center is  carrier neutral. The data center was last updated on 05-07-2013.",Towngas Chibo,China,,250101,Jinan,Towngas Chibo,Towngas Telecommunications Company Limited
